{
"type": "FeatureCollection",
"name": "Halte_K1_Malang",
"features": [
{ "type": "Feature", "properties": { "No": 1, "Nama Halte": "Terminal Hamid Rusdi", "Latitude": -8.0263334323306488, "Longitude": 112.64375394092049, "Alamat": "Wonokoyo, Kec. Kedungkandang, Kota Malang, Jawa Timur" }, "geometry": { "type": "Point", "coordinates": [ 112.6437539, -8.0263334 ] } },
{ "type": "Feature", "properties": { "No": 2, "Nama Halte": "Rambu GOR Ken Arok 2", "Latitude": -8.0122718108211544, "Longitude": 112.6435997709568, "Alamat": "Buring, Kec. Kedungkandang, Kota Malang, Jawa Timur" }, "geometry": { "type": "Point", "coordinates": [ 112.6435998, -8.0122718 ] } },
{ "type": "Feature", "properties": { "No": 3, "Nama Halte": "Shelter GOR Ken Arok 1", "Latitude": -8.0121516256307324, "Longitude": 112.64348041266135, "Alamat": "Buring, Kec. Kedungkandang, Kota Malang, Jawa Timur" }, "geometry": { "type": "Point", "coordinates": [ 112.6434804, -8.0121516 ] } },
{ "type": "Feature", "properties": { "No": 4, "Nama Halte": "Rambu Ki Agung Gribig", "Latitude": -7.980055948412426, "Longitude": 112.6682998705522, "Alamat": "Madyopuro, Kec. Kedungkandang, Kota Malang, Jawa Timur" }, "geometry": { "type": "Point", "coordinates": [ 112.6682999, -7.9800559 ] } },
{ "type": "Feature", "properties": { "No": 5, "Nama Halte": "Shelter Terminal Madyapuro", "Latitude": -7.9748315313509517, "Longitude": 112.67059117088793, "Alamat": "Madyopuro, Kec. Kedungkandang, Kota Malang, Jawa Timur" }, "geometry": { "type": "Point", "coordinates": [ 112.6705912, -7.9748315 ] } },
{ "type": "Feature", "properties": { "No": 6, "Nama Halte": "Rambu Sawojajar 2", "Latitude": -7.9810808523255732, "Longitude": 112.65545966557826, "Alamat": "Sawojajar, Kec. Kedungkandang, Kota Malang, Jawa Timur" }, "geometry": { "type": "Point", "coordinates": [ 112.6554597, -7.9810809 ] } },
{ "type": "Feature", "properties": { "No": 7, "Nama Halte": "Shelter Eksisting Sawojajar 1", "Latitude": -7.9814905492289974, "Longitude": 112.65456962419971, "Alamat": "Sawojajar, Kec. Kedungkandang, Kota Malang, Jawa Timur" }, "geometry": { "type": "Point", "coordinates": [ 112.6545696, -7.9814905 ] } },
{ "type": "Feature", "properties": { "No": 8, "Nama Halte": "Rambu Pasar Bunulrejo", "Latitude": -7.9727449246611215, "Longitude": 112.64581672914886, "Alamat": "Bunulrejo, Kec. Blimbing, Kota Malang, Jawa Timur" }, "geometry": { "type": "Point", "coordinates": [ 112.6458167, -7.9727449 ] } },
{ "type": "Feature", "properties": { "No": 9, "Nama Halte": "St. Malang Kota Baru Timur", "Latitude": -7.9788908343036384, "Longitude": 112.63806924070499, "Alamat": "Kiduldalem, Kec. Klojen, Kota Malang, Jawa Timur" }, "geometry": { "type": "Point", "coordinates": [ 112.6380692, -7.9788908 ] } },
{ "type": "Feature", "properties": { "No": 10, "Nama Halte": "St. Malang Kota Baru Barat", "Latitude": -7.9770510535491992, "Longitude": 112.63687916100038, "Alamat": "Klojen, Kec. Klojen, Kota Malang, Jawa Timur" }, "geometry": { "type": "Point", "coordinates": [ 112.6368792, -7.9770511 ] } },
{ "type": "Feature", "properties": { "No": 11, "Nama Halte": "Shelter Kajoetangan", "Latitude": -7.9800217322147233, "Longitude": 112.63005964457824, "Alamat": "Kauman, Kec. Klojen, Kota Malang, Jawa Timur" }, "geometry": { "type": "Point", "coordinates": [ 112.6300596, -7.9800217 ] } },
{ "type": "Feature", "properties": { "No": 12, "Nama Halte": "Rambu Kawi 2", "Latitude": -7.9787500038319381, "Longitude": 112.62463046965621, "Alamat": "Kauman, Kec. Klojen, Kota Malang, Jawa Timur" }, "geometry": { "type": "Point", "coordinates": [ 112.6246305, -7.97875 ] } },
{ "type": "Feature", "properties": { "No": 13, "Nama Halte": "Rambu Kawi 1", "Latitude": -7.977610258125881, "Longitude": 112.62296050611997, "Alamat": "Kauman, Kec. Klojen, Kota Malang, Jawa Timur" }, "geometry": { "type": "Point", "coordinates": [ 112.6229605, -7.9776103 ] } },
{ "type": "Feature", "properties": { "No": 14, "Nama Halte": "Rambu Ijen 2", "Latitude": -7.9642294540083096, "Longitude": 112.62515192386688, "Alamat": "Oro-oro Dowo, Kec. Klojen, Kota Malang, Jawa Timur" }, "geometry": { "type": "Point", "coordinates": [ 112.6251519, -7.9642295 ] } },
{ "type": "Feature", "properties": { "No": 15, "Nama Halte": "Shelter Ijen 1", "Latitude": -7.9640000991091409, "Longitude": 112.62513031683923, "Alamat": "Oro-oro Dowo, Kec. Klojen, Kota Malang, Jawa Timur" }, "geometry": { "type": "Point", "coordinates": [ 112.6251303, -7.9640001 ] } },
{ "type": "Feature", "properties": { "No": 16, "Nama Halte": "Shelter Eksisting Veteran 1", "Latitude": -7.95707867647622, "Longitude": 112.61721246686103, "Alamat": "Sumbersari, Kec. Lowokwaru, Kota Malang, Jawa Timur" }, "geometry": { "type": "Point", "coordinates": [ 112.6172125, -7.9570787 ] } },
{ "type": "Feature", "properties": { "No": 17, "Nama Halte": "Shelter Eksisting Veteran 2", "Latitude": -7.9566540500377103, "Longitude": 112.61704301907874, "Alamat": "Penanggungan, Kec. Klojen, Kota Malang, Jawa Timur" }, "geometry": { "type": "Point", "coordinates": [ 112.617043, -7.9566541 ] } },
{ "type": "Feature", "properties": { "No": 18, "Nama Halte": "Shelter Ketawanggede 1", "Latitude": -7.9505039098280141, "Longitude": 112.60885117494355, "Alamat": "Ketawanggede, Kec. Lowokwaru, Kota Malang, Jawa Timur" }, "geometry": { "type": "Point", "coordinates": [ 112.6088512, -7.9505039 ] } },
{ "type": "Feature", "properties": { "No": 19, "Nama Halte": "Rambu Ketawanggede 2", "Latitude": -7.9485111635593801, "Longitude": 112.60885031441354, "Alamat": "Ketawanggede, Kec. Lowokwaru, Kota Malang, Jawa Timur" }, "geometry": { "type": "Point", "coordinates": [ 112.6088503, -7.9485112 ] } },
{ "type": "Feature", "properties": { "No": 20, "Nama Halte": "Rambu Dinoyo 2", "Latitude": -7.9377214004109682, "Longitude": 112.60659967424284, "Alamat": "Dinoyo, Kec. Lowokwaru, Kota Malang, Jawa Timur" }, "geometry": { "type": "Point", "coordinates": [ 112.6065997, -7.9377214 ] } },
{ "type": "Feature", "properties": { "No": 21, "Nama Halte": "Rambu Dinoyo 1", "Latitude": -7.9365768261752745, "Longitude": 112.60571001569588, "Alamat": "Dinoyo, Kec. Lowokwaru, Kota Malang, Jawa Timur" }, "geometry": { "type": "Point", "coordinates": [ 112.60571, -7.9365768 ] } },
{ "type": "Feature", "properties": { "No": 22, "Nama Halte": "Shelter Terminal Landungsari", "Latitude": -7.9247510164199291, "Longitude": 112.59776030032739, "Alamat": "Dusun Rambaan, Landungsari, Kec. Dau, Kabupaten Malang, Jawa Timur" }, "geometry": { "type": "Point", "coordinates": [ 112.5977603, -7.924751 ] } },
{ "type": "Feature", "properties": { "No": 23, "Nama Halte": "Rambu Raya Tlogomas 2", "Latitude": -7.9212377738451716, "Longitude": 112.59533142544542, "Alamat": "Tlogomas, Kec. Lowokwaru, Kota Malang, Jawa Timur" }, "geometry": { "type": "Point", "coordinates": [ 112.5953314, -7.9212378 ] } },
{ "type": "Feature", "properties": { "No": 24, "Nama Halte": "Rambu Raya Tlogomas 1", "Latitude": -7.921010633723462, "Longitude": 112.59488010804284, "Alamat": "Tlogomas, Kec. Lowokwaru, Kota Malang, Jawa Timur" }, "geometry": { "type": "Point", "coordinates": [ 112.5948801, -7.9210106 ] } },
{ "type": "Feature", "properties": { "No": 25, "Nama Halte": "Rambu Sengkaling 1", "Latitude": -7.9156128589847121, "Longitude": 112.5868472404137, "Alamat": "Sengkaling, Mulyoagung, Kec. Dau, Kabupaten Malang, Jawa Timur" }, "geometry": { "type": "Point", "coordinates": [ 112.5868472, -7.9156129 ] } },
{ "type": "Feature", "properties": { "No": 26, "Nama Halte": "Rambu Sengkaling 2", "Latitude": -7.9155468427235727, "Longitude": 112.58692140176548, "Alamat": "Sengkaling, Mulyoagung, Kec. Dau, Kabupaten Malang, Jawa Timur" }, "geometry": { "type": "Point", "coordinates": [ 112.5869214, -7.9155468 ] } },
{ "type": "Feature", "properties": { "No": 27, "Nama Halte": "Shelter Dau 2", "Latitude": -7.9145808048720809, "Longitude": 112.58392909753307, "Alamat": "Sengkaling, Mulyoagung, Kec. Dau, Kabupaten Malang, Jawa Timur" }, "geometry": { "type": "Point", "coordinates": [ 112.5839291, -7.9145808 ] } },
{ "type": "Feature", "properties": { "No": 28, "Nama Halte": "Rambu Dau 1", "Latitude": -7.9165799215533532, "Longitude": 112.58303956535688, "Alamat": "Sengkaling, Mulyoagung, Kec. Dau, Kabupaten Malang, Jawa Timur" }, "geometry": { "type": "Point", "coordinates": [ 112.5830396, -7.9165799 ] } },
{ "type": "Feature", "properties": { "No": 29, "Nama Halte": "Shelter Mulyoagung 1", "Latitude": -7.9225005470443524, "Longitude": 112.58131963529317, "Alamat": "Jetak Lor, Mulyoagung, Kec. Dau, Kabupaten Malang, Jawa Timur" }, "geometry": { "type": "Point", "coordinates": [ 112.5813196, -7.9225005 ] } },
{ "type": "Feature", "properties": { "No": 30, "Nama Halte": "Rambu Mulyoagung 2", "Latitude": -7.9232015067908952, "Longitude": 112.58054921133646, "Alamat": "Jetak Ngasri, Mulyoagung, Kec. Dau, Kabupaten Malang, Jawa Timur" }, "geometry": { "type": "Point", "coordinates": [ 112.5805492, -7.9232015 ] } },
{ "type": "Feature", "properties": { "No": 31, "Nama Halte": "Rambu Perempatan Semanding 1", "Latitude": -7.9226290943131952, "Longitude": 112.57566262151373, "Alamat": "Semanding, Sumbersekar, Kec. Dau, Kabupaten Malang, Jawa Timur" }, "geometry": { "type": "Point", "coordinates": [ 112.5756626, -7.9226291 ] } },
{ "type": "Feature", "properties": { "No": 32, "Nama Halte": "Rambu Perempatan Semanding 2", "Latitude": -7.9223816468329833, "Longitude": 112.57515982425311, "Alamat": "Semanding, Sumbersekar, Kec. Dau, Kabupaten Malang, Jawa Timur" }, "geometry": { "type": "Point", "coordinates": [ 112.5751598, -7.9223816 ] } },
{ "type": "Feature", "properties": { "No": 33, "Nama Halte": "Rambu Sumber Sekar 1", "Latitude": -7.9204716481101594, "Longitude": 112.56625942220165, "Alamat": "Krajan, Sumbersekar, Kec. Dau, Kabupaten Malang, Jawa Timur" }, "geometry": { "type": "Point", "coordinates": [ 112.5662594, -7.9204716 ] } },
{ "type": "Feature", "properties": { "No": 34, "Nama Halte": "Rambu Sumber Sekar 2", "Latitude": -7.920758571501235, "Longitude": 112.56630568683661, "Alamat": "Krajan, Sumbersekar, Kec. Dau, Kabupaten Malang, Jawa Timur" }, "geometry": { "type": "Point", "coordinates": [ 112.5663057, -7.9207586 ] } },
{ "type": "Feature", "properties": { "No": 35, "Nama Halte": "Rambu Banjar Tengah 2", "Latitude": -7.9163611748532112, "Longitude": 112.56703007332702, "Alamat": "Banjartengah, Sumbersekar, Kec. Dau, Kabupaten Malang, Jawa Timur" }, "geometry": { "type": "Point", "coordinates": [ 112.5670301, -7.9163612 ] } },
{ "type": "Feature", "properties": { "No": 36, "Nama Halte": "Rambu Banjar Tengah 1", "Latitude": -7.9163512124225068, "Longitude": 112.56671960763258, "Alamat": "Banjartengah, Sumbersekar, Kec. Dau, Kabupaten Malang, Jawa Timur" }, "geometry": { "type": "Point", "coordinates": [ 112.5667196, -7.9163512 ] } },
{ "type": "Feature", "properties": { "No": 37, "Nama Halte": "Rambu Kampung Dokar Banjar 1", "Latitude": -7.9145904737033144, "Longitude": 112.56351984756719, "Alamat": "Banjartengah, Sumbersekar, Kec. Dau, Kabupaten Malang, Jawa Timur" }, "geometry": { "type": "Point", "coordinates": [ 112.5635198, -7.9145905 ] } },
{ "type": "Feature", "properties": { "No": 38, "Nama Halte": "Rambu Kampung Dokar Banjar 2", "Latitude": -7.9145101097487798, "Longitude": 112.56351984756719, "Alamat": "Banjartengah, Sumbersekar, Kec. Dau, Kabupaten Malang, Jawa Timur" }, "geometry": { "type": "Point", "coordinates": [ 112.5635198, -7.9145101 ] } },
{ "type": "Feature", "properties": { "No": 39, "Nama Halte": "Rambu Kelurahan Junrejo 1", "Latitude": -7.9110237351604358, "Longitude": 112.55984967622842, "Alamat": "Junrejo, Kec. Junrejo, Kota Batu, Jawa Timur" }, "geometry": { "type": "Point", "coordinates": [ 112.5598497, -7.9110237 ] } },
{ "type": "Feature", "properties": { "No": 40, "Nama Halte": "Rambu Kelurahan Junrejo 2", "Latitude": -7.9109888515410667, "Longitude": 112.55992191858383, "Alamat": "Junrejo, Kec. Junrejo, Kota Batu, Jawa Timur" }, "geometry": { "type": "Point", "coordinates": [ 112.5599219, -7.9109889 ] } },
{ "type": "Feature", "properties": { "No": 41, "Nama Halte": "Shelter Kecamatan Junrejo 1", "Latitude": -7.9105505442443453, "Longitude": 112.55759932769614, "Alamat": "Junrejo, Kec. Junrejo, Kota Batu, Jawa Timur" }, "geometry": { "type": "Point", "coordinates": [ 112.5575993, -7.9105505 ] } },
{ "type": "Feature", "properties": { "No": 42, "Nama Halte": "Rambu Kecamatan Junrejo 2", "Latitude": -7.9105910586951644, "Longitude": 112.55724996996803, "Alamat": "Junrejo, Kec. Junrejo, Kota Batu, Jawa Timur" }, "geometry": { "type": "Point", "coordinates": [ 112.55725, -7.9105911 ] } },
{ "type": "Feature", "properties": { "No": 43, "Nama Halte": "Shelter Gangsiran Wetan", "Latitude": -7.9129705246162541, "Longitude": 112.54882014143496, "Alamat": "Tlekung, Kec. Junrejo, Kota Batu, Jawa Timur" }, "geometry": { "type": "Point", "coordinates": [ 112.5488201, -7.9129705 ] } },
{ "type": "Feature", "properties": { "No": 44, "Nama Halte": "Shelter Gangsiran Puthuk 1", "Latitude": -7.9161415020235459, "Longitude": 112.54049919537701, "Alamat": "Tlekung, Kec. Junrejo, Kota Batu, Jawa Timur" }, "geometry": { "type": "Point", "coordinates": [ 112.5404992, -7.9161415 ] } },
{ "type": "Feature", "properties": { "No": 45, "Nama Halte": "Rambu Gangsiran Puthuk 2", "Latitude": -7.9161401736988264, "Longitude": 112.54005931309722, "Alamat": "Tlekung, Kec. Junrejo, Kota Batu, Jawa Timur" }, "geometry": { "type": "Point", "coordinates": [ 112.5400593, -7.9161402 ] } },
{ "type": "Feature", "properties": { "No": 46, "Nama Halte": "Rambu Jalibar Tlekung 1", "Latitude": -7.9129117305240237, "Longitude": 112.53784017154858, "Alamat": "Tlekung, Kec. Junrejo, Kota Batu, Jawa Timur" }, "geometry": { "type": "Point", "coordinates": [ 112.5378402, -7.9129117 ] } },
{ "type": "Feature", "properties": { "No": 47, "Nama Halte": "Rambu Jalibar Tlekung 2", "Latitude": -7.9128612537868337, "Longitude": 112.53789985069984, "Alamat": "Tlekung, Kec. Junrejo, Kota Batu, Jawa Timur" }, "geometry": { "type": "Point", "coordinates": [ 112.5378999, -7.9128613 ] } },
{ "type": "Feature", "properties": { "No": 48, "Nama Halte": "Shelter Balai Desa Tlekung 2", "Latitude": -7.9113385239760943, "Longitude": 112.53908039912587, "Alamat": "Tlekung, Kec. Junrejo, Kota Batu, Jawa Timur" }, "geometry": { "type": "Point", "coordinates": [ 112.5390804, -7.9113385 ] } },
{ "type": "Feature", "properties": { "No": 49, "Nama Halte": "Shelter Balai Desa Tlekung 1", "Latitude": -7.9111310918779658, "Longitude": 112.53867944042715, "Alamat": "Tlekung, Kec. Junrejo, Kota Batu, Jawa Timur" }, "geometry": { "type": "Point", "coordinates": [ 112.5386794, -7.9111311 ] } },
{ "type": "Feature", "properties": { "No": 50, "Nama Halte": "Rambu Krajan Tlkeung 1", "Latitude": -7.9083585397531317, "Longitude": 112.53831285202891, "Alamat": "Tlekung, Kec. Junrejo, Kota Batu, Jawa Timur" }, "geometry": { "type": "Point", "coordinates": [ 112.5383129, -7.9083585 ] } },
{ "type": "Feature", "properties": { "No": 51, "Nama Halte": "Rambu Krajan Tlkeung 2", "Latitude": -7.9083047993679081, "Longitude": 112.53837128198955, "Alamat": "Tlekung, Kec. Junrejo, Kota Batu, Jawa Timur" }, "geometry": { "type": "Point", "coordinates": [ 112.5383713, -7.9083048 ] } },
{ "type": "Feature", "properties": { "No": 52, "Nama Halte": "Shelter RS Baptis 2", "Latitude": -7.9063606586046591, "Longitude": 112.5370251297677, "Alamat": "Tlekung, Kec. Junrejo, Kota Batu, Jawa Timur" }, "geometry": { "type": "Point", "coordinates": [ 112.5370251, -7.9063607 ] } },
{ "type": "Feature", "properties": { "No": 53, "Nama Halte": "Rambu RS Baptis 1", "Latitude": -7.9064317665585122, "Longitude": 112.53699023096308, "Alamat": "Tlekung, Kec. Junrejo, Kota Batu, Jawa Timur" }, "geometry": { "type": "Point", "coordinates": [ 112.5369902, -7.9064318 ] } },
{ "type": "Feature", "properties": { "No": 54, "Nama Halte": "Shelter Kementan BSIP 1", "Latitude": -7.9031821553953794, "Longitude": 112.5363433950232, "Alamat": "Beji, Kec. Junrejo, Kota Batu, Jawa Timur" }, "geometry": { "type": "Point", "coordinates": [ 112.5363434, -7.9031822 ] } },
{ "type": "Feature", "properties": { "No": 55, "Nama Halte": "Shelter Kementan BSIP 2", "Latitude": -7.9028647230269913, "Longitude": 112.53649495925704, "Alamat": "Beji, Kec. Junrejo, Kota Batu, Jawa Timur" }, "geometry": { "type": "Point", "coordinates": [ 112.536495, -7.9028647 ] } },
{ "type": "Feature", "properties": { "No": 56, "Nama Halte": "Shelter Oro-Oro Ombo 1", "Latitude": -7.8965876787098432, "Longitude": 112.53415953310191, "Alamat": "Oro-Oro Ombo, Kec. Batu, Kota Batu, Jawa Timur" }, "geometry": { "type": "Point", "coordinates": [ 112.5341595, -7.8965877 ] } },
{ "type": "Feature", "properties": { "No": 57, "Nama Halte": "Shelter Oro-Oro Ombo 2", "Latitude": -7.8957467011393652, "Longitude": 112.53395005578697, "Alamat": "Oro-Oro Ombo, Kec. Batu, Kota Batu, Jawa Timur" }, "geometry": { "type": "Point", "coordinates": [ 112.5339501, -7.8957467 ] } },
{ "type": "Feature", "properties": { "No": 58, "Nama Halte": "Shelter Bukit Panderman 1", "Latitude": -7.890291335696145, "Longitude": 112.53190059304728, "Alamat": "Oro-Oro Ombo, Kec. Batu, Kota Batu, Jawa Timur" }, "geometry": { "type": "Point", "coordinates": [ 112.5319006, -7.8902913 ] } },
{ "type": "Feature", "properties": { "No": 59, "Nama Halte": "Shelter Bukit Panderman 2", "Latitude": -7.8901917050920245, "Longitude": 112.53195960164628, "Alamat": "Oro-Oro Ombo, Kec. Batu, Kota Batu, Jawa Timur" }, "geometry": { "type": "Point", "coordinates": [ 112.5319596, -7.8901917 ] } },
{ "type": "Feature", "properties": { "No": 60, "Nama Halte": "Shelter Oro-Oro Ombo 3", "Latitude": -7.8884500424255544, "Longitude": 112.52998054296586, "Alamat": "Temas, Kec. Batu, Kota Batu, Jawa Timur" }, "geometry": { "type": "Point", "coordinates": [ 112.5299805, -7.88845 ] } },
{ "type": "Feature", "properties": { "No": 61, "Nama Halte": "Shelter Oro-Oro Ombo 4", "Latitude": -7.88744042575523, "Longitude": 112.53045936535854, "Alamat": "Temas, Kec. Batu, Kota Batu, Jawa Timur" }, "geometry": { "type": "Point", "coordinates": [ 112.5304594, -7.8874404 ] } },
{ "type": "Feature", "properties": { "No": 62, "Nama Halte": "Terminal Batu", "Latitude": -7.8821207451534967, "Longitude": 112.53313390266578, "Alamat": "Temas, Kec. Batu, Kota Batu, Jawa Timur" }, "geometry": { "type": "Point", "coordinates": [ 112.5331339, -7.8821207 ] } }
]
}
