{
"type": "FeatureCollection",
"name": "Jalur_K1_Malang",
"features": [
{ "type": "Feature", "properties": { "fid": 1, "Name": "Batu-Hamid Rusdi", "description": null, "timestamp": null, "begin": null, "end": null, "altitudeMode": null, "tessellate": 1, "extrude": 0, "visibility": -1, "drawOrder": null, "icon": null, "layer": "Batu-Hamid Rusdi — Batu-Hamid Rusdi.kmz", "path": "D:/GEOGRAPHY/PKM TRACE/Batu-Hamid Rusdi.kmz|layername=Batu-Hamid Rusdi.kmz|geometrytype=LineString25D|uniqueGeometryType=yes" }, "geometry": { "type": "LineString", "coordinates": [ [ 112.5327002, -7.8822753 ], [ 112.5327472, -7.8823744 ], [ 112.5327698, -7.8824975 ], [ 112.5325872, -7.8825396 ], [ 112.532426, -7.882581 ], [ 112.5323457, -7.8826086 ], [ 112.5322088, -7.8826624 ], [ 112.5316197, -7.882823 ], [ 112.5311347, -7.8829438 ], [ 112.5310363, -7.882972 ], [ 112.5308712, -7.8829906 ], [ 112.530273, -7.8830347 ], [ 112.5296646, -7.8830556 ], [ 112.529625, -7.8830587 ], [ 112.5296029, -7.8830596 ], [ 112.5295765, -7.8831476 ], [ 112.5295283, -7.883244 ], [ 112.52947, -7.8833578 ], [ 112.5293806, -7.8834701 ], [ 112.5293262, -7.8835253 ], [ 112.5291325, -7.883672 ], [ 112.5290141, -7.8837732 ], [ 112.5289121, -7.8838753 ], [ 112.5288692, -7.8839647 ], [ 112.5288571, -7.8840413 ], [ 112.5288662, -7.8840866 ], [ 112.5288862, -7.8841316 ], [ 112.5289363, -7.8842009 ], [ 112.5290028, -7.8842619 ], [ 112.5290903, -7.8843233 ], [ 112.5292108, -7.8844073 ], [ 112.5294064, -7.8846044 ], [ 112.5295117, -7.884746 ], [ 112.5295953, -7.8848782 ], [ 112.5296802, -7.8850218 ], [ 112.5298924, -7.8853429 ], [ 112.5300007, -7.8855343 ], [ 112.5300844, -7.8856873 ], [ 112.5301171, -7.8857366 ], [ 112.5301522, -7.8857778 ], [ 112.5301986, -7.8858471 ], [ 112.5302422, -7.8858997 ], [ 112.5302868, -7.8859647 ], [ 112.5303078, -7.8859931 ], [ 112.5303604, -7.8860541 ], [ 112.5304096, -7.8861203 ], [ 112.530439, -7.8861749 ], [ 112.5304966, -7.8862872 ], [ 112.5305187, -7.8864382 ], [ 112.5305154, -7.8865186 ], [ 112.5304845, -7.886619 ], [ 112.5304349, -7.8867295 ], [ 112.5303194, -7.8869924 ], [ 112.5302927, -7.8871109 ], [ 112.5302883, -7.8871917 ], [ 112.5303063, -7.8872676 ], [ 112.5303603, -7.8873426 ], [ 112.5304666, -7.8874745 ], [ 112.5306726, -7.8876674 ], [ 112.5307378, -7.8877245 ], [ 112.5310538, -7.888054 ], [ 112.5312032, -7.888211 ], [ 112.5313353, -7.8883878 ], [ 112.5313728, -7.8885165 ], [ 112.5313841, -7.8887204 ], [ 112.5313767, -7.8888416 ], [ 112.5313622, -7.8889411 ], [ 112.5313547, -7.8890601 ], [ 112.5313365, -7.8891591 ], [ 112.5313335, -7.889213 ], [ 112.5313467, -7.8894028 ], [ 112.5314527, -7.8896132 ], [ 112.5314792, -7.8896652 ], [ 112.5315088, -7.889712 ], [ 112.5318245, -7.8901553 ], [ 112.5319758, -7.8903089 ], [ 112.5321316, -7.8904597 ], [ 112.5323141, -7.8906362 ], [ 112.5324276, -7.890752 ], [ 112.5325119, -7.8908806 ], [ 112.5325801, -7.8910052 ], [ 112.5326171, -7.8910917 ], [ 112.532668, -7.8912677 ], [ 112.5327301, -7.8915631 ], [ 112.5327782, -7.8918067 ], [ 112.5328249, -7.8920595 ], [ 112.5328528, -7.8922636 ], [ 112.533048, -7.8934535 ], [ 112.533088, -7.8936451 ], [ 112.5331214, -7.8937597 ], [ 112.5331786, -7.893924 ], [ 112.5334537, -7.8946454 ], [ 112.5334829, -7.8947171 ], [ 112.5338104, -7.8955125 ], [ 112.533985, -7.8959272 ], [ 112.5341066, -7.8962293 ], [ 112.5345381, -7.8973668 ], [ 112.5346286, -7.8976208 ], [ 112.5348658, -7.8983747 ], [ 112.5349504, -7.8985956 ], [ 112.5349741, -7.8987126 ], [ 112.5349884, -7.8988608 ], [ 112.5350016, -7.8991157 ], [ 112.5350017, -7.8992608 ], [ 112.5350171, -7.8993556 ], [ 112.5350316, -7.8994005 ], [ 112.5350764, -7.899475 ], [ 112.5351345, -7.899563 ], [ 112.5351963, -7.8996878 ], [ 112.5352027, -7.8997571 ], [ 112.5351845, -7.8998351 ], [ 112.53515, -7.8998979 ], [ 112.5350764, -7.8999569 ], [ 112.5349082, -7.9000683 ], [ 112.5346955, -7.9002134 ], [ 112.5343707, -7.9004111 ], [ 112.5342885, -7.9004673 ], [ 112.5342083, -7.900579 ], [ 112.5342217, -7.9006821 ], [ 112.5342764, -7.9007183 ], [ 112.5344297, -7.9007313 ], [ 112.5345977, -7.9007343 ], [ 112.5347775, -7.9007449 ], [ 112.5349661, -7.9007882 ], [ 112.535161, -7.9008301 ], [ 112.5353959, -7.900914 ], [ 112.5355067, -7.9009982 ], [ 112.535612, -7.9010661 ], [ 112.5359786, -7.9013341 ], [ 112.5362173, -7.9015704 ], [ 112.536348, -7.9017338 ], [ 112.5364188, -7.9018328 ], [ 112.5365152, -7.9020438 ], [ 112.5365616, -7.9022212 ], [ 112.5365423, -7.902427 ], [ 112.5364984, -7.9027017 ], [ 112.536422, -7.9031741 ], [ 112.5363073, -7.9036545 ], [ 112.5363085, -7.9040326 ], [ 112.5363565, -7.9042836 ], [ 112.5364337, -7.9045457 ], [ 112.5365473, -7.9048177 ], [ 112.5366659, -7.9050793 ], [ 112.536736, -7.9053089 ], [ 112.5367393, -7.9056287 ], [ 112.5367493, -7.9058438 ], [ 112.5367785, -7.9059833 ], [ 112.5368234, -7.9060802 ], [ 112.5368819, -7.9061768 ], [ 112.5369781, -7.906306 ], [ 112.5370544, -7.9064605 ], [ 112.5371632, -7.9066419 ], [ 112.5373201, -7.9069834 ], [ 112.537382, -7.9071143 ], [ 112.5374617, -7.9072789 ], [ 112.5375039, -7.9073283 ], [ 112.5375913, -7.9073682 ], [ 112.5377442, -7.9074586 ], [ 112.5378209, -7.9075056 ], [ 112.5378988, -7.9075749 ], [ 112.5379898, -7.9077169 ], [ 112.538014, -7.9077845 ], [ 112.538082, -7.9080029 ], [ 112.5381536, -7.9081192 ], [ 112.5382316, -7.9082231 ], [ 112.5382794, -7.9082759 ], [ 112.5384017, -7.9083988 ], [ 112.5384807, -7.9085056 ], [ 112.5385263, -7.9086332 ], [ 112.5385454, -7.9087617 ], [ 112.5385182, -7.9090277 ], [ 112.5384613, -7.9093896 ], [ 112.5384502, -7.9094289 ], [ 112.538298, -7.9097039 ], [ 112.5380515, -7.9101018 ], [ 112.5380305, -7.9101652 ], [ 112.5380318, -7.9102363 ], [ 112.5380623, -7.910309 ], [ 112.538104, -7.9103827 ], [ 112.53813, -7.9104057 ], [ 112.5381705, -7.910456 ], [ 112.5382986, -7.910575 ], [ 112.5383614, -7.910643 ], [ 112.5384517, -7.910745 ], [ 112.5385584, -7.9108807 ], [ 112.5386361, -7.9109871 ], [ 112.538728, -7.9111019 ], [ 112.5388082, -7.9111876 ], [ 112.5388692, -7.9112491 ], [ 112.5389298, -7.9113101 ], [ 112.5389908, -7.9113386 ], [ 112.5390909, -7.9113992 ], [ 112.5392057, -7.9114838 ], [ 112.5393081, -7.9115642 ], [ 112.5393457, -7.9116085 ], [ 112.5393644, -7.9116476 ], [ 112.5393757, -7.9117142 ], [ 112.5393607, -7.9117834 ], [ 112.5393428, -7.9118672 ], [ 112.5392923, -7.9119668 ], [ 112.5392881, -7.9119723 ], [ 112.539277, -7.9119845 ], [ 112.5392618, -7.9119954 ], [ 112.5392508, -7.9120008 ], [ 112.5392385, -7.9120035 ], [ 112.5392275, -7.9120089 ], [ 112.5392137, -7.9120157 ], [ 112.5392027, -7.9120211 ], [ 112.5391917, -7.9120265 ], [ 112.5391779, -7.9120333 ], [ 112.5391628, -7.9120374 ], [ 112.5391476, -7.9120414 ], [ 112.5391324, -7.9120455 ], [ 112.53912, -7.9120482 ], [ 112.5391104, -7.9120495 ], [ 112.5390952, -7.9120535 ], [ 112.5390828, -7.9120562 ], [ 112.5390703, -7.9120589 ], [ 112.5390592, -7.9120643 ], [ 112.5388051, -7.9121066 ], [ 112.5385294, -7.9121719 ], [ 112.5382957, -7.9122339 ], [ 112.5381665, -7.9122652 ], [ 112.5380974, -7.912288 ], [ 112.5380353, -7.912322 ], [ 112.5379871, -7.912374 ], [ 112.5379505, -7.9124274 ], [ 112.5379086, -7.9125005 ], [ 112.5378805, -7.9125914 ], [ 112.5378692, -7.9126881 ], [ 112.5378743, -7.9128004 ], [ 112.5378961, -7.912876 ], [ 112.5379208, -7.9129563 ], [ 112.5379299, -7.9129723 ], [ 112.5379391, -7.9129882 ], [ 112.5379483, -7.9130041 ], [ 112.537956, -7.9130173 ], [ 112.5379607, -7.9130251 ], [ 112.5379728, -7.9130393 ], [ 112.5379845, -7.9130471 ], [ 112.5379906, -7.9130576 ], [ 112.5379993, -7.9130668 ], [ 112.5380123, -7.9130774 ], [ 112.5380225, -7.9130892 ], [ 112.5380339, -7.9130971 ], [ 112.5380427, -7.9131062 ], [ 112.5380516, -7.9131152 ], [ 112.5380604, -7.9131242 ], [ 112.538072, -7.9131319 ], [ 112.5380835, -7.9131396 ], [ 112.5380924, -7.9131486 ], [ 112.5380997, -7.913155 ], [ 112.5381101, -7.9131664 ], [ 112.5381189, -7.9131753 ], [ 112.5381278, -7.9131842 ], [ 112.5381408, -7.9131943 ], [ 112.5381496, -7.9132031 ], [ 112.5381612, -7.9132106 ], [ 112.5381743, -7.9132205 ], [ 112.5381874, -7.9132304 ], [ 112.538199, -7.9132378 ], [ 112.5382121, -7.9132476 ], [ 112.5382208, -7.9132563 ], [ 112.5382385, -7.9132896 ], [ 112.5382481, -7.9133068 ], [ 112.538256, -7.9133211 ], [ 112.538268, -7.9133297 ], [ 112.5382743, -7.9133411 ], [ 112.5382821, -7.9133553 ], [ 112.53829, -7.9133696 ], [ 112.5382962, -7.9133809 ], [ 112.538304, -7.9133951 ], [ 112.5383103, -7.9134064 ], [ 112.5383164, -7.9134177 ], [ 112.5383184, -7.9134347 ], [ 112.538326, -7.9134488 ], [ 112.5383264, -7.9134629 ], [ 112.5383268, -7.9134769 ], [ 112.5383299, -7.9134896 ], [ 112.5383331, -7.9135022 ], [ 112.5383335, -7.9135163 ], [ 112.5383323, -7.9135275 ], [ 112.538337, -7.9135429 ], [ 112.5383402, -7.9135555 ], [ 112.5383391, -7.9135736 ], [ 112.5383409, -7.9135904 ], [ 112.5383384, -7.9136057 ], [ 112.5383416, -7.9136182 ], [ 112.5383391, -7.9136336 ], [ 112.5383394, -7.9136474 ], [ 112.538341, -7.9136571 ], [ 112.53834, -7.9136752 ], [ 112.5383403, -7.913689 ], [ 112.5383378, -7.9137042 ], [ 112.5383351, -7.9137126 ], [ 112.5383356, -7.9137333 ], [ 112.5383331, -7.9137484 ], [ 112.5383277, -7.913765 ], [ 112.5383222, -7.9137747 ], [ 112.5383182, -7.9137871 ], [ 112.5383142, -7.9137995 ], [ 112.5383073, -7.9138133 ], [ 112.538299, -7.9138243 ], [ 112.5382906, -7.9138354 ], [ 112.5382823, -7.9138464 ], [ 112.538274, -7.9138575 ], [ 112.5382644, -7.9138726 ], [ 112.5382546, -7.9138809 ], [ 112.5382464, -7.9138918 ], [ 112.5382381, -7.9139028 ], [ 112.5382283, -7.9139111 ], [ 112.5382201, -7.9139221 ], [ 112.5382103, -7.9139303 ], [ 112.5381935, -7.9139386 ], [ 112.5381837, -7.9139469 ], [ 112.5381725, -7.9139524 ], [ 112.5381557, -7.9139607 ], [ 112.5381445, -7.9139663 ], [ 112.5381347, -7.9139745 ], [ 112.538125, -7.9139828 ], [ 112.538111, -7.9139897 ], [ 112.5381013, -7.9139979 ], [ 112.5380846, -7.9140061 ], [ 112.5380707, -7.9140129 ], [ 112.538054, -7.9140212 ], [ 112.5380457, -7.9140253 ], [ 112.5377694, -7.9141881 ], [ 112.5375272, -7.9143642 ], [ 112.5374503, -7.9144433 ], [ 112.5373961, -7.9145098 ], [ 112.5373528, -7.9145844 ], [ 112.5373477, -7.914638 ], [ 112.5373569, -7.9147388 ], [ 112.5373682, -7.9148515 ], [ 112.5373815, -7.9149622 ], [ 112.5374084, -7.9150764 ], [ 112.5374469, -7.9151347 ], [ 112.5374933, -7.9151609 ], [ 112.5375406, -7.915169 ], [ 112.5376164, -7.9151633 ], [ 112.5377424, -7.9151438 ], [ 112.5379078, -7.9151288 ], [ 112.5381082, -7.9151197 ], [ 112.5382971, -7.9151315 ], [ 112.5384209, -7.9151802 ], [ 112.5385262, -7.9152745 ], [ 112.5385947, -7.9153655 ], [ 112.5386399, -7.9154633 ], [ 112.5387724, -7.9158314 ], [ 112.5388556, -7.9160537 ], [ 112.5389082, -7.9161575 ], [ 112.538976, -7.9162422 ], [ 112.5390682, -7.9163047 ], [ 112.5391939, -7.916348 ], [ 112.5393172, -7.9163508 ], [ 112.5394561, -7.9163305 ], [ 112.5397743, -7.9162468 ], [ 112.5400852, -7.9161779 ], [ 112.5402732, -7.9161287 ], [ 112.5427647, -7.9155368 ], [ 112.5430984, -7.9154579 ], [ 112.5433942, -7.9153834 ], [ 112.5436487, -7.915309 ], [ 112.5438441, -7.9152402 ], [ 112.5441048, -7.9151331 ], [ 112.5453605, -7.9146179 ], [ 112.5460988, -7.9143093 ], [ 112.5470937, -7.9139018 ], [ 112.5471959, -7.9138726 ], [ 112.5473676, -7.9138347 ], [ 112.5475752, -7.9138219 ], [ 112.5477534, -7.9138023 ], [ 112.5479513, -7.9137605 ], [ 112.548041, -7.9137379 ], [ 112.5481521, -7.9136876 ], [ 112.5484398, -7.9135307 ], [ 112.5489491, -7.9132168 ], [ 112.5490035, -7.9131815 ], [ 112.5490226, -7.9131718 ], [ 112.5489958, -7.9131026 ], [ 112.5489633, -7.9130297 ], [ 112.5489373, -7.9130008 ], [ 112.5489031, -7.912997 ], [ 112.5487953, -7.9130177 ], [ 112.5487275, -7.9130474 ], [ 112.5486559, -7.9130675 ], [ 112.5484237, -7.9131126 ], [ 112.5481443, -7.9131558 ], [ 112.5481228, -7.9131478 ], [ 112.548101, -7.9130193 ], [ 112.5482133, -7.9130002 ], [ 112.5484381, -7.9129745 ], [ 112.548861, -7.9129238 ], [ 112.5489771, -7.9128121 ], [ 112.5490228, -7.9127839 ], [ 112.5490435, -7.9128504 ], [ 112.5490433, -7.9129165 ], [ 112.5490374, -7.9129815 ], [ 112.5490405, -7.9130415 ], [ 112.5490468, -7.9130782 ], [ 112.549064, -7.9131432 ], [ 112.5494229, -7.9129247 ], [ 112.5497571, -7.9127976 ], [ 112.5506561, -7.9125376 ], [ 112.5508483, -7.9124822 ], [ 112.5514028, -7.9123254 ], [ 112.5517897, -7.9121776 ], [ 112.5528257, -7.911758 ], [ 112.5543252, -7.9111579 ], [ 112.5544338, -7.9111305 ], [ 112.5546014, -7.911069 ], [ 112.5547662, -7.9110044 ], [ 112.5549567, -7.9109442 ], [ 112.5551059, -7.910939 ], [ 112.5552371, -7.9109442 ], [ 112.5557151, -7.9109609 ], [ 112.5559077, -7.9109639 ], [ 112.5559718, -7.9109679 ], [ 112.5560472, -7.9109622 ], [ 112.5564581, -7.910845 ], [ 112.5575583, -7.9105046 ], [ 112.5578915, -7.9104312 ], [ 112.55817, -7.9104387 ], [ 112.5583555, -7.9104703 ], [ 112.5584336, -7.9104821 ], [ 112.5590221, -7.9106156 ], [ 112.5591954, -7.9106431 ], [ 112.5593399, -7.9106541 ], [ 112.5595017, -7.9106347 ], [ 112.559615, -7.9106297 ], [ 112.5597068, -7.9106517 ], [ 112.5598062, -7.9107638 ], [ 112.5598772, -7.9109098 ], [ 112.5599299, -7.9110378 ], [ 112.5600509, -7.911411 ], [ 112.5600975, -7.911612 ], [ 112.560111, -7.9117702 ], [ 112.5601637, -7.9120063 ], [ 112.5602008, -7.9121536 ], [ 112.5602615, -7.9125156 ], [ 112.5602812, -7.9126694 ], [ 112.560282, -7.9127627 ], [ 112.5602824, -7.9128531 ], [ 112.5602957, -7.912956 ], [ 112.5603541, -7.913204 ], [ 112.5604304, -7.9135013 ], [ 112.5604784, -7.9136607 ], [ 112.5606314, -7.9139312 ], [ 112.5607162, -7.9139919 ], [ 112.5609068, -7.9140768 ], [ 112.5613026, -7.9141533 ], [ 112.5620321, -7.9142984 ], [ 112.5624895, -7.9143524 ], [ 112.562965, -7.9143505 ], [ 112.5631283, -7.9143911 ], [ 112.5636956, -7.9145786 ], [ 112.5637868, -7.9146302 ], [ 112.5640119, -7.9148236 ], [ 112.5642208, -7.9149928 ], [ 112.5643485, -7.9151357 ], [ 112.5644724, -7.9153103 ], [ 112.56463, -7.915538 ], [ 112.5648071, -7.9157197 ], [ 112.5650719, -7.9159089 ], [ 112.5653393, -7.9160429 ], [ 112.5657817, -7.916204 ], [ 112.5659048, -7.9162295 ], [ 112.5660608, -7.916251 ], [ 112.5663545, -7.9162564 ], [ 112.5667264, -7.9162844 ], [ 112.5668916, -7.9163264 ], [ 112.5670795, -7.9163975 ], [ 112.5672282, -7.9164847 ], [ 112.5672936, -7.9165313 ], [ 112.567375, -7.9166621 ], [ 112.5674718, -7.9168717 ], [ 112.5675573, -7.9171574 ], [ 112.567596, -7.9173576 ], [ 112.5676009, -7.9174993 ], [ 112.5675465, -7.9176961 ], [ 112.5674713, -7.9179189 ], [ 112.5674085, -7.9180281 ], [ 112.5673942, -7.9180466 ], [ 112.5673821, -7.9180548 ], [ 112.5673654, -7.9180746 ], [ 112.5673517, -7.9180865 ], [ 112.5673449, -7.9180923 ], [ 112.567338, -7.9180981 ], [ 112.5673258, -7.9181059 ], [ 112.5673083, -7.9181157 ], [ 112.5672976, -7.9181198 ], [ 112.5672842, -7.9181248 ], [ 112.5672735, -7.9181288 ], [ 112.5672627, -7.9181327 ], [ 112.5672519, -7.9181366 ], [ 112.567236, -7.918143 ], [ 112.5672228, -7.9181483 ], [ 112.5672084, -7.918151 ], [ 112.567194, -7.9181537 ], [ 112.5671811, -7.9181527 ], [ 112.5671732, -7.918156 ], [ 112.5671576, -7.918156 ], [ 112.5671459, -7.9181577 ], [ 112.5671342, -7.9181595 ], [ 112.5671225, -7.9181612 ], [ 112.5671108, -7.9181629 ], [ 112.5671002, -7.9181673 ], [ 112.5670834, -7.9181646 ], [ 112.5670689, -7.9181673 ], [ 112.5670609, -7.9181706 ], [ 112.5670478, -7.9181694 ], [ 112.5670332, -7.9181721 ], [ 112.567024, -7.9181726 ], [ 112.5670094, -7.9181753 ], [ 112.5670001, -7.9181758 ], [ 112.5667844, -7.9181773 ], [ 112.5666136, -7.918175 ], [ 112.5664945, -7.9181732 ], [ 112.5664272, -7.9181862 ], [ 112.5664135, -7.9181918 ], [ 112.5663973, -7.9181987 ], [ 112.566384, -7.9182045 ], [ 112.5663776, -7.9182108 ], [ 112.5663661, -7.9182195 ], [ 112.5663587, -7.9182297 ], [ 112.5663514, -7.9182399 ], [ 112.5663441, -7.9182501 ], [ 112.5663358, -7.9182642 ], [ 112.5663336, -7.9182719 ], [ 112.5663249, -7.9182857 ], [ 112.5663187, -7.9182983 ], [ 112.5663126, -7.9183108 ], [ 112.5663077, -7.9183195 ], [ 112.5663028, -7.9183345 ], [ 112.5662979, -7.9183494 ], [ 112.5662908, -7.9183594 ], [ 112.5662881, -7.918371 ], [ 112.5662844, -7.9183862 ], [ 112.5662841, -7.9183965 ], [ 112.5662823, -7.9184144 ], [ 112.5662838, -7.9184273 ], [ 112.5662829, -7.9184412 ], [ 112.5662844, -7.918454 ], [ 112.5662852, -7.9184704 ], [ 112.5662828, -7.9184817 ], [ 112.5662815, -7.9184953 ], [ 112.5662787, -7.9185063 ], [ 112.5662783, -7.9185161 ], [ 112.5662779, -7.918526 ], [ 112.5662779, -7.9185418 ], [ 112.5662802, -7.9185565 ], [ 112.5662835, -7.9185675 ], [ 112.5662857, -7.918582 ], [ 112.5662889, -7.918593 ], [ 112.5662922, -7.9186039 ], [ 112.5662906, -7.9186169 ], [ 112.5662952, -7.9186302 ], [ 112.566297, -7.9186386 ], [ 112.566397, -7.9192672 ], [ 112.5663437, -7.9201933 ], [ 112.5663076, -7.9204989 ], [ 112.5662914, -7.9206661 ], [ 112.5662796, -7.9207564 ], [ 112.5662844, -7.920828 ], [ 112.5663305, -7.9208645 ], [ 112.5664946, -7.9209139 ], [ 112.5669091, -7.9209906 ], [ 112.5682286, -7.921226 ], [ 112.5687682, -7.9213834 ], [ 112.5701533, -7.921734 ], [ 112.5705429, -7.9218226 ], [ 112.5706659, -7.9218497 ], [ 112.5708665, -7.9218718 ], [ 112.5711994, -7.9219006 ], [ 112.5715965, -7.9219318 ], [ 112.5728394, -7.9220208 ], [ 112.5737868, -7.9221385 ], [ 112.5740867, -7.9221798 ], [ 112.5748271, -7.9223319 ], [ 112.5753961, -7.9224522 ], [ 112.5755489, -7.9225107 ], [ 112.5756832, -7.9225886 ], [ 112.5759481, -7.9227509 ], [ 112.5763931, -7.9230635 ], [ 112.5775446, -7.9237211 ], [ 112.5776768, -7.9237632 ], [ 112.5777582, -7.9237807 ], [ 112.5778395, -7.9237762 ], [ 112.5779266, -7.923759 ], [ 112.5781606, -7.9236773 ], [ 112.5784453, -7.9235586 ], [ 112.5787344, -7.9234728 ], [ 112.5790204, -7.9234383 ], [ 112.5796362, -7.9233578 ], [ 112.5807266, -7.9232071 ], [ 112.5809504, -7.9231363 ], [ 112.5810895, -7.9230889 ], [ 112.5811314, -7.9230631 ], [ 112.5811473, -7.9230523 ], [ 112.5811625, -7.9230378 ], [ 112.5811694, -7.9230189 ], [ 112.581178, -7.9230072 ], [ 112.5811883, -7.9229867 ], [ 112.5811935, -7.9229607 ], [ 112.5811977, -7.9229469 ], [ 112.5812003, -7.9229258 ], [ 112.5812046, -7.922912 ], [ 112.5812047, -7.9228958 ], [ 112.581207, -7.922875 ], [ 112.5812095, -7.9228539 ], [ 112.5812098, -7.9228371 ], [ 112.5812543, -7.9225872 ], [ 112.5813093, -7.9222207 ], [ 112.5813959, -7.921868 ], [ 112.5815051, -7.9214606 ], [ 112.5815923, -7.9211956 ], [ 112.5816719, -7.9209026 ], [ 112.5816927, -7.9207508 ], [ 112.5816976, -7.9207151 ], [ 112.5817541, -7.9203726 ], [ 112.5817669, -7.9202499 ], [ 112.5817806, -7.9201062 ], [ 112.5817926, -7.9199887 ], [ 112.5818251, -7.9199261 ], [ 112.5820027, -7.9194727 ], [ 112.5821349, -7.9190775 ], [ 112.5823867, -7.9181725 ], [ 112.5825097, -7.9177641 ], [ 112.5827535, -7.9171554 ], [ 112.5828979, -7.9168224 ], [ 112.5832413, -7.9159594 ], [ 112.583554, -7.9153691 ], [ 112.5840934, -7.9143289 ], [ 112.5846078, -7.9134124 ], [ 112.5847045, -7.9132647 ], [ 112.5852352, -7.9138411 ], [ 112.5853981, -7.9140231 ], [ 112.586615, -7.9152978 ], [ 112.5868569, -7.9155392 ], [ 112.5878045, -7.9164789 ], [ 112.5889303, -7.9175119 ], [ 112.5891311, -7.9176999 ], [ 112.5893111, -7.9178574 ], [ 112.5895034, -7.9179916 ], [ 112.5896651, -7.9180952 ], [ 112.590078, -7.9183343 ], [ 112.5906596, -7.9186712 ], [ 112.5907593, -7.9187208 ], [ 112.5908725, -7.9187716 ], [ 112.5920247, -7.9191942 ], [ 112.5922586, -7.9192914 ], [ 112.5925944, -7.9194353 ], [ 112.5928118, -7.9195394 ], [ 112.593064, -7.9196738 ], [ 112.5933739, -7.9198376 ], [ 112.5937487, -7.9200834 ], [ 112.5939966, -7.9202445 ], [ 112.5943216, -7.9204721 ], [ 112.5946634, -7.9207611 ], [ 112.5948729, -7.9209379 ], [ 112.5958891, -7.9218857 ], [ 112.5962793, -7.9223337 ], [ 112.5967533, -7.9227966 ], [ 112.5968789, -7.9229246 ], [ 112.5969344, -7.9229721 ], [ 112.5971574, -7.9230853 ], [ 112.5979975, -7.923544 ], [ 112.5989987, -7.9241341 ], [ 112.5988667, -7.9243133 ], [ 112.5987352, -7.9245109 ], [ 112.5985934, -7.9246942 ], [ 112.5984353, -7.9249278 ], [ 112.5983743, -7.9250325 ], [ 112.5983634, -7.9250442 ], [ 112.5983332, -7.9250273 ], [ 112.5982673, -7.9249806 ], [ 112.5981197, -7.9248581 ], [ 112.5978252, -7.924623 ], [ 112.5979793, -7.9243975 ], [ 112.5980036, -7.9243739 ], [ 112.5982748, -7.9245529 ], [ 112.5984598, -7.9246596 ], [ 112.5984789, -7.9246527 ], [ 112.5985064, -7.9246321 ], [ 112.5987341, -7.9243166 ], [ 112.598842, -7.9241171 ], [ 112.59887, -7.9240601 ], [ 112.5990261, -7.9241502 ], [ 112.5992746, -7.9243013 ], [ 112.5999152, -7.9247545 ], [ 112.6007647, -7.9254948 ], [ 112.6009427, -7.9256351 ], [ 112.6011038, -7.9257958 ], [ 112.6013331, -7.9259987 ], [ 112.6016448, -7.9262942 ], [ 112.6021612, -7.9267846 ], [ 112.6022871, -7.9269075 ], [ 112.602689, -7.9273345 ], [ 112.6027591, -7.9274402 ], [ 112.6028235, -7.9275725 ], [ 112.6029114, -7.9278252 ], [ 112.6029355, -7.927947 ], [ 112.6029562, -7.9280215 ], [ 112.6029824, -7.9281674 ], [ 112.602999, -7.9283068 ], [ 112.6030054, -7.9284354 ], [ 112.6030124, -7.9285953 ], [ 112.6030046, -7.9287795 ], [ 112.6030051, -7.9289769 ], [ 112.6029806, -7.9292587 ], [ 112.602956, -7.9294708 ], [ 112.6029311, -7.929667 ], [ 112.6028874, -7.9299525 ], [ 112.602714, -7.931274 ], [ 112.602682, -7.931618 ], [ 112.6026751, -7.9316832 ], [ 112.6026698, -7.9317556 ], [ 112.6026775, -7.931848 ], [ 112.6027039, -7.9319498 ], [ 112.6027836, -7.9321498 ], [ 112.6029678, -7.9324479 ], [ 112.6032079, -7.9328 ], [ 112.6038582, -7.9337727 ], [ 112.6046774, -7.9349826 ], [ 112.6054911, -7.9361415 ], [ 112.6057159, -7.9364673 ], [ 112.6067883, -7.9380693 ], [ 112.606938, -7.9382804 ], [ 112.607456, -7.9390469 ], [ 112.6076343, -7.9393073 ], [ 112.6078436, -7.9395719 ], [ 112.6084659, -7.9404309 ], [ 112.6086528, -7.9406707 ], [ 112.6094086, -7.9418003 ], [ 112.6094771, -7.9418923 ], [ 112.6102809, -7.9430666 ], [ 112.6103315, -7.9431394 ], [ 112.6102114, -7.9433978 ], [ 112.6097932, -7.9444996 ], [ 112.6096004, -7.9451505 ], [ 112.6092454, -7.9461303 ], [ 112.6090741, -7.9465369 ], [ 112.6089498, -7.9468492 ], [ 112.6089065, -7.9470014 ], [ 112.6089051, -7.9470415 ], [ 112.6088289, -7.9475056 ], [ 112.6088027, -7.9478394 ], [ 112.6088162, -7.9481609 ], [ 112.6088359, -7.9483207 ], [ 112.608899, -7.9499105 ], [ 112.6089061, -7.9501974 ], [ 112.608937, -7.950693 ], [ 112.6089482, -7.9508445 ], [ 112.6089664, -7.9510476 ], [ 112.6090103, -7.9513172 ], [ 112.6090392, -7.9514631 ], [ 112.6090859, -7.9516209 ], [ 112.6091575, -7.9519045 ], [ 112.6092507, -7.9521383 ], [ 112.6094738, -7.9524876 ], [ 112.6097036, -7.9527612 ], [ 112.6100752, -7.9532328 ], [ 112.6103129, -7.953513 ], [ 112.6103658, -7.9535881 ], [ 112.6104253, -7.953728 ], [ 112.6104903, -7.9538587 ], [ 112.6105766, -7.9540888 ], [ 112.6106179, -7.9541882 ], [ 112.6106562, -7.9542702 ], [ 112.6107369, -7.9543757 ], [ 112.6108866, -7.9545679 ], [ 112.6112827, -7.9550676 ], [ 112.6116598, -7.9554714 ], [ 112.6126221, -7.9564903 ], [ 112.6127693, -7.9566442 ], [ 112.6129137, -7.9565618 ], [ 112.6131419, -7.9563864 ], [ 112.613281, -7.9562736 ], [ 112.6134118, -7.9562036 ], [ 112.6135555, -7.9561882 ], [ 112.6152558, -7.9558825 ], [ 112.615438, -7.9558663 ], [ 112.6156345, -7.9559304 ], [ 112.6158872, -7.956061 ], [ 112.6161285, -7.9561971 ], [ 112.6177311, -7.9571411 ], [ 112.6186739, -7.9576689 ], [ 112.6191826, -7.957964 ], [ 112.6195206, -7.9581847 ], [ 112.6198493, -7.9584015 ], [ 112.6202542, -7.9587485 ], [ 112.6204744, -7.958928 ], [ 112.6217777, -7.9600199 ], [ 112.6219629, -7.9602136 ], [ 112.6224209, -7.9605899 ], [ 112.6232179, -7.9611961 ], [ 112.6234208, -7.9613863 ], [ 112.6237032, -7.9616004 ], [ 112.6240039, -7.9617579 ], [ 112.6242897, -7.9618704 ], [ 112.6245097, -7.9619658 ], [ 112.6248203, -7.9620195 ], [ 112.6254232, -7.9621299 ], [ 112.6256367, -7.9621618 ], [ 112.6257531, -7.9621853 ], [ 112.6258485, -7.962195 ], [ 112.6259155, -7.9621823 ], [ 112.6259769, -7.9622117 ], [ 112.6259791, -7.9622936 ], [ 112.6259123, -7.9623607 ], [ 112.6258695, -7.9624606 ], [ 112.625666, -7.9628929 ], [ 112.6254435, -7.963347 ], [ 112.6253078, -7.9637713 ], [ 112.6251429, -7.9642446 ], [ 112.6250361, -7.9647378 ], [ 112.6248009, -7.9656676 ], [ 112.6246374, -7.9660632 ], [ 112.6244331, -7.966607 ], [ 112.624034, -7.9676362 ], [ 112.623862, -7.9680623 ], [ 112.6237988, -7.9682866 ], [ 112.6237588, -7.9684847 ], [ 112.6237227, -7.9686398 ], [ 112.6236201, -7.9688591 ], [ 112.6227961, -7.970251 ], [ 112.6222898, -7.9711414 ], [ 112.6218662, -7.971878 ], [ 112.6218146, -7.9720227 ], [ 112.6217757, -7.9721443 ], [ 112.6217643, -7.9722814 ], [ 112.6217026, -7.9724453 ], [ 112.6216141, -7.9725627 ], [ 112.6215686, -7.972634 ], [ 112.6215068, -7.9728153 ], [ 112.6214583, -7.9730113 ], [ 112.620795, -7.9754283 ], [ 112.6206791, -7.9757678 ], [ 112.6206464, -7.9758333 ], [ 112.6212913, -7.9762778 ], [ 112.6217595, -7.9765805 ], [ 112.6221398, -7.9768347 ], [ 112.6228997, -7.9774205 ], [ 112.6232763, -7.9777222 ], [ 112.6236463, -7.9780022 ], [ 112.6252524, -7.9793011 ], [ 112.6258152, -7.9797033 ], [ 112.6259434, -7.9797901 ], [ 112.6262827, -7.9799675 ], [ 112.6265727, -7.9801837 ], [ 112.6268368, -7.9803698 ], [ 112.6271476, -7.9805797 ], [ 112.6273941, -7.9807325 ], [ 112.6276102, -7.9808685 ], [ 112.6279137, -7.9809754 ], [ 112.6284014, -7.981126 ], [ 112.6296735, -7.9814264 ], [ 112.6301505, -7.9815704 ], [ 112.6302438, -7.9815752 ], [ 112.6303135, -7.9815437 ], [ 112.6303392, -7.981474 ], [ 112.6303916, -7.9813805 ], [ 112.6304399, -7.9812487 ], [ 112.6304579, -7.98112 ], [ 112.6304747, -7.9810024 ], [ 112.6304911, -7.9808345 ], [ 112.630482, -7.9806968 ], [ 112.6304796, -7.9806042 ], [ 112.630467, -7.9804813 ], [ 112.6304434, -7.9803784 ], [ 112.6303931, -7.9802699 ], [ 112.6303209, -7.9801763 ], [ 112.6301749, -7.9800374 ], [ 112.6300112, -7.979865 ], [ 112.6298591, -7.9797282 ], [ 112.6298018, -7.9796572 ], [ 112.6297309, -7.9795528 ], [ 112.6296529, -7.9794275 ], [ 112.6295952, -7.9793135 ], [ 112.629555, -7.9792107 ], [ 112.6295228, -7.9790734 ], [ 112.6294896, -7.9789391 ], [ 112.6294581, -7.9787434 ], [ 112.6294427, -7.9785151 ], [ 112.6294066, -7.9782502 ], [ 112.6293873, -7.9779931 ], [ 112.6293725, -7.9777387 ], [ 112.6293651, -7.9773754 ], [ 112.6293641, -7.9770283 ], [ 112.6293815, -7.9766778 ], [ 112.6293788, -7.9765885 ], [ 112.6293941, -7.9765172 ], [ 112.6294734, -7.9764626 ], [ 112.6296321, -7.9764331 ], [ 112.6298735, -7.9764746 ], [ 112.6301881, -7.9765411 ], [ 112.6309914, -7.9765564 ], [ 112.6312815, -7.9765937 ], [ 112.6321791, -7.9767245 ], [ 112.6325467, -7.9768035 ], [ 112.6332209, -7.9769266 ], [ 112.6335118, -7.9769746 ], [ 112.6335358, -7.9769161 ], [ 112.6336305, -7.9767937 ], [ 112.6337587, -7.9766757 ], [ 112.6339334, -7.9765881 ], [ 112.6340904, -7.9765724 ], [ 112.6342107, -7.9765875 ], [ 112.6343224, -7.9766232 ], [ 112.6344196, -7.9766893 ], [ 112.6345141, -7.9767778 ], [ 112.6345703, -7.976864 ], [ 112.634608, -7.9769643 ], [ 112.6346176, -7.9770804 ], [ 112.634618, -7.9771519 ], [ 112.6346188, -7.9771733 ], [ 112.6349324, -7.9772131 ], [ 112.635892, -7.9773789 ], [ 112.6362735, -7.977434 ], [ 112.6364413, -7.9774734 ], [ 112.6365798, -7.9775112 ], [ 112.6367037, -7.9775484 ], [ 112.6367234, -7.9775553 ], [ 112.6367459, -7.9775582 ], [ 112.6367725, -7.9775638 ], [ 112.6367948, -7.9775667 ], [ 112.6368095, -7.9775674 ], [ 112.636813, -7.9775668 ], [ 112.6368664, -7.9775754 ], [ 112.6368771, -7.977825 ], [ 112.6369086, -7.9781165 ], [ 112.6369215, -7.9783634 ], [ 112.6370022, -7.9793614 ], [ 112.6370123, -7.9796243 ], [ 112.6370255, -7.9797407 ], [ 112.637053, -7.9798288 ], [ 112.6370912, -7.9799299 ], [ 112.6371366, -7.9800261 ], [ 112.6371831, -7.9801383 ], [ 112.6373046, -7.9803231 ], [ 112.6374386, -7.9804873 ], [ 112.6376255, -7.980657 ], [ 112.6377611, -7.9807483 ], [ 112.6379044, -7.9808696 ], [ 112.6379765, -7.9806532 ], [ 112.6380037, -7.9804965 ], [ 112.6380311, -7.9803557 ], [ 112.638048, -7.9802768 ], [ 112.6380038, -7.9800804 ], [ 112.6380477, -7.9798574 ], [ 112.6380995, -7.9796238 ], [ 112.6381356, -7.9794492 ], [ 112.6381373, -7.9792377 ], [ 112.6381218, -7.9789839 ], [ 112.6381025, -7.9787755 ], [ 112.6380778, -7.978308 ], [ 112.6380507, -7.9780556 ], [ 112.6380921, -7.9780153 ], [ 112.6382428, -7.9779069 ], [ 112.6384268, -7.9778008 ], [ 112.6385398, -7.9777068 ], [ 112.6385672, -7.9776121 ], [ 112.6385548, -7.9772826 ], [ 112.6385421, -7.9764457 ], [ 112.6385238, -7.9757571 ], [ 112.6384943, -7.9744961 ], [ 112.6384814, -7.9737609 ], [ 112.6384594, -7.9725763 ], [ 112.6384635, -7.9721113 ], [ 112.6383906, -7.9706574 ], [ 112.638248, -7.9684022 ], [ 112.6382501, -7.9671543 ], [ 112.6382955, -7.9670423 ], [ 112.6383979, -7.9669511 ], [ 112.6385172, -7.9669326 ], [ 112.6385441, -7.9669361 ], [ 112.6385875, -7.9669519 ], [ 112.6387259, -7.9670694 ], [ 112.6388657, -7.9671663 ], [ 112.6390412, -7.9672878 ], [ 112.6397056, -7.9675955 ], [ 112.6400389, -7.9677001 ], [ 112.640454, -7.9677906 ], [ 112.6409656, -7.967905 ], [ 112.6414866, -7.9680743 ], [ 112.6417722, -7.9681963 ], [ 112.6419826, -7.9683593 ], [ 112.6421305, -7.9685621 ], [ 112.6423567, -7.968907 ], [ 112.642545, -7.9692419 ], [ 112.6427413, -7.9696477 ], [ 112.6429451, -7.9701281 ], [ 112.6430635, -7.9703847 ], [ 112.6431319, -7.9705407 ], [ 112.6435163, -7.9709094 ], [ 112.643689, -7.9710725 ], [ 112.6442253, -7.9715455 ], [ 112.6446711, -7.9719388 ], [ 112.6449859, -7.9721926 ], [ 112.6458548, -7.972798 ], [ 112.6461506, -7.9730025 ], [ 112.6465126, -7.9732164 ], [ 112.6463916, -7.9733783 ], [ 112.6459904, -7.9738505 ], [ 112.6450039, -7.9749147 ], [ 112.6445143, -7.9754618 ], [ 112.6441137, -7.9762655 ], [ 112.6436989, -7.9771434 ], [ 112.6435289, -7.9774204 ], [ 112.6439431, -7.9776466 ], [ 112.6443707, -7.9778687 ], [ 112.644692, -7.9780197 ], [ 112.64582, -7.9785256 ], [ 112.6461578, -7.9786228 ], [ 112.6467637, -7.9786912 ], [ 112.6471257, -7.9787489 ], [ 112.649271, -7.9789865 ], [ 112.6500823, -7.979243 ], [ 112.6510097, -7.9795754 ], [ 112.651654, -7.9797949 ], [ 112.6519621, -7.9799205 ], [ 112.6520369, -7.9799487 ], [ 112.6524426, -7.9801944 ], [ 112.6527363, -7.9803376 ], [ 112.6536131, -7.9808552 ], [ 112.65454, -7.9813731 ], [ 112.6547581, -7.9813855 ], [ 112.6550119, -7.981342 ], [ 112.65544, -7.9811526 ], [ 112.6556247, -7.9810417 ], [ 112.6577462, -7.9800083 ], [ 112.6596354, -7.9791194 ], [ 112.6598896, -7.9792162 ], [ 112.6611164, -7.9798751 ], [ 112.6619148, -7.9803075 ], [ 112.662633, -7.9806889 ], [ 112.6627641, -7.9806422 ], [ 112.6634677, -7.9805373 ], [ 112.6639888, -7.980462 ], [ 112.6654911, -7.9803364 ], [ 112.6662734, -7.9802476 ], [ 112.6689324, -7.9800174 ], [ 112.669163, -7.9799238 ], [ 112.6693034, -7.9797726 ], [ 112.6698119, -7.9789219 ], [ 112.6701204, -7.9783745 ], [ 112.6702348, -7.9781842 ], [ 112.6711582, -7.9766877 ], [ 112.6713031, -7.9763811 ], [ 112.6714496, -7.9760938 ], [ 112.6715775, -7.975821 ], [ 112.6702685, -7.9747995 ], [ 112.6687228, -7.9736973 ], [ 112.6686833, -7.9736682 ], [ 112.6687327, -7.9735977 ], [ 112.668761, -7.9735771 ], [ 112.6689993, -7.9737725 ], [ 112.6699681, -7.9744633 ], [ 112.6703087, -7.974718 ], [ 112.6703332, -7.9747371 ], [ 112.6703856, -7.9746893 ], [ 112.670791, -7.9749949 ], [ 112.6707695, -7.9750589 ], [ 112.6717081, -7.9757807 ], [ 112.6717319, -7.9758201 ], [ 112.6717166, -7.975924 ], [ 112.6715124, -7.9764008 ], [ 112.6711899, -7.9770204 ], [ 112.6708202, -7.9776004 ], [ 112.6697435, -7.9793634 ], [ 112.6693032, -7.9800511 ], [ 112.6691368, -7.9801555 ], [ 112.6689013, -7.9802198 ], [ 112.6671261, -7.9803772 ], [ 112.6642148, -7.9806332 ], [ 112.6627575, -7.9808327 ], [ 112.6626308, -7.9809273 ], [ 112.6623448, -7.9812399 ], [ 112.6620951, -7.9815748 ], [ 112.6612002, -7.9827833 ], [ 112.6610319, -7.9829739 ], [ 112.6607082, -7.983421 ], [ 112.6603872, -7.9836801 ], [ 112.6598492, -7.9839681 ], [ 112.6577852, -7.984985 ], [ 112.6574548, -7.9851451 ], [ 112.6557198, -7.9860129 ], [ 112.6554281, -7.9861707 ], [ 112.6545044, -7.9866942 ], [ 112.6542437, -7.9868667 ], [ 112.6537823, -7.987279 ], [ 112.6528394, -7.9881394 ], [ 112.6511322, -7.9897837 ], [ 112.6507639, -7.9901727 ], [ 112.6491259, -7.9917489 ], [ 112.6488355, -7.9920767 ], [ 112.6485909, -7.9925124 ], [ 112.6482156, -7.993234 ], [ 112.6480707, -7.9935343 ], [ 112.6479895, -7.9936992 ], [ 112.6478303, -7.9939188 ], [ 112.6477993, -7.9940184 ], [ 112.6477358, -7.9941807 ], [ 112.647434, -7.99462 ], [ 112.6470451, -7.9950393 ], [ 112.6468654, -7.995292 ], [ 112.6466529, -7.9955818 ], [ 112.6465906, -7.9957761 ], [ 112.6464762, -7.9964714 ], [ 112.6463882, -7.9969739 ], [ 112.6461764, -7.9975311 ], [ 112.6460511, -7.9978614 ], [ 112.6460231, -7.9979704 ], [ 112.6460025, -7.9980531 ], [ 112.64565, -7.9989811 ], [ 112.645204, -8.0002523 ], [ 112.6449747, -8.0009881 ], [ 112.6448808, -8.0012376 ], [ 112.6445179, -8.0025405 ], [ 112.6443851, -8.0029621 ], [ 112.6442646, -8.0033362 ], [ 112.6440552, -8.0040737 ], [ 112.6440231, -8.0043179 ], [ 112.6439974, -8.0046588 ], [ 112.6439795, -8.0049849 ], [ 112.6438818, -8.00632 ], [ 112.6438326, -8.0069548 ], [ 112.6437697, -8.0080667 ], [ 112.6437356, -8.0088416 ], [ 112.6437269, -8.0090973 ], [ 112.6436272, -8.0110846 ], [ 112.6436205, -8.011325 ], [ 112.6435473, -8.0125232 ], [ 112.6434982, -8.0134463 ], [ 112.6435067, -8.013678 ], [ 112.6434577, -8.0147959 ], [ 112.6434182, -8.0155946 ], [ 112.6433969, -8.0160206 ], [ 112.6432816, -8.0181114 ], [ 112.6431802, -8.0201245 ], [ 112.6431618, -8.0205177 ], [ 112.6430536, -8.0229619 ], [ 112.6430431, -8.0234755 ], [ 112.6430109, -8.0241544 ], [ 112.6429981, -8.0246016 ], [ 112.6429801, -8.0249954 ], [ 112.6429627, -8.0256612 ], [ 112.642952, -8.0260371 ], [ 112.6429324, -8.0261699 ], [ 112.6429251, -8.0264118 ], [ 112.6437952, -8.026449 ], [ 112.6437817, -8.0263656 ] ] } },
{ "type": "Feature", "properties": { "fid": 2, "Name": "Hamid Rusdi-Batu", "description": null, "timestamp": null, "begin": null, "end": null, "altitudeMode": null, "tessellate": 1, "extrude": 0, "visibility": -1, "drawOrder": null, "icon": null, "layer": "Hamid Rusdi-Batu — Hamid Rusdi-Batu.kmz", "path": "D:/GEOGRAPHY/PKM TRACE/Hamid Rusdi-Batu.kmz|layername=Hamid Rusdi-Batu.kmz|geometrytype=LineString25D|uniqueGeometryType=yes" }, "geometry": { "type": "LineString", "coordinates": [ [ 112.6437492, -8.0263434 ], [ 112.6437594, -8.0264384 ], [ 112.6428987, -8.0263786 ], [ 112.6429267, -8.0252619 ], [ 112.6429287, -8.0250488 ], [ 112.6429889, -8.0236677 ], [ 112.6431007, -8.0214161 ], [ 112.6431558, -8.0197263 ], [ 112.6431858, -8.0189333 ], [ 112.6433136, -8.016843 ], [ 112.6434244, -8.0147164 ], [ 112.6434789, -8.0132722 ], [ 112.6435828, -8.0110591 ], [ 112.6436959, -8.0087313 ], [ 112.6437804, -8.0067325 ], [ 112.6438212, -8.0063823 ], [ 112.6438597, -8.0058356 ], [ 112.6439278, -8.0051679 ], [ 112.6439791, -8.0043753 ], [ 112.6439889, -8.0040575 ], [ 112.6441996, -8.0033895 ], [ 112.6443513, -8.0029698 ], [ 112.6445895, -8.0021548 ], [ 112.6447572, -8.0015712 ], [ 112.6449541, -8.0009002 ], [ 112.6452365, -8.0000186 ], [ 112.6454185, -7.9995136 ], [ 112.6456409, -7.9989283 ], [ 112.6458648, -7.9983054 ], [ 112.6459661, -7.9980195 ], [ 112.6459904, -7.9978789 ], [ 112.6461673, -7.9974459 ], [ 112.6463178, -7.9970714 ], [ 112.6463444, -7.9969223 ], [ 112.646399, -7.996607 ], [ 112.6464439, -7.996328 ], [ 112.6465486, -7.9957191 ], [ 112.6466195, -7.9955035 ], [ 112.6468504, -7.9951862 ], [ 112.6469413, -7.995067 ], [ 112.6470802, -7.9949079 ], [ 112.6472566, -7.9947252 ], [ 112.647539, -7.994411 ], [ 112.6476327, -7.9942201 ], [ 112.6476917, -7.9940266 ], [ 112.6477715, -7.9939147 ], [ 112.6479433, -7.9937064 ], [ 112.6480651, -7.9934587 ], [ 112.6481849, -7.9931845 ], [ 112.6481949, -7.9931555 ], [ 112.6482608, -7.9930485 ], [ 112.6483789, -7.9927935 ], [ 112.6485642, -7.9924591 ], [ 112.6488166, -7.9920478 ], [ 112.6489921, -7.9918492 ], [ 112.6493152, -7.9915131 ], [ 112.6495171, -7.9913176 ], [ 112.6496809, -7.9911743 ], [ 112.6498574, -7.9909638 ], [ 112.650024, -7.9908247 ], [ 112.6503003, -7.9905778 ], [ 112.6506445, -7.9902325 ], [ 112.6509104, -7.9899644 ], [ 112.6512198, -7.9896515 ], [ 112.6519288, -7.9889898 ], [ 112.6525116, -7.9884167 ], [ 112.6530325, -7.987897 ], [ 112.6534645, -7.987524 ], [ 112.6538037, -7.9871986 ], [ 112.6542099, -7.9868488 ], [ 112.6547704, -7.9864747 ], [ 112.6553151, -7.9861902 ], [ 112.6559072, -7.9858621 ], [ 112.6563221, -7.9856548 ], [ 112.6567719, -7.9854252 ], [ 112.6570993, -7.9852727 ], [ 112.6575629, -7.9850474 ], [ 112.657929, -7.9848754 ], [ 112.6585832, -7.9845557 ], [ 112.6589057, -7.9844226 ], [ 112.6591907, -7.9842865 ], [ 112.659557, -7.9840863 ], [ 112.6598358, -7.9839384 ], [ 112.6601757, -7.9837641 ], [ 112.6604446, -7.9835983 ], [ 112.6607074, -7.9833544 ], [ 112.6608805, -7.983113 ], [ 112.661135, -7.9828043 ], [ 112.6612628, -7.9826135 ], [ 112.6615021, -7.9822947 ], [ 112.6617845, -7.9819113 ], [ 112.6620848, -7.9815217 ], [ 112.6622564, -7.9812972 ], [ 112.6624078, -7.9811103 ], [ 112.6625754, -7.9809419 ], [ 112.662657, -7.9808572 ], [ 112.6627445, -7.9806794 ], [ 112.6630053, -7.9806259 ], [ 112.6632169, -7.9806054 ], [ 112.6634925, -7.9805662 ], [ 112.6639207, -7.9804981 ], [ 112.6643018, -7.9804676 ], [ 112.6648355, -7.9804236 ], [ 112.666172, -7.9802943 ], [ 112.6667601, -7.9802463 ], [ 112.6672997, -7.9801901 ], [ 112.6689513, -7.9800417 ], [ 112.6691927, -7.9799537 ], [ 112.6693757, -7.9797524 ], [ 112.6695187, -7.9795 ], [ 112.6705044, -7.9778362 ], [ 112.6711671, -7.9767532 ], [ 112.6714096, -7.9762376 ], [ 112.671564, -7.975914 ], [ 112.6715959, -7.9758553 ], [ 112.6711608, -7.975529 ], [ 112.6707177, -7.9751673 ], [ 112.670266, -7.9748197 ], [ 112.669902, -7.9745493 ], [ 112.6687279, -7.9737323 ], [ 112.6686913, -7.9736914 ], [ 112.6687555, -7.9736059 ], [ 112.6689066, -7.973737 ], [ 112.669808, -7.9743759 ], [ 112.6703015, -7.9747356 ], [ 112.6703795, -7.9746504 ], [ 112.6707204, -7.9749049 ], [ 112.670783, -7.9749565 ], [ 112.67073, -7.9750497 ], [ 112.6710896, -7.9753221 ], [ 112.6716611, -7.9757652 ], [ 112.6717131, -7.97585 ], [ 112.6714747, -7.9764098 ], [ 112.6713102, -7.9767035 ], [ 112.6711766, -7.9769689 ], [ 112.6710641, -7.9771482 ], [ 112.6707703, -7.9775896 ], [ 112.6699101, -7.9789944 ], [ 112.6695596, -7.9795996 ], [ 112.6692585, -7.9800311 ], [ 112.6691308, -7.9801086 ], [ 112.668983, -7.9801613 ], [ 112.6686391, -7.98021 ], [ 112.6683221, -7.9802431 ], [ 112.666461, -7.9803852 ], [ 112.6657897, -7.9804391 ], [ 112.664326, -7.9805785 ], [ 112.6634518, -7.9806752 ], [ 112.6627632, -7.980816 ], [ 112.6624333, -7.980704 ], [ 112.6620201, -7.9804936 ], [ 112.661526, -7.9802192 ], [ 112.6608909, -7.9798546 ], [ 112.6601636, -7.9794289 ], [ 112.6598056, -7.979245 ], [ 112.659674, -7.9791845 ], [ 112.6592897, -7.9793642 ], [ 112.6578189, -7.9800591 ], [ 112.6573458, -7.9803011 ], [ 112.655699, -7.9810977 ], [ 112.6552632, -7.9813238 ], [ 112.6551509, -7.9813664 ], [ 112.6549288, -7.9814576 ], [ 112.6547539, -7.9814768 ], [ 112.6545439, -7.9814568 ], [ 112.6543235, -7.9813603 ], [ 112.6539774, -7.9811619 ], [ 112.6534066, -7.980823 ], [ 112.6525003, -7.9802947 ], [ 112.6518672, -7.979948 ], [ 112.6515467, -7.9798122 ], [ 112.6510712, -7.9796408 ], [ 112.6507986, -7.9795619 ], [ 112.6503109, -7.9794014 ], [ 112.6499752, -7.9792817 ], [ 112.6496786, -7.9791723 ], [ 112.6493475, -7.9790656 ], [ 112.6488943, -7.9790313 ], [ 112.6484018, -7.9789682 ], [ 112.6477867, -7.9789007 ], [ 112.6472203, -7.9788302 ], [ 112.6464034, -7.9787 ], [ 112.6460615, -7.9786474 ], [ 112.6455734, -7.9784905 ], [ 112.6450223, -7.9782341 ], [ 112.6445203, -7.9779864 ], [ 112.6441542, -7.9778188 ], [ 112.6436993, -7.9775773 ], [ 112.6434117, -7.9773869 ], [ 112.6429956, -7.9770287 ], [ 112.6419134, -7.9761239 ], [ 112.6412175, -7.9755444 ], [ 112.6408629, -7.9752756 ], [ 112.6400154, -7.9746813 ], [ 112.6390222, -7.9739989 ], [ 112.6386415, -7.9737404 ], [ 112.6384999, -7.9736334 ], [ 112.6384531, -7.9734777 ], [ 112.6380053, -7.9734828 ], [ 112.6373977, -7.9734527 ], [ 112.6369532, -7.9734477 ], [ 112.6367859, -7.9734575 ], [ 112.6366455, -7.9734595 ], [ 112.6366742, -7.973843 ], [ 112.6367145, -7.9746178 ], [ 112.6367516, -7.9753 ], [ 112.636758, -7.9756987 ], [ 112.6367661, -7.9758335 ], [ 112.6368261, -7.9775132 ], [ 112.6368141, -7.9776907 ], [ 112.6359444, -7.9775871 ], [ 112.6346472, -7.9773557 ], [ 112.634577, -7.9775099 ], [ 112.6344406, -7.977605 ], [ 112.6343347, -7.9776718 ], [ 112.6341142, -7.9777225 ], [ 112.6338839, -7.977709 ], [ 112.6337295, -7.9776316 ], [ 112.6336096, -7.9775802 ], [ 112.6333698, -7.9778974 ], [ 112.632894, -7.9784487 ], [ 112.6326938, -7.9787175 ], [ 112.6324412, -7.978852 ], [ 112.6322816, -7.9788949 ], [ 112.6320438, -7.978944 ], [ 112.6317971, -7.979038 ], [ 112.6314944, -7.9791298 ], [ 112.631328, -7.9792162 ], [ 112.6312225, -7.9793945 ], [ 112.6311445, -7.9796133 ], [ 112.6311034, -7.9797976 ], [ 112.6310051, -7.9800298 ], [ 112.6309297, -7.9802121 ], [ 112.6309062, -7.9803122 ], [ 112.6312662, -7.9803815 ], [ 112.6315032, -7.9804552 ], [ 112.6317135, -7.9805101 ], [ 112.6318866, -7.9805966 ], [ 112.6319323, -7.9808557 ], [ 112.6319021, -7.9810943 ], [ 112.6318554, -7.9812831 ], [ 112.6318103, -7.9814831 ], [ 112.631733, -7.9817853 ], [ 112.6316858, -7.9819802 ], [ 112.6314347, -7.9819841 ], [ 112.6311224, -7.9818875 ], [ 112.6308124, -7.9817869 ], [ 112.6305772, -7.9817321 ], [ 112.6304241, -7.9816579 ], [ 112.6303701, -7.9814426 ], [ 112.6304621, -7.9810221 ], [ 112.6304604, -7.9807823 ], [ 112.6304313, -7.9805173 ], [ 112.6303656, -7.9802857 ], [ 112.6302419, -7.9801538 ], [ 112.6299653, -7.9798864 ], [ 112.6297564, -7.979683 ], [ 112.6296209, -7.9794616 ], [ 112.6295315, -7.9792634 ], [ 112.6294251, -7.9788337 ], [ 112.6294094, -7.9786512 ], [ 112.6293687, -7.9782948 ], [ 112.6293435, -7.977931 ], [ 112.6293097, -7.9775449 ], [ 112.6293014, -7.9771779 ], [ 112.6293282, -7.9769167 ], [ 112.6293294, -7.9766684 ], [ 112.6293228, -7.9765251 ], [ 112.6291744, -7.9764108 ], [ 112.6290579, -7.9764386 ], [ 112.6288601, -7.9764127 ], [ 112.6285566, -7.9764495 ], [ 112.6283159, -7.9764694 ], [ 112.6280888, -7.9764986 ], [ 112.6279144, -7.9765285 ], [ 112.6275938, -7.9765712 ], [ 112.6275646, -7.976827 ], [ 112.6274908, -7.977176 ], [ 112.6274079, -7.9775769 ], [ 112.6273545, -7.9777776 ], [ 112.6269165, -7.9785622 ], [ 112.6267812, -7.9788069 ], [ 112.6262078, -7.9798167 ], [ 112.6261233, -7.9799839 ], [ 112.6259286, -7.9798668 ], [ 112.6256029, -7.9796345 ], [ 112.6250515, -7.9792396 ], [ 112.6241503, -7.9785486 ], [ 112.6233148, -7.9778747 ], [ 112.6220144, -7.9768466 ], [ 112.6217569, -7.9766615 ], [ 112.6212952, -7.9763507 ], [ 112.6207412, -7.9760103 ], [ 112.6204997, -7.9758207 ], [ 112.6206372, -7.9753492 ], [ 112.620928, -7.9742271 ], [ 112.6210926, -7.9736129 ], [ 112.6213389, -7.9726586 ], [ 112.6214032, -7.9723721 ], [ 112.6216241, -7.9719205 ], [ 112.6218934, -7.9714982 ], [ 112.6224096, -7.9706131 ], [ 112.6230418, -7.9694971 ], [ 112.6232877, -7.9690282 ], [ 112.6236345, -7.9684432 ], [ 112.623833, -7.968015 ], [ 112.6242779, -7.9668702 ], [ 112.6245793, -7.9661101 ], [ 112.6247777, -7.9655532 ], [ 112.6248399, -7.9653201 ], [ 112.6249661, -7.9647798 ], [ 112.6251147, -7.9641478 ], [ 112.6253004, -7.9635733 ], [ 112.6254612, -7.9631215 ], [ 112.6257879, -7.9624197 ], [ 112.625792, -7.9623043 ], [ 112.6255944, -7.9622098 ], [ 112.6249957, -7.9621573 ], [ 112.6246346, -7.9621367 ], [ 112.6242287, -7.9621251 ], [ 112.6238789, -7.9620876 ], [ 112.6235866, -7.9619448 ], [ 112.623508, -7.9618097 ], [ 112.6234688, -7.961626 ], [ 112.623333, -7.9614502 ], [ 112.6230728, -7.9612431 ], [ 112.6226389, -7.9608976 ], [ 112.6220182, -7.960438 ], [ 112.6213962, -7.9599233 ], [ 112.6196033, -7.9584045 ], [ 112.619046, -7.9580857 ], [ 112.6169757, -7.9568998 ], [ 112.6154795, -7.9560402 ], [ 112.6150372, -7.9560874 ], [ 112.6134831, -7.9564041 ], [ 112.6132936, -7.9564907 ], [ 112.6129412, -7.9567246 ], [ 112.6128506, -7.9567623 ], [ 112.6124904, -7.9564373 ], [ 112.612133, -7.9560632 ], [ 112.6111081, -7.9549251 ], [ 112.6107373, -7.9544561 ], [ 112.6106143, -7.9543095 ], [ 112.6105022, -7.9540545 ], [ 112.6103717, -7.9537069 ], [ 112.6103012, -7.953578 ], [ 112.6100041, -7.9532326 ], [ 112.6097987, -7.9529809 ], [ 112.6094162, -7.9524959 ], [ 112.6091881, -7.952133 ], [ 112.6090689, -7.9517432 ], [ 112.6089524, -7.9513089 ], [ 112.6088819, -7.9507832 ], [ 112.6088561, -7.9502139 ], [ 112.6088397, -7.949479 ], [ 112.6087973, -7.9485824 ], [ 112.6087537, -7.9479212 ], [ 112.6088318, -7.9471693 ], [ 112.6088513, -7.9470009 ], [ 112.6090894, -7.9463682 ], [ 112.609896, -7.9441292 ], [ 112.6102561, -7.9431409 ], [ 112.6096107, -7.9421788 ], [ 112.6089261, -7.9411689 ], [ 112.6073955, -7.939042 ], [ 112.6069131, -7.9383175 ], [ 112.6062099, -7.9373101 ], [ 112.6055524, -7.9363144 ], [ 112.6052604, -7.9359129 ], [ 112.6034987, -7.9333763 ], [ 112.6026681, -7.9320589 ], [ 112.6025943, -7.9317235 ], [ 112.6026458, -7.9313752 ], [ 112.6027295, -7.9306636 ], [ 112.6028636, -7.9297605 ], [ 112.6029256, -7.9290401 ], [ 112.6029276, -7.9284242 ], [ 112.6028994, -7.9279917 ], [ 112.6028361, -7.9277288 ], [ 112.6026897, -7.927454 ], [ 112.6016657, -7.9263893 ], [ 112.6006078, -7.9254229 ], [ 112.5998785, -7.92478 ], [ 112.5995986, -7.9245888 ], [ 112.5989898, -7.9241622 ], [ 112.5984057, -7.9250181 ], [ 112.5983551, -7.9250852 ], [ 112.5983321, -7.9250592 ], [ 112.5981945, -7.924952 ], [ 112.5977979, -7.9246229 ], [ 112.5978194, -7.9245942 ], [ 112.5979674, -7.9243798 ], [ 112.5980009, -7.9243887 ], [ 112.5980573, -7.9244228 ], [ 112.5982193, -7.9245354 ], [ 112.5984522, -7.9246736 ], [ 112.598499, -7.9246571 ], [ 112.5985071, -7.9246479 ], [ 112.598511, -7.9246419 ], [ 112.5985614, -7.9245858 ], [ 112.5986621, -7.9244357 ], [ 112.5987622, -7.9243013 ], [ 112.5988821, -7.9240733 ], [ 112.598044, -7.9236643 ], [ 112.5975112, -7.9233412 ], [ 112.5971682, -7.9231669 ], [ 112.5968664, -7.9230022 ], [ 112.59665, -7.9228107 ], [ 112.5962808, -7.9224459 ], [ 112.595787, -7.9219536 ], [ 112.5955584, -7.9216694 ], [ 112.5952236, -7.9213516 ], [ 112.5943358, -7.9205685 ], [ 112.5941272, -7.9204268 ], [ 112.5931931, -7.9198 ], [ 112.5928251, -7.9196302 ], [ 112.5920884, -7.9192611 ], [ 112.5917975, -7.9191608 ], [ 112.5906685, -7.9187339 ], [ 112.5898744, -7.9182713 ], [ 112.5895133, -7.9180377 ], [ 112.5890423, -7.9176816 ], [ 112.58879, -7.9174611 ], [ 112.5883733, -7.9170693 ], [ 112.5878867, -7.9166212 ], [ 112.587043, -7.915827 ], [ 112.5865937, -7.9153718 ], [ 112.5858682, -7.9146004 ], [ 112.5853845, -7.9140775 ], [ 112.5846981, -7.9133411 ], [ 112.5844571, -7.9137325 ], [ 112.5843715, -7.9138846 ], [ 112.5842991, -7.9140186 ], [ 112.5842209, -7.9141521 ], [ 112.5832746, -7.9159715 ], [ 112.5831869, -7.9161917 ], [ 112.5826014, -7.9175835 ], [ 112.5824532, -7.9179874 ], [ 112.5823814, -7.9182638 ], [ 112.5822269, -7.9188922 ], [ 112.5821089, -7.9192949 ], [ 112.5819117, -7.9197517 ], [ 112.5818055, -7.9200194 ], [ 112.581783, -7.9202541 ], [ 112.5817065, -7.9208163 ], [ 112.5816657, -7.9209966 ], [ 112.5816251, -7.9211683 ], [ 112.581563, -7.9213884 ], [ 112.581433, -7.9217877 ], [ 112.5813788, -7.9220529 ], [ 112.5813464, -7.9221907 ], [ 112.5812676, -7.9226705 ], [ 112.5812354, -7.9228661 ], [ 112.5811997, -7.92307 ], [ 112.5808979, -7.9231867 ], [ 112.5806216, -7.9232518 ], [ 112.5801859, -7.9233081 ], [ 112.5800187, -7.9233309 ], [ 112.5795752, -7.9233885 ], [ 112.5791726, -7.9234423 ], [ 112.5787775, -7.9234783 ], [ 112.5786302, -7.9235192 ], [ 112.5782858, -7.9236383 ], [ 112.5780119, -7.923762 ], [ 112.5778482, -7.9238096 ], [ 112.5776918, -7.9237938 ], [ 112.5775338, -7.9237417 ], [ 112.5773478, -7.9236466 ], [ 112.5765104, -7.9231639 ], [ 112.5763592, -7.9230813 ], [ 112.5759394, -7.9227872 ], [ 112.5757116, -7.9226527 ], [ 112.5754894, -7.9225331 ], [ 112.5753255, -7.9224749 ], [ 112.5751294, -7.9224334 ], [ 112.5745409, -7.9222991 ], [ 112.574335, -7.922255 ], [ 112.5739395, -7.922187 ], [ 112.5737374, -7.9221655 ], [ 112.573469, -7.9221273 ], [ 112.5732405, -7.9220942 ], [ 112.5730751, -7.9220824 ], [ 112.572609, -7.9220393 ], [ 112.5723879, -7.9220154 ], [ 112.5722243, -7.9220144 ], [ 112.5718092, -7.9219618 ], [ 112.5715714, -7.9219542 ], [ 112.5713054, -7.9219382 ], [ 112.5711855, -7.9219288 ], [ 112.5710434, -7.921919 ], [ 112.5709779, -7.9219116 ], [ 112.5706656, -7.9218787 ], [ 112.570403, -7.9218166 ], [ 112.5702501, -7.9217877 ], [ 112.5701554, -7.9217545 ], [ 112.5699555, -7.9217047 ], [ 112.569796, -7.9216717 ], [ 112.5696885, -7.9216472 ], [ 112.5690798, -7.9215077 ], [ 112.5689834, -7.9214829 ], [ 112.5688272, -7.9214388 ], [ 112.5686582, -7.9213953 ], [ 112.5685112, -7.9213469 ], [ 112.5683647, -7.9213037 ], [ 112.5682792, -7.9212781 ], [ 112.5682447, -7.9212632 ], [ 112.5681129, -7.9212294 ], [ 112.5679648, -7.9211914 ], [ 112.5678685, -7.9211797 ], [ 112.5675403, -7.9211328 ], [ 112.5673718, -7.9211179 ], [ 112.5672346, -7.9210942 ], [ 112.5670967, -7.9210528 ], [ 112.5668464, -7.9210134 ], [ 112.5666197, -7.9209752 ], [ 112.5665174, -7.9209631 ], [ 112.5663225, -7.9209183 ], [ 112.5662675, -7.9208972 ], [ 112.5662352, -7.9208607 ], [ 112.5662307, -7.9208064 ], [ 112.5662518, -7.9206494 ], [ 112.5662701, -7.9204471 ], [ 112.5662918, -7.9203078 ], [ 112.5663413, -7.9197115 ], [ 112.5663625, -7.9194343 ], [ 112.5663695, -7.9192761 ], [ 112.5663526, -7.9191356 ], [ 112.5663467, -7.9191118 ], [ 112.5663441, -7.9191026 ], [ 112.5663421, -7.9190827 ], [ 112.5663419, -7.9190801 ], [ 112.5663401, -7.9190624 ], [ 112.5663392, -7.9190523 ], [ 112.5663377, -7.919037 ], [ 112.5663362, -7.9190215 ], [ 112.5663315, -7.9190116 ], [ 112.5663283, -7.9189988 ], [ 112.5663271, -7.9189859 ], [ 112.5663223, -7.9189761 ], [ 112.5663183, -7.9189549 ], [ 112.5663149, -7.9189409 ], [ 112.5663131, -7.9189238 ], [ 112.5663119, -7.9189123 ], [ 112.566309, -7.9189037 ], [ 112.5663055, -7.9188892 ], [ 112.5663024, -7.9188779 ], [ 112.5662988, -7.9188635 ], [ 112.5662954, -7.9188493 ], [ 112.5662919, -7.918835 ], [ 112.5662887, -7.9188235 ], [ 112.5662868, -7.9188057 ], [ 112.5662832, -7.918791 ], [ 112.5662816, -7.9187758 ], [ 112.566278, -7.918761 ], [ 112.5662728, -7.9187501 ], [ 112.5662716, -7.9187382 ], [ 112.5662686, -7.9187296 ], [ 112.5662505, -7.918633 ], [ 112.5662387, -7.9185794 ], [ 112.5662362, -7.9185546 ], [ 112.566234, -7.9185324 ], [ 112.566233, -7.9185226 ], [ 112.5662369, -7.9184765 ], [ 112.5662463, -7.9183499 ], [ 112.5662521, -7.9183055 ], [ 112.5662561, -7.9182955 ], [ 112.5662622, -7.9182819 ], [ 112.5662685, -7.9182712 ], [ 112.5662768, -7.9182577 ], [ 112.5662874, -7.9182428 ], [ 112.5662984, -7.9182315 ], [ 112.5663051, -7.9182254 ], [ 112.5663159, -7.9182081 ], [ 112.5663204, -7.9182032 ], [ 112.5663318, -7.9181926 ], [ 112.5663411, -7.9181861 ], [ 112.5663502, -7.9181761 ], [ 112.5663596, -7.9181696 ], [ 112.5663736, -7.9181582 ], [ 112.5663905, -7.91815 ], [ 112.5664002, -7.9181451 ], [ 112.5664173, -7.9181363 ], [ 112.5664272, -7.9181356 ], [ 112.5664422, -7.9181348 ], [ 112.5664548, -7.9181346 ], [ 112.5664747, -7.9181314 ], [ 112.5664798, -7.9181313 ], [ 112.5664973, -7.9181281 ], [ 112.5665148, -7.9181277 ], [ 112.5665198, -7.9181277 ], [ 112.5665324, -7.9181285 ], [ 112.5665425, -7.9181291 ], [ 112.5665575, -7.9181271 ], [ 112.5665725, -7.9181279 ], [ 112.5665851, -7.9181286 ], [ 112.5666026, -7.9181295 ], [ 112.5666176, -7.9181277 ], [ 112.5666351, -7.9181288 ], [ 112.5666451, -7.9181293 ], [ 112.5666526, -7.9181296 ], [ 112.56667, -7.9181305 ], [ 112.566685, -7.918131 ], [ 112.5667, -7.9181314 ], [ 112.56671, -7.9181317 ], [ 112.5667249, -7.9181347 ], [ 112.5667273, -7.9181374 ], [ 112.566757, -7.9181362 ], [ 112.5668291, -7.9181418 ], [ 112.5668467, -7.9181409 ], [ 112.566876, -7.9181397 ], [ 112.5668956, -7.9181388 ], [ 112.5669015, -7.9181386 ], [ 112.5669113, -7.9181382 ], [ 112.566929, -7.9181375 ], [ 112.5669427, -7.918137 ], [ 112.5669545, -7.9181367 ], [ 112.5669664, -7.9181364 ], [ 112.5669743, -7.9181363 ], [ 112.566992, -7.9181359 ], [ 112.5670058, -7.9181356 ], [ 112.5670156, -7.9181333 ], [ 112.5671204, -7.91813 ], [ 112.5672256, -7.9181109 ], [ 112.567329, -7.9180639 ], [ 112.5674222, -7.9179641 ], [ 112.5674719, -7.9178382 ], [ 112.5675497, -7.9175751 ], [ 112.5675652, -7.917436 ], [ 112.5675428, -7.9172552 ], [ 112.5675154, -7.9171426 ], [ 112.5674837, -7.9170435 ], [ 112.5674352, -7.9169344 ], [ 112.5673958, -7.9168092 ], [ 112.5673436, -7.916688 ], [ 112.567283, -7.9165662 ], [ 112.567195, -7.9164935 ], [ 112.5670552, -7.9164346 ], [ 112.5667956, -7.9163332 ], [ 112.5666648, -7.9163048 ], [ 112.5665576, -7.9162932 ], [ 112.5664391, -7.9162928 ], [ 112.5662839, -7.9162794 ], [ 112.5661439, -7.9162776 ], [ 112.565973, -7.916262 ], [ 112.5658384, -7.9162438 ], [ 112.5656981, -7.9162019 ], [ 112.5655982, -7.916163 ], [ 112.5654143, -7.9161035 ], [ 112.5652657, -7.9160508 ], [ 112.5650942, -7.9159683 ], [ 112.5649217, -7.9158539 ], [ 112.5647761, -7.9157473 ], [ 112.5646243, -7.915577 ], [ 112.5644981, -7.9154104 ], [ 112.5643481, -7.9152103 ], [ 112.5641673, -7.9149813 ], [ 112.5637748, -7.9146512 ], [ 112.5636037, -7.9145871 ], [ 112.5633479, -7.9144971 ], [ 112.5630801, -7.9144152 ], [ 112.5628987, -7.9143753 ], [ 112.5627636, -7.9143817 ], [ 112.5625987, -7.914393 ], [ 112.5622748, -7.914376 ], [ 112.562055, -7.914344 ], [ 112.5618093, -7.9142856 ], [ 112.5615903, -7.9142444 ], [ 112.5613937, -7.9141999 ], [ 112.5611465, -7.9141607 ], [ 112.5609517, -7.9141225 ], [ 112.5607677, -7.9140721 ], [ 112.5606222, -7.9139759 ], [ 112.5605296, -7.9138447 ], [ 112.5604417, -7.9136749 ], [ 112.5603878, -7.9134801 ], [ 112.5603032, -7.9131424 ], [ 112.560247, -7.9128788 ], [ 112.5602455, -7.9126532 ], [ 112.5602117, -7.9124074 ], [ 112.5601655, -7.9121601 ], [ 112.5600953, -7.9119146 ], [ 112.5600637, -7.9117534 ], [ 112.5600489, -7.9115835 ], [ 112.559975, -7.9112989 ], [ 112.5598991, -7.9110516 ], [ 112.5598136, -7.9108385 ], [ 112.5597498, -7.9107406 ], [ 112.5596772, -7.9106697 ], [ 112.5595441, -7.9106645 ], [ 112.5593694, -7.9106714 ], [ 112.5592438, -7.9106848 ], [ 112.5590449, -7.9106494 ], [ 112.5587773, -7.9105982 ], [ 112.5585842, -7.910552 ], [ 112.5583169, -7.9104904 ], [ 112.5581504, -7.9104793 ], [ 112.5579011, -7.9104736 ], [ 112.5577641, -7.9105007 ], [ 112.5575403, -7.9105504 ], [ 112.5572724, -7.9106291 ], [ 112.5569907, -7.9107116 ], [ 112.5567122, -7.9107963 ], [ 112.5563153, -7.910926 ], [ 112.5561051, -7.9110067 ], [ 112.5559531, -7.9110235 ], [ 112.5558348, -7.9110084 ], [ 112.5556109, -7.9109879 ], [ 112.5553589, -7.9109721 ], [ 112.5551668, -7.9109606 ], [ 112.5549772, -7.9109544 ], [ 112.5548029, -7.911004 ], [ 112.5544321, -7.9111476 ], [ 112.554128, -7.9112477 ], [ 112.5538502, -7.9113588 ], [ 112.5535651, -7.9114856 ], [ 112.5524047, -7.911956 ], [ 112.5519089, -7.912159 ], [ 112.5515046, -7.9123322 ], [ 112.5512999, -7.9123904 ], [ 112.5508551, -7.9125128 ], [ 112.5505466, -7.9126071 ], [ 112.5503274, -7.912668 ], [ 112.5496591, -7.912868 ], [ 112.5492781, -7.9130569 ], [ 112.5490925, -7.9131818 ], [ 112.549033, -7.9132231 ], [ 112.5489939, -7.9131329 ], [ 112.5489562, -7.913042 ], [ 112.5489395, -7.9130096 ], [ 112.5489064, -7.9130046 ], [ 112.5488132, -7.9130187 ], [ 112.5486672, -7.9130784 ], [ 112.5485123, -7.9131106 ], [ 112.5483738, -7.9131277 ], [ 112.5482368, -7.9131405 ], [ 112.5481763, -7.9131521 ], [ 112.548115, -7.9131681 ], [ 112.5480986, -7.9131 ], [ 112.5480877, -7.9130432 ], [ 112.5480857, -7.9130038 ], [ 112.5481197, -7.9130004 ], [ 112.5481461, -7.912998 ], [ 112.5481666, -7.9129927 ], [ 112.5481825, -7.9129913 ], [ 112.548201, -7.9129896 ], [ 112.548217, -7.9129882 ], [ 112.5482329, -7.9129868 ], [ 112.5482462, -7.9129857 ], [ 112.5482542, -7.912985 ], [ 112.5482729, -7.9129833 ], [ 112.5482862, -7.9129821 ], [ 112.5482969, -7.9129812 ], [ 112.548313, -7.9129798 ], [ 112.5483237, -7.9129788 ], [ 112.5483366, -7.9129741 ], [ 112.54835, -7.9129729 ], [ 112.5483663, -7.9129718 ], [ 112.548374, -7.9129677 ], [ 112.5483849, -7.9129672 ], [ 112.5484012, -7.9129663 ], [ 112.5484121, -7.9129657 ], [ 112.5484254, -7.9129614 ], [ 112.548439, -7.9129606 ], [ 112.5484554, -7.9129597 ], [ 112.5484609, -7.9129594 ], [ 112.5485583, -7.9129416 ], [ 112.5486818, -7.9129268 ], [ 112.548849, -7.9129137 ], [ 112.5489052, -7.9129092 ], [ 112.548973, -7.9128622 ], [ 112.5489698, -7.9129122 ], [ 112.5489855, -7.9129987 ], [ 112.5490032, -7.9130727 ], [ 112.5490343, -7.9131368 ], [ 112.5490462, -7.9132001 ], [ 112.5488845, -7.9133012 ], [ 112.5485558, -7.9134918 ], [ 112.5483794, -7.9135888 ], [ 112.5482103, -7.9136866 ], [ 112.5480511, -7.9137594 ], [ 112.5478829, -7.9137966 ], [ 112.5477092, -7.9138306 ], [ 112.5475473, -7.9138432 ], [ 112.5473549, -7.9138701 ], [ 112.5471755, -7.9139091 ], [ 112.5469559, -7.9139933 ], [ 112.546801, -7.9140507 ], [ 112.5466945, -7.9140983 ], [ 112.546463, -7.9141928 ], [ 112.5462679, -7.9142754 ], [ 112.5461057, -7.9143478 ], [ 112.5459753, -7.9144022 ], [ 112.545811, -7.9144767 ], [ 112.5455721, -7.9145824 ], [ 112.5454582, -7.9146235 ], [ 112.5452176, -7.9147227 ], [ 112.5451322, -7.9147555 ], [ 112.5447561, -7.9148947 ], [ 112.5444084, -7.9150416 ], [ 112.5442171, -7.9151222 ], [ 112.5440321, -7.9151942 ], [ 112.5438114, -7.9152935 ], [ 112.5436762, -7.9153434 ], [ 112.5435737, -7.9153662 ], [ 112.543348, -7.9154349 ], [ 112.5431378, -7.9154779 ], [ 112.5429476, -7.9155206 ], [ 112.5427778, -7.9155542 ], [ 112.5426691, -7.9155757 ], [ 112.5422833, -7.9156692 ], [ 112.5417752, -7.9157938 ], [ 112.5414965, -7.91586 ], [ 112.5409577, -7.9159854 ], [ 112.5407702, -7.9160351 ], [ 112.5405804, -7.9160861 ], [ 112.5404856, -7.916108 ], [ 112.5403765, -7.9161325 ], [ 112.5402647, -7.9161562 ], [ 112.5401416, -7.9161857 ], [ 112.5398011, -7.9162612 ], [ 112.53957, -7.9163195 ], [ 112.5394374, -7.9163659 ], [ 112.539359, -7.9163793 ], [ 112.5392344, -7.9163815 ], [ 112.5390696, -7.9163425 ], [ 112.5389485, -7.9162807 ], [ 112.538873, -7.9161599 ], [ 112.5387937, -7.915991 ], [ 112.538698, -7.9157496 ], [ 112.5386324, -7.9155204 ], [ 112.5385634, -7.9153544 ], [ 112.5384199, -7.9152054 ], [ 112.538201, -7.9151427 ], [ 112.5379388, -7.9151439 ], [ 112.5376652, -7.9151722 ], [ 112.5375704, -7.9151862 ], [ 112.5375216, -7.9151871 ], [ 112.5374757, -7.9151874 ], [ 112.5374295, -7.915163 ], [ 112.5373871, -7.9150928 ], [ 112.5373482, -7.9149604 ], [ 112.5373222, -7.9147877 ], [ 112.5373155, -7.914651 ], [ 112.5373301, -7.9145392 ], [ 112.5374218, -7.9144217 ], [ 112.5375302, -7.9143294 ], [ 112.5376696, -7.9142242 ], [ 112.537897, -7.9140696 ], [ 112.5380714, -7.913961 ], [ 112.5382229, -7.9138731 ], [ 112.5382772, -7.9137639 ], [ 112.5382756, -7.9137369 ], [ 112.5382821, -7.9137136 ], [ 112.5382847, -7.9136909 ], [ 112.538291, -7.9136616 ], [ 112.538294, -7.9136441 ], [ 112.5382925, -7.9136159 ], [ 112.5382913, -7.9135932 ], [ 112.53829, -7.9135703 ], [ 112.5382885, -7.9135414 ], [ 112.538287, -7.9135124 ], [ 112.5382817, -7.9134897 ], [ 112.5382764, -7.9134668 ], [ 112.5382715, -7.9134485 ], [ 112.5382618, -7.9134169 ], [ 112.5382486, -7.9133996 ], [ 112.5382354, -7.913382 ], [ 112.5382221, -7.9133642 ], [ 112.5382124, -7.9133388 ], [ 112.5381953, -7.9133283 ], [ 112.5381813, -7.9133034 ], [ 112.5381676, -7.9132855 ], [ 112.5381498, -7.9132677 ], [ 112.5381318, -7.9132512 ], [ 112.5381179, -7.9132315 ], [ 112.5381044, -7.9132195 ], [ 112.5380819, -7.9132013 ], [ 112.5380334, -7.9131413 ], [ 112.5379654, -7.9130843 ], [ 112.5379061, -7.9129774 ], [ 112.5378525, -7.9128587 ], [ 112.5378354, -7.9127149 ], [ 112.5378347, -7.9126793 ], [ 112.537835, -7.9126577 ], [ 112.5378339, -7.9126524 ], [ 112.5378333, -7.9126128 ], [ 112.5378405, -7.912562 ], [ 112.5378748, -7.9124758 ], [ 112.5379077, -7.9124299 ], [ 112.5379115, -7.9124219 ], [ 112.5379241, -7.9124041 ], [ 112.5379303, -7.9123947 ], [ 112.5379409, -7.9123809 ], [ 112.537949, -7.9123671 ], [ 112.5379598, -7.9123545 ], [ 112.5379658, -7.9123434 ], [ 112.5379743, -7.9123312 ], [ 112.5379851, -7.9123161 ], [ 112.5379897, -7.9123123 ], [ 112.5379987, -7.9123017 ], [ 112.5380332, -7.9122843 ], [ 112.5381216, -7.91225 ], [ 112.5382581, -7.9122118 ], [ 112.5383622, -7.912182 ], [ 112.5385348, -7.9121354 ], [ 112.5387747, -7.912082 ], [ 112.538979, -7.9120425 ], [ 112.5391185, -7.9120167 ], [ 112.5392237, -7.9119844 ], [ 112.539302, -7.9119037 ], [ 112.5393393, -7.9118119 ], [ 112.5393521, -7.9117413 ], [ 112.5393454, -7.9116518 ], [ 112.539318, -7.9116112 ], [ 112.539254, -7.9115529 ], [ 112.5391544, -7.911476 ], [ 112.5390699, -7.9114142 ], [ 112.5389738, -7.9113669 ], [ 112.538868, -7.9112904 ], [ 112.5387806, -7.9111893 ], [ 112.5386764, -7.9110796 ], [ 112.5386046, -7.9109929 ], [ 112.5385188, -7.9108741 ], [ 112.5384202, -7.9107552 ], [ 112.5383232, -7.9106519 ], [ 112.5382383, -7.910562 ], [ 112.5381532, -7.9104753 ], [ 112.5380505, -7.9103592 ], [ 112.5380312, -7.9103265 ], [ 112.5380048, -7.9102735 ], [ 112.5379957, -7.9102099 ], [ 112.5380044, -7.9101365 ], [ 112.5380584, -7.9100108 ], [ 112.5381548, -7.9098589 ], [ 112.5382855, -7.9096693 ], [ 112.5384212, -7.9094107 ], [ 112.538475, -7.9091686 ], [ 112.5384908, -7.9090029 ], [ 112.5385027, -7.9088351 ], [ 112.5385081, -7.908726 ], [ 112.5385044, -7.9086332 ], [ 112.5384669, -7.908544 ], [ 112.5383856, -7.9084267 ], [ 112.5382769, -7.90831 ], [ 112.5381681, -7.9082252 ], [ 112.5381082, -7.908118 ], [ 112.5380581, -7.9080402 ], [ 112.5380028, -7.9078769 ], [ 112.5379747, -7.9077783 ], [ 112.5379111, -7.9076467 ], [ 112.5378494, -7.9075598 ], [ 112.5377536, -7.9074893 ], [ 112.5376099, -7.9074227 ], [ 112.5375258, -7.9073781 ], [ 112.5374524, -7.9073299 ], [ 112.5374155, -7.9072612 ], [ 112.5373501, -7.9071112 ], [ 112.5372192, -7.9068292 ], [ 112.5370981, -7.9066007 ], [ 112.5369411, -7.9063182 ], [ 112.5368408, -7.9061892 ], [ 112.5367771, -7.9060524 ], [ 112.5367047, -7.9058681 ], [ 112.536709, -7.9056543 ], [ 112.5367016, -7.9053467 ], [ 112.5366766, -7.9052193 ], [ 112.5365923, -7.9049911 ], [ 112.5364742, -7.9047354 ], [ 112.5364078, -7.9045685 ], [ 112.5363151, -7.9042648 ], [ 112.5362718, -7.9040058 ], [ 112.5362693, -7.9036576 ], [ 112.5363489, -7.9033556 ], [ 112.5364256, -7.9030097 ], [ 112.5364853, -7.9024925 ], [ 112.5365173, -7.9022068 ], [ 112.5364964, -7.9021079 ], [ 112.5364215, -7.9019172 ], [ 112.5363298, -7.9017649 ], [ 112.536222, -7.9016382 ], [ 112.5360722, -7.9014973 ], [ 112.5358981, -7.9013194 ], [ 112.5357382, -7.9012065 ], [ 112.5355477, -7.9010842 ], [ 112.5353686, -7.9009583 ], [ 112.5352174, -7.9009106 ], [ 112.5350504, -7.9008494 ], [ 112.5349038, -7.9008151 ], [ 112.5347529, -7.900791 ], [ 112.5346442, -7.9007678 ], [ 112.5345332, -7.9007673 ], [ 112.5344492, -7.9007792 ], [ 112.5343688, -7.9007742 ], [ 112.5343075, -7.9007692 ], [ 112.5342452, -7.90076 ], [ 112.534222, -7.9007423 ], [ 112.5342098, -7.9007278 ], [ 112.5341992, -7.9007127 ], [ 112.5341891, -7.9007032 ], [ 112.5341794, -7.9006709 ], [ 112.5341679, -7.900636 ], [ 112.5341666, -7.9005952 ], [ 112.5341791, -7.9005322 ], [ 112.534212, -7.9004804 ], [ 112.5342726, -7.9004339 ], [ 112.5343495, -7.9003833 ], [ 112.5344482, -7.9003187 ], [ 112.534584, -7.9002398 ], [ 112.5347473, -7.90014 ], [ 112.5348825, -7.9000481 ], [ 112.5350085, -7.8999758 ], [ 112.5350221, -7.8999668 ], [ 112.5350373, -7.8999552 ], [ 112.5350958, -7.8999121 ], [ 112.5351495, -7.8998607 ], [ 112.5351644, -7.8998178 ], [ 112.5351816, -7.899772 ], [ 112.5351802, -7.8997379 ], [ 112.5351715, -7.899694 ], [ 112.5351484, -7.8996535 ], [ 112.5351258, -7.8996222 ], [ 112.5350915, -7.8995691 ], [ 112.5350588, -7.8995193 ], [ 112.5350367, -7.8994796 ], [ 112.5350174, -7.8994468 ], [ 112.5349995, -7.8994071 ], [ 112.5349841, -7.899365 ], [ 112.5349701, -7.8992791 ], [ 112.5349567, -7.8991034 ], [ 112.5349451, -7.8989571 ], [ 112.5349413, -7.8988418 ], [ 112.5349322, -7.8986822 ], [ 112.534897, -7.8985534 ], [ 112.5348261, -7.8983538 ], [ 112.534764, -7.8981393 ], [ 112.5345752, -7.897537 ], [ 112.5341789, -7.8964905 ], [ 112.533955, -7.8959366 ], [ 112.5333115, -7.8943755 ], [ 112.5331614, -7.894027 ], [ 112.5330904, -7.893837 ], [ 112.5330053, -7.8935077 ], [ 112.5329389, -7.893152 ], [ 112.5328569, -7.8926281 ], [ 112.5327735, -7.8920449 ], [ 112.5326791, -7.8915465 ], [ 112.532614, -7.8911925 ], [ 112.53255, -7.8910215 ], [ 112.5324903, -7.8908799 ], [ 112.5324234, -7.8907972 ], [ 112.5322999, -7.8906687 ], [ 112.5321402, -7.890519 ], [ 112.5319819, -7.8903523 ], [ 112.5318201, -7.8901969 ], [ 112.5317323, -7.8900822 ], [ 112.5316272, -7.8899451 ], [ 112.5315287, -7.8897905 ], [ 112.531457, -7.8896808 ], [ 112.5314097, -7.8895742 ], [ 112.53133, -7.8894185 ], [ 112.5313178, -7.8892147 ], [ 112.5313312, -7.8890682 ], [ 112.5313491, -7.8888981 ], [ 112.5313017, -7.8887092 ], [ 112.531273, -7.8885954 ], [ 112.5312114, -7.8884587 ], [ 112.5311553, -7.8883579 ], [ 112.5309308, -7.8880726 ], [ 112.5307573, -7.8879118 ], [ 112.5306066, -7.8877839 ], [ 112.5305112, -7.8877532 ], [ 112.5304061, -7.887741 ], [ 112.5303317, -7.8877393 ], [ 112.53023, -7.8878163 ], [ 112.5300904, -7.8879399 ], [ 112.5299806, -7.8880396 ], [ 112.5298835, -7.8881359 ], [ 112.5298114, -7.8882013 ], [ 112.5298717, -7.888259 ], [ 112.5299396, -7.8883365 ], [ 112.5300175, -7.8884224 ], [ 112.5300896, -7.8885063 ], [ 112.5301553, -7.8885853 ], [ 112.5301829, -7.8886169 ], [ 112.5303268, -7.888493 ], [ 112.5303763, -7.8884473 ], [ 112.5304123, -7.8884133 ], [ 112.5304434, -7.8883847 ], [ 112.530458, -7.8883729 ], [ 112.5305996, -7.8882359 ], [ 112.5306702, -7.8881941 ], [ 112.5307426, -7.8881649 ], [ 112.5309282, -7.8883415 ], [ 112.5310838, -7.8885342 ], [ 112.5311239, -7.8887272 ], [ 112.5311305, -7.888907 ], [ 112.5311017, -7.8890323 ], [ 112.5310574, -7.8891759 ], [ 112.530996, -7.8892719 ], [ 112.5308942, -7.8893584 ], [ 112.5307817, -7.889389 ], [ 112.5307088, -7.8893995 ], [ 112.5306517, -7.8894321 ], [ 112.530554, -7.8894872 ], [ 112.5304719, -7.889504 ], [ 112.530366, -7.8895091 ], [ 112.5302652, -7.8895075 ], [ 112.5302326, -7.8895011 ], [ 112.5302507, -7.8893564 ], [ 112.5302755, -7.8891625 ], [ 112.5302917, -7.8890365 ], [ 112.5302957, -7.8889865 ], [ 112.5302955, -7.8889687 ], [ 112.5302928, -7.8889006 ], [ 112.5302937, -7.8888674 ], [ 112.5302861, -7.8887939 ], [ 112.5302526, -7.8887306 ], [ 112.5302282, -7.888663 ], [ 112.5301804, -7.8885816 ], [ 112.5301263, -7.8885158 ], [ 112.5300445, -7.8884278 ], [ 112.5299628, -7.8883233 ], [ 112.5298671, -7.8881975 ], [ 112.5298961, -7.8881839 ], [ 112.5300102, -7.8880693 ], [ 112.5301328, -7.8879641 ], [ 112.5302714, -7.8878403 ], [ 112.5303872, -7.8877783 ], [ 112.5305084, -7.8877761 ], [ 112.5305411, -7.8877701 ], [ 112.5305358, -7.8877458 ], [ 112.5305287, -7.8877016 ], [ 112.5304716, -7.8876437 ], [ 112.5303411, -7.8875251 ], [ 112.5302362, -7.8873993 ], [ 112.5301596, -7.8872374 ], [ 112.5301548, -7.8871269 ], [ 112.5302278, -7.8868658 ], [ 112.530335, -7.8865598 ], [ 112.530358, -7.8862668 ], [ 112.5302827, -7.8860487 ], [ 112.5301981, -7.8859033 ], [ 112.5300607, -7.8857549 ], [ 112.5297571, -7.8852283 ], [ 112.5295531, -7.8849428 ], [ 112.5294629, -7.8847609 ], [ 112.5293689, -7.8846174 ], [ 112.5292019, -7.8844558 ], [ 112.529055, -7.8843454 ], [ 112.528943, -7.8842697 ], [ 112.5288433, -7.8841669 ], [ 112.5288047, -7.8840574 ], [ 112.5288055, -7.8840211 ], [ 112.5288116, -7.8839826 ], [ 112.5288156, -7.8839361 ], [ 112.5288269, -7.8839146 ], [ 112.5288461, -7.8838997 ], [ 112.5288607, -7.8838684 ], [ 112.5288786, -7.8838473 ], [ 112.5288991, -7.8838147 ], [ 112.5289161, -7.8837906 ], [ 112.5289354, -7.8837747 ], [ 112.5289526, -7.8837505 ], [ 112.5289741, -7.8837426 ], [ 112.5289913, -7.8837179 ], [ 112.5290696, -7.883652 ], [ 112.5292751, -7.8835045 ], [ 112.5294373, -7.8833499 ], [ 112.5295098, -7.8831646 ], [ 112.5295895, -7.8827916 ], [ 112.529601, -7.8821511 ], [ 112.5295365, -7.8816604 ], [ 112.5294546, -7.8812738 ], [ 112.5292957, -7.8809212 ], [ 112.5292459, -7.8808617 ], [ 112.5292215, -7.8808385 ], [ 112.5294808, -7.8807368 ], [ 112.5300498, -7.8805712 ], [ 112.5309567, -7.8802708 ], [ 112.5322452, -7.879835 ], [ 112.5328352, -7.8796294 ], [ 112.5329994, -7.8795754 ], [ 112.5343585, -7.8792384 ], [ 112.5345199, -7.8791837 ], [ 112.5346276, -7.8791606 ], [ 112.5349098, -7.8794475 ], [ 112.5351962, -7.8797067 ], [ 112.5354002, -7.8798958 ], [ 112.5356068, -7.8801094 ], [ 112.535895, -7.8803962 ], [ 112.5361346, -7.8805932 ], [ 112.5363993, -7.8808099 ], [ 112.5365634, -7.8809355 ], [ 112.5366034, -7.8809655 ], [ 112.5367421, -7.8810764 ], [ 112.5370468, -7.8813087 ], [ 112.5370551, -7.8813813 ], [ 112.536947, -7.8814595 ], [ 112.5366859, -7.8815649 ], [ 112.5362361, -7.8817102 ], [ 112.5357891, -7.8818311 ], [ 112.5354914, -7.8819135 ], [ 112.5351286, -7.881998 ], [ 112.5349016, -7.882044 ], [ 112.5347457, -7.8820651 ], [ 112.5346586, -7.8820559 ], [ 112.5344442, -7.8819829 ], [ 112.534074, -7.8818759 ], [ 112.5336625, -7.8817686 ], [ 112.5333952, -7.881707 ], [ 112.5331476, -7.8817096 ], [ 112.5330587, -7.881735 ], [ 112.53288, -7.881801 ], [ 112.5327193, -7.881896 ], [ 112.5326571, -7.8819863 ], [ 112.5326189, -7.8820462 ], [ 112.5325929, -7.8821078 ], [ 112.5326379, -7.8821693 ], [ 112.5326907, -7.8822541 ], [ 112.5327467, -7.8823737 ], [ 112.5327699, -7.8824974 ] ] } }
]
}
