{
"type": "FeatureCollection",
"name": "JALUR_K1_HAMIDRUSDI-BATU_1",
"features": [
{ "type": "Feature", "properties": { "Name": "Hamid Rusdi-Batu", "description": null, "timestamp": null, "begin": null, "end": null, "altitudeMode": null, "tessellate": 1, "extrude": 0, "visibility": -1, "drawOrder": null, "icon": null }, "geometry": { "type": "LineString", "coordinates": [ [ 112.643749, -8.026343 ], [ 112.643759, -8.026438 ], [ 112.642899, -8.026379 ], [ 112.642927, -8.025262 ], [ 112.642929, -8.025049 ], [ 112.642989, -8.023668 ], [ 112.643101, -8.021416 ], [ 112.643156, -8.019726 ], [ 112.643186, -8.018933 ], [ 112.643314, -8.016843 ], [ 112.643424, -8.014716 ], [ 112.643479, -8.013272 ], [ 112.643583, -8.011059 ], [ 112.643696, -8.008731 ], [ 112.64378, -8.006733 ], [ 112.643821, -8.006382 ], [ 112.64386, -8.005836 ], [ 112.643928, -8.005168 ], [ 112.643979, -8.004375 ], [ 112.643989, -8.004058 ], [ 112.6442, -8.00339 ], [ 112.644351, -8.00297 ], [ 112.644589, -8.002155 ], [ 112.644757, -8.001571 ], [ 112.644954, -8.0009 ], [ 112.645236, -8.000019 ], [ 112.645419, -7.999514 ], [ 112.645641, -7.998928 ], [ 112.645865, -7.998305 ], [ 112.645966, -7.99802 ], [ 112.64599, -7.997879 ], [ 112.646167, -7.997446 ], [ 112.646318, -7.997071 ], [ 112.646344, -7.996922 ], [ 112.646399, -7.996607 ], [ 112.646444, -7.996328 ], [ 112.646549, -7.995719 ], [ 112.646619, -7.995504 ], [ 112.64685, -7.995186 ], [ 112.646941, -7.995067 ], [ 112.64708, -7.994908 ], [ 112.647257, -7.994725 ], [ 112.647539, -7.994411 ], [ 112.647633, -7.99422 ], [ 112.647692, -7.994027 ], [ 112.647772, -7.993915 ], [ 112.647943, -7.993706 ], [ 112.648065, -7.993459 ], [ 112.648185, -7.993185 ], [ 112.648195, -7.993155 ], [ 112.648261, -7.993049 ], [ 112.648379, -7.992794 ], [ 112.648564, -7.992459 ], [ 112.648817, -7.992048 ], [ 112.648992, -7.991849 ], [ 112.649315, -7.991513 ], [ 112.649517, -7.991318 ], [ 112.649681, -7.991174 ], [ 112.649857, -7.990964 ], [ 112.650024, -7.990825 ], [ 112.6503, -7.990578 ], [ 112.650645, -7.990232 ], [ 112.65091, -7.989964 ], [ 112.65122, -7.989651 ], [ 112.651929, -7.98899 ], [ 112.652512, -7.988417 ], [ 112.653033, -7.987897 ], [ 112.653465, -7.987524 ], [ 112.653804, -7.987199 ], [ 112.65421, -7.986849 ], [ 112.65477, -7.986475 ], [ 112.655315, -7.98619 ], [ 112.655907, -7.985862 ], [ 112.656322, -7.985655 ], [ 112.656772, -7.985425 ], [ 112.657099, -7.985273 ], [ 112.657563, -7.985047 ], [ 112.657929, -7.984875 ], [ 112.658583, -7.984556 ], [ 112.658906, -7.984423 ], [ 112.659191, -7.984286 ], [ 112.659557, -7.984086 ], [ 112.659836, -7.983938 ], [ 112.660176, -7.983764 ], [ 112.660445, -7.983598 ], [ 112.660707, -7.983354 ], [ 112.660881, -7.983113 ], [ 112.661135, -7.982804 ], [ 112.661263, -7.982614 ], [ 112.661502, -7.982295 ], [ 112.661785, -7.981911 ], [ 112.662085, -7.981522 ], [ 112.662256, -7.981297 ], [ 112.662408, -7.98111 ], [ 112.662575, -7.980942 ], [ 112.662657, -7.980857 ], [ 112.662745, -7.980679 ], [ 112.663005, -7.980626 ], [ 112.663217, -7.980605 ], [ 112.663493, -7.980566 ], [ 112.663921, -7.980498 ], [ 112.664302, -7.980468 ], [ 112.664835, -7.980424 ], [ 112.666172, -7.980294 ], [ 112.66676, -7.980246 ], [ 112.6673, -7.98019 ], [ 112.668951, -7.980042 ], [ 112.669193, -7.979954 ], [ 112.669376, -7.979752 ], [ 112.669519, -7.9795 ], [ 112.670504, -7.977836 ], [ 112.671167, -7.976753 ], [ 112.67141, -7.976238 ], [ 112.671564, -7.975914 ], [ 112.671596, -7.975855 ], [ 112.671161, -7.975529 ], [ 112.670718, -7.975167 ], [ 112.670266, -7.97482 ], [ 112.669902, -7.974549 ], [ 112.668728, -7.973732 ], [ 112.668691, -7.973691 ], [ 112.668755, -7.973606 ], [ 112.668907, -7.973737 ], [ 112.669808, -7.974376 ], [ 112.670301, -7.974736 ], [ 112.670379, -7.97465 ], [ 112.67072, -7.974905 ], [ 112.670783, -7.974956 ], [ 112.67073, -7.97505 ], [ 112.67109, -7.975322 ], [ 112.671661, -7.975765 ], [ 112.671713, -7.97585 ], [ 112.671475, -7.97641 ], [ 112.67131, -7.976703 ], [ 112.671177, -7.976969 ], [ 112.671064, -7.977148 ], [ 112.67077, -7.97759 ], [ 112.66991, -7.978994 ], [ 112.66956, -7.9796 ], [ 112.669258, -7.980031 ], [ 112.669131, -7.980109 ], [ 112.668983, -7.980161 ], [ 112.668639, -7.98021 ], [ 112.668322, -7.980243 ], [ 112.666461, -7.980385 ], [ 112.66579, -7.980439 ], [ 112.664326, -7.980579 ], [ 112.663452, -7.980675 ], [ 112.662763, -7.980816 ], [ 112.662433, -7.980704 ], [ 112.66202, -7.980494 ], [ 112.661526, -7.980219 ], [ 112.660891, -7.979855 ], [ 112.660164, -7.979429 ], [ 112.659806, -7.979245 ], [ 112.659674, -7.979185 ], [ 112.65929, -7.979364 ], [ 112.657819, -7.980059 ], [ 112.657346, -7.980301 ], [ 112.655699, -7.981098 ], [ 112.655263, -7.981324 ], [ 112.655151, -7.981366 ], [ 112.654929, -7.981458 ], [ 112.654754, -7.981477 ], [ 112.654544, -7.981457 ], [ 112.654324, -7.98136 ], [ 112.653977, -7.981162 ], [ 112.653407, -7.980823 ], [ 112.6525, -7.980295 ], [ 112.651867, -7.979948 ], [ 112.651547, -7.979812 ], [ 112.651071, -7.979641 ], [ 112.650799, -7.979562 ], [ 112.650311, -7.979401 ], [ 112.649975, -7.979282 ], [ 112.649679, -7.979172 ], [ 112.649347, -7.979066 ], [ 112.648894, -7.979031 ], [ 112.648402, -7.978968 ], [ 112.647787, -7.978901 ], [ 112.64722, -7.97883 ], [ 112.646403, -7.9787 ], [ 112.646062, -7.978647 ], [ 112.645573, -7.978491 ], [ 112.645022, -7.978234 ], [ 112.64452, -7.977986 ], [ 112.644154, -7.977819 ], [ 112.643699, -7.977577 ], [ 112.643412, -7.977387 ], [ 112.642996, -7.977029 ], [ 112.641913, -7.976124 ], [ 112.641217, -7.975544 ], [ 112.640863, -7.975276 ], [ 112.640015, -7.974681 ], [ 112.639022, -7.973999 ], [ 112.638642, -7.97374 ], [ 112.6385, -7.973633 ], [ 112.638453, -7.973478 ], [ 112.638005, -7.973483 ], [ 112.637398, -7.973453 ], [ 112.636953, -7.973448 ], [ 112.636786, -7.973458 ], [ 112.636645, -7.973459 ], [ 112.636674, -7.973843 ], [ 112.636714, -7.974618 ], [ 112.636752, -7.9753 ], [ 112.636758, -7.975699 ], [ 112.636766, -7.975834 ], [ 112.636826, -7.977513 ], [ 112.636814, -7.977691 ], [ 112.635944, -7.977587 ], [ 112.634647, -7.977356 ], [ 112.634577, -7.97751 ], [ 112.634441, -7.977605 ], [ 112.634335, -7.977672 ], [ 112.634114, -7.977722 ], [ 112.633884, -7.977709 ], [ 112.633729, -7.977632 ], [ 112.63361, -7.97758 ], [ 112.63337, -7.977897 ], [ 112.632894, -7.978449 ], [ 112.632694, -7.978717 ], [ 112.632441, -7.978852 ], [ 112.632282, -7.978895 ], [ 112.632044, -7.978944 ], [ 112.631797, -7.979038 ], [ 112.631494, -7.97913 ], [ 112.631328, -7.979216 ], [ 112.631223, -7.979395 ], [ 112.631145, -7.979613 ], [ 112.631103, -7.979798 ], [ 112.631005, -7.98003 ], [ 112.63093, -7.980212 ], [ 112.630906, -7.980312 ], [ 112.631266, -7.980381 ], [ 112.631503, -7.980455 ], [ 112.631713, -7.98051 ], [ 112.631887, -7.980597 ], [ 112.631932, -7.980856 ], [ 112.631902, -7.981094 ], [ 112.631855, -7.981283 ], [ 112.63181, -7.981483 ], [ 112.631733, -7.981785 ], [ 112.631686, -7.98198 ], [ 112.631435, -7.981984 ], [ 112.631122, -7.981887 ], [ 112.630812, -7.981787 ], [ 112.630577, -7.981732 ], [ 112.630424, -7.981658 ], [ 112.63037, -7.981443 ], [ 112.630462, -7.981022 ], [ 112.63046, -7.980782 ], [ 112.630431, -7.980517 ], [ 112.630366, -7.980286 ], [ 112.630242, -7.980154 ], [ 112.629965, -7.979886 ], [ 112.629756, -7.979683 ], [ 112.629621, -7.979462 ], [ 112.629532, -7.979263 ], [ 112.629425, -7.978834 ], [ 112.629409, -7.978651 ], [ 112.629369, -7.978295 ], [ 112.629344, -7.977931 ], [ 112.62931, -7.977545 ], [ 112.629301, -7.977178 ], [ 112.629328, -7.976917 ], [ 112.629329, -7.976668 ], [ 112.629323, -7.976525 ], [ 112.629174, -7.976411 ], [ 112.629058, -7.976439 ], [ 112.62886, -7.976413 ], [ 112.628557, -7.976449 ], [ 112.628316, -7.976469 ], [ 112.628089, -7.976499 ], [ 112.627914, -7.976529 ], [ 112.627594, -7.976571 ], [ 112.627565, -7.976827 ], [ 112.627491, -7.977176 ], [ 112.627408, -7.977577 ], [ 112.627354, -7.977778 ], [ 112.626916, -7.978562 ], [ 112.626781, -7.978807 ], [ 112.626208, -7.979817 ], [ 112.626123, -7.979984 ], [ 112.625929, -7.979867 ], [ 112.625603, -7.979634 ], [ 112.625052, -7.97924 ], [ 112.62415, -7.978549 ], [ 112.623315, -7.977875 ], [ 112.622014, -7.976847 ], [ 112.621757, -7.976661 ], [ 112.621295, -7.976351 ], [ 112.620741, -7.97601 ], [ 112.6205, -7.975821 ], [ 112.620637, -7.975349 ], [ 112.620928, -7.974227 ], [ 112.621093, -7.973613 ], [ 112.621339, -7.972659 ], [ 112.621403, -7.972372 ], [ 112.621624, -7.97192 ], [ 112.621893, -7.971498 ], [ 112.62241, -7.970613 ], [ 112.623042, -7.969497 ], [ 112.623288, -7.969028 ], [ 112.623634, -7.968443 ], [ 112.623833, -7.968015 ], [ 112.624278, -7.96687 ], [ 112.624579, -7.96611 ], [ 112.624778, -7.965553 ], [ 112.62484, -7.96532 ], [ 112.624966, -7.96478 ], [ 112.625115, -7.964148 ], [ 112.6253, -7.963573 ], [ 112.625461, -7.963121 ], [ 112.625788, -7.96242 ], [ 112.625792, -7.962304 ], [ 112.625594, -7.96221 ], [ 112.624996, -7.962157 ], [ 112.624635, -7.962137 ], [ 112.624229, -7.962125 ], [ 112.623879, -7.962088 ], [ 112.623587, -7.961945 ], [ 112.623508, -7.96181 ], [ 112.623469, -7.961626 ], [ 112.623333, -7.96145 ], [ 112.623073, -7.961243 ], [ 112.622639, -7.960898 ], [ 112.622018, -7.960438 ], [ 112.621396, -7.959923 ], [ 112.619603, -7.958404 ], [ 112.619046, -7.958086 ], [ 112.616976, -7.9569 ], [ 112.615479, -7.95604 ], [ 112.615037, -7.956087 ], [ 112.613483, -7.956404 ], [ 112.613294, -7.956491 ], [ 112.612941, -7.956725 ], [ 112.612851, -7.956762 ], [ 112.61249, -7.956437 ], [ 112.612133, -7.956063 ], [ 112.611108, -7.954925 ], [ 112.610737, -7.954456 ], [ 112.610614, -7.95431 ], [ 112.610502, -7.954054 ], [ 112.610372, -7.953707 ], [ 112.610301, -7.953578 ], [ 112.610004, -7.953233 ], [ 112.609799, -7.952981 ], [ 112.609416, -7.952496 ], [ 112.609188, -7.952133 ], [ 112.609069, -7.951743 ], [ 112.608952, -7.951309 ], [ 112.608882, -7.950783 ], [ 112.608856, -7.950214 ], [ 112.60884, -7.949479 ], [ 112.608797, -7.948582 ], [ 112.608754, -7.947921 ], [ 112.608832, -7.947169 ], [ 112.608851, -7.947001 ], [ 112.609089, -7.946368 ], [ 112.609896, -7.944129 ], [ 112.610256, -7.943141 ], [ 112.609611, -7.942179 ], [ 112.608926, -7.941169 ], [ 112.607396, -7.939042 ], [ 112.606913, -7.938317 ], [ 112.60621, -7.93731 ], [ 112.605552, -7.936314 ], [ 112.60526, -7.935913 ], [ 112.603499, -7.933376 ], [ 112.602668, -7.932059 ], [ 112.602594, -7.931724 ], [ 112.602646, -7.931375 ], [ 112.602729, -7.930664 ], [ 112.602864, -7.92976 ], [ 112.602926, -7.92904 ], [ 112.602928, -7.928424 ], [ 112.602899, -7.927992 ], [ 112.602836, -7.927729 ], [ 112.60269, -7.927454 ], [ 112.601666, -7.926389 ], [ 112.600608, -7.925423 ], [ 112.599878, -7.92478 ], [ 112.599599, -7.924589 ], [ 112.59899, -7.924162 ], [ 112.598406, -7.925018 ], [ 112.598355, -7.925085 ], [ 112.598332, -7.925059 ], [ 112.598194, -7.924952 ], [ 112.597798, -7.924623 ], [ 112.597819, -7.924594 ], [ 112.597967, -7.92438 ], [ 112.598001, -7.924389 ], [ 112.598057, -7.924423 ], [ 112.598219, -7.924535 ], [ 112.598452, -7.924674 ], [ 112.598499, -7.924657 ], [ 112.598507, -7.924648 ], [ 112.598511, -7.924642 ], [ 112.598561, -7.924586 ], [ 112.598662, -7.924436 ], [ 112.598762, -7.924301 ], [ 112.598882, -7.924073 ], [ 112.598044, -7.923664 ], [ 112.597511, -7.923341 ], [ 112.597168, -7.923167 ], [ 112.596866, -7.923002 ], [ 112.59665, -7.922811 ], [ 112.596281, -7.922446 ], [ 112.595787, -7.921954 ], [ 112.595558, -7.921669 ], [ 112.595224, -7.921352 ], [ 112.594336, -7.920569 ], [ 112.594127, -7.920427 ], [ 112.593193, -7.9198 ], [ 112.592825, -7.91963 ], [ 112.592088, -7.919261 ], [ 112.591797, -7.919161 ], [ 112.590668, -7.918734 ], [ 112.589874, -7.918271 ], [ 112.589513, -7.918038 ], [ 112.589042, -7.917682 ], [ 112.58879, -7.917461 ], [ 112.588373, -7.917069 ], [ 112.587887, -7.916621 ], [ 112.587043, -7.915827 ], [ 112.586594, -7.915372 ], [ 112.585868, -7.9146 ], [ 112.585385, -7.914078 ], [ 112.584698, -7.913341 ], [ 112.584457, -7.913732 ], [ 112.584371, -7.913885 ], [ 112.584299, -7.914019 ], [ 112.584221, -7.914152 ], [ 112.583275, -7.915971 ], [ 112.583187, -7.916192 ], [ 112.582601, -7.917584 ], [ 112.582453, -7.917987 ], [ 112.582381, -7.918264 ], [ 112.582227, -7.918892 ], [ 112.582109, -7.919295 ], [ 112.581912, -7.919752 ], [ 112.581805, -7.920019 ], [ 112.581783, -7.920254 ], [ 112.581707, -7.920816 ], [ 112.581666, -7.920997 ], [ 112.581625, -7.921168 ], [ 112.581563, -7.921388 ], [ 112.581433, -7.921788 ], [ 112.581379, -7.922053 ], [ 112.581346, -7.922191 ], [ 112.581268, -7.922671 ], [ 112.581235, -7.922866 ], [ 112.5812, -7.92307 ], [ 112.580898, -7.923187 ], [ 112.580622, -7.923252 ], [ 112.580186, -7.923308 ], [ 112.580019, -7.923331 ], [ 112.579575, -7.923389 ], [ 112.579173, -7.923442 ], [ 112.578778, -7.923478 ], [ 112.57863, -7.923519 ], [ 112.578286, -7.923638 ], [ 112.578012, -7.923762 ], [ 112.577848, -7.92381 ], [ 112.577692, -7.923794 ], [ 112.577534, -7.923742 ], [ 112.577348, -7.923647 ], [ 112.57651, -7.923164 ], [ 112.576359, -7.923081 ], [ 112.575939, -7.922787 ], [ 112.575712, -7.922653 ], [ 112.575489, -7.922533 ], [ 112.575326, -7.922475 ], [ 112.575129, -7.922433 ], [ 112.574541, -7.922299 ], [ 112.574335, -7.922255 ], [ 112.57394, -7.922187 ], [ 112.573737, -7.922166 ], [ 112.573469, -7.922127 ], [ 112.57324, -7.922094 ], [ 112.573075, -7.922082 ], [ 112.572609, -7.922039 ], [ 112.572388, -7.922015 ], [ 112.572224, -7.922014 ], [ 112.571809, -7.921962 ], [ 112.571571, -7.921954 ], [ 112.571305, -7.921938 ], [ 112.571185, -7.921929 ], [ 112.571043, -7.921919 ], [ 112.570978, -7.921912 ], [ 112.570666, -7.921879 ], [ 112.570403, -7.921817 ], [ 112.57025, -7.921788 ], [ 112.570155, -7.921754 ], [ 112.569955, -7.921705 ], [ 112.569796, -7.921672 ], [ 112.569688, -7.921647 ], [ 112.56908, -7.921508 ], [ 112.568983, -7.921483 ], [ 112.568827, -7.921439 ], [ 112.568658, -7.921395 ], [ 112.568511, -7.921347 ], [ 112.568365, -7.921304 ], [ 112.568279, -7.921278 ], [ 112.568245, -7.921263 ], [ 112.568113, -7.921229 ], [ 112.567965, -7.921191 ], [ 112.567868, -7.92118 ], [ 112.56754, -7.921133 ], [ 112.567372, -7.921118 ], [ 112.567235, -7.921094 ], [ 112.567097, -7.921053 ], [ 112.566846, -7.921013 ], [ 112.56662, -7.920975 ], [ 112.566517, -7.920963 ], [ 112.566322, -7.920918 ], [ 112.566268, -7.920897 ], [ 112.566235, -7.920861 ], [ 112.566231, -7.920806 ], [ 112.566252, -7.920649 ], [ 112.56627, -7.920447 ], [ 112.566292, -7.920308 ], [ 112.566341, -7.919711 ], [ 112.566363, -7.919434 ], [ 112.566369, -7.919276 ], [ 112.566353, -7.919136 ], [ 112.566347, -7.919112 ], [ 112.566344, -7.919103 ], [ 112.566342, -7.919083 ], [ 112.566342, -7.91908 ], [ 112.56634, -7.919062 ], [ 112.566339, -7.919052 ], [ 112.566338, -7.919037 ], [ 112.566336, -7.919021 ], [ 112.566331, -7.919012 ], [ 112.566328, -7.918999 ], [ 112.566327, -7.918986 ], [ 112.566322, -7.918976 ], [ 112.566318, -7.918955 ], [ 112.566315, -7.918941 ], [ 112.566313, -7.918924 ], [ 112.566312, -7.918912 ], [ 112.566309, -7.918904 ], [ 112.566306, -7.918889 ], [ 112.566302, -7.918878 ], [ 112.566299, -7.918863 ], [ 112.566295, -7.918849 ], [ 112.566292, -7.918835 ], [ 112.566289, -7.918824 ], [ 112.566287, -7.918806 ], [ 112.566283, -7.918791 ], [ 112.566282, -7.918776 ], [ 112.566278, -7.918761 ], [ 112.566273, -7.91875 ], [ 112.566272, -7.918738 ], [ 112.566269, -7.91873 ], [ 112.566251, -7.918633 ], [ 112.566239, -7.918579 ], [ 112.566236, -7.918555 ], [ 112.566234, -7.918532 ], [ 112.566233, -7.918523 ], [ 112.566237, -7.918477 ], [ 112.566246, -7.91835 ], [ 112.566252, -7.918305 ], [ 112.566256, -7.918295 ], [ 112.566262, -7.918282 ], [ 112.566268, -7.918271 ], [ 112.566277, -7.918258 ], [ 112.566287, -7.918243 ], [ 112.566298, -7.918231 ], [ 112.566305, -7.918225 ], [ 112.566316, -7.918208 ], [ 112.56632, -7.918203 ], [ 112.566332, -7.918193 ], [ 112.566341, -7.918186 ], [ 112.56635, -7.918176 ], [ 112.56636, -7.91817 ], [ 112.566374, -7.918158 ], [ 112.56639, -7.91815 ], [ 112.5664, -7.918145 ], [ 112.566417, -7.918136 ], [ 112.566427, -7.918136 ], [ 112.566442, -7.918135 ], [ 112.566455, -7.918135 ], [ 112.566475, -7.918131 ], [ 112.56648, -7.918131 ], [ 112.566497, -7.918128 ], [ 112.566515, -7.918128 ], [ 112.56652, -7.918128 ], [ 112.566532, -7.918128 ], [ 112.566542, -7.918129 ], [ 112.566557, -7.918127 ], [ 112.566573, -7.918128 ], [ 112.566585, -7.918129 ], [ 112.566603, -7.918129 ], [ 112.566618, -7.918128 ], [ 112.566635, -7.918129 ], [ 112.566645, -7.918129 ], [ 112.566653, -7.91813 ], [ 112.56667, -7.91813 ], [ 112.566685, -7.918131 ], [ 112.5667, -7.918131 ], [ 112.56671, -7.918132 ], [ 112.566725, -7.918135 ], [ 112.566727, -7.918137 ], [ 112.566757, -7.918136 ], [ 112.566829, -7.918142 ], [ 112.566847, -7.918141 ], [ 112.566876, -7.91814 ], [ 112.566896, -7.918139 ], [ 112.566901, -7.918139 ], [ 112.566911, -7.918138 ], [ 112.566929, -7.918138 ], [ 112.566943, -7.918137 ], [ 112.566955, -7.918137 ], [ 112.566966, -7.918136 ], [ 112.566974, -7.918136 ], [ 112.566992, -7.918136 ], [ 112.567006, -7.918136 ], [ 112.567016, -7.918133 ], [ 112.56712, -7.91813 ], [ 112.567226, -7.918111 ], [ 112.567329, -7.918064 ], [ 112.567422, -7.917964 ], [ 112.567472, -7.917838 ], [ 112.56755, -7.917575 ], [ 112.567565, -7.917436 ], [ 112.567543, -7.917255 ], [ 112.567515, -7.917143 ], [ 112.567484, -7.917044 ], [ 112.567435, -7.916934 ], [ 112.567396, -7.916809 ], [ 112.567344, -7.916688 ], [ 112.567283, -7.916566 ], [ 112.567195, -7.916493 ], [ 112.567055, -7.916435 ], [ 112.566796, -7.916333 ], [ 112.566665, -7.916305 ], [ 112.566558, -7.916293 ], [ 112.566439, -7.916293 ], [ 112.566284, -7.916279 ], [ 112.566144, -7.916278 ], [ 112.565973, -7.916262 ], [ 112.565838, -7.916244 ], [ 112.565698, -7.916202 ], [ 112.565598, -7.916163 ], [ 112.565414, -7.916104 ], [ 112.565266, -7.916051 ], [ 112.565094, -7.915968 ], [ 112.564922, -7.915854 ], [ 112.564776, -7.915747 ], [ 112.564624, -7.915577 ], [ 112.564498, -7.91541 ], [ 112.564348, -7.91521 ], [ 112.564167, -7.914981 ], [ 112.563775, -7.914651 ], [ 112.563604, -7.914587 ], [ 112.563348, -7.914497 ], [ 112.56308, -7.914415 ], [ 112.562899, -7.914375 ], [ 112.562764, -7.914382 ], [ 112.562599, -7.914393 ], [ 112.562275, -7.914376 ], [ 112.562055, -7.914344 ], [ 112.561809, -7.914286 ], [ 112.56159, -7.914244 ], [ 112.561394, -7.9142 ], [ 112.561146, -7.914161 ], [ 112.560952, -7.914122 ], [ 112.560768, -7.914072 ], [ 112.560622, -7.913976 ], [ 112.56053, -7.913845 ], [ 112.560442, -7.913675 ], [ 112.560388, -7.91348 ], [ 112.560303, -7.913142 ], [ 112.560247, -7.912879 ], [ 112.560245, -7.912653 ], [ 112.560212, -7.912407 ], [ 112.560166, -7.91216 ], [ 112.560095, -7.911915 ], [ 112.560064, -7.911753 ], [ 112.560049, -7.911584 ], [ 112.559975, -7.911299 ], [ 112.559899, -7.911052 ], [ 112.559814, -7.910838 ], [ 112.55975, -7.910741 ], [ 112.559677, -7.91067 ], [ 112.559544, -7.910664 ], [ 112.559369, -7.910671 ], [ 112.559244, -7.910685 ], [ 112.559045, -7.910649 ], [ 112.558777, -7.910598 ], [ 112.558584, -7.910552 ], [ 112.558317, -7.91049 ], [ 112.55815, -7.910479 ], [ 112.557901, -7.910474 ], [ 112.557764, -7.910501 ], [ 112.55754, -7.91055 ], [ 112.557272, -7.910629 ], [ 112.556991, -7.910712 ], [ 112.556712, -7.910796 ], [ 112.556315, -7.910926 ], [ 112.556105, -7.911007 ], [ 112.555953, -7.911024 ], [ 112.555835, -7.911008 ], [ 112.555611, -7.910988 ], [ 112.555359, -7.910972 ], [ 112.555167, -7.910961 ], [ 112.554977, -7.910954 ], [ 112.554803, -7.911004 ], [ 112.554432, -7.911148 ], [ 112.554128, -7.911248 ], [ 112.55385, -7.911359 ], [ 112.553565, -7.911486 ], [ 112.552405, -7.911956 ], [ 112.551909, -7.912159 ], [ 112.551505, -7.912332 ], [ 112.5513, -7.91239 ], [ 112.550855, -7.912513 ], [ 112.550547, -7.912607 ], [ 112.550327, -7.912668 ], [ 112.549659, -7.912868 ], [ 112.549278, -7.913057 ], [ 112.549092, -7.913182 ], [ 112.549033, -7.913223 ], [ 112.548994, -7.913133 ], [ 112.548956, -7.913042 ], [ 112.54894, -7.91301 ], [ 112.548906, -7.913005 ], [ 112.548813, -7.913019 ], [ 112.548667, -7.913078 ], [ 112.548512, -7.913111 ], [ 112.548374, -7.913128 ], [ 112.548237, -7.913141 ], [ 112.548176, -7.913152 ], [ 112.548115, -7.913168 ], [ 112.548099, -7.9131 ], [ 112.548088, -7.913043 ], [ 112.548086, -7.913004 ], [ 112.54812, -7.913 ], [ 112.548146, -7.912998 ], [ 112.548167, -7.912993 ], [ 112.548182, -7.912991 ], [ 112.548201, -7.91299 ], [ 112.548217, -7.912988 ], [ 112.548233, -7.912987 ], [ 112.548246, -7.912986 ], [ 112.548254, -7.912985 ], [ 112.548273, -7.912983 ], [ 112.548286, -7.912982 ], [ 112.548297, -7.912981 ], [ 112.548313, -7.91298 ], [ 112.548324, -7.912979 ], [ 112.548337, -7.912974 ], [ 112.54835, -7.912973 ], [ 112.548366, -7.912972 ], [ 112.548374, -7.912968 ], [ 112.548385, -7.912967 ], [ 112.548401, -7.912966 ], [ 112.548412, -7.912966 ], [ 112.548425, -7.912961 ], [ 112.548439, -7.912961 ], [ 112.548455, -7.91296 ], [ 112.548461, -7.912959 ], [ 112.548558, -7.912942 ], [ 112.548682, -7.912927 ], [ 112.548849, -7.912914 ], [ 112.548905, -7.912909 ], [ 112.548973, -7.912862 ], [ 112.54897, -7.912912 ], [ 112.548985, -7.912999 ], [ 112.549003, -7.913073 ], [ 112.549034, -7.913137 ], [ 112.549046, -7.9132 ], [ 112.548885, -7.913301 ], [ 112.548556, -7.913492 ], [ 112.548379, -7.913589 ], [ 112.54821, -7.913687 ], [ 112.548051, -7.913759 ], [ 112.547883, -7.913797 ], [ 112.547709, -7.913831 ], [ 112.547547, -7.913843 ], [ 112.547355, -7.91387 ], [ 112.547176, -7.913909 ], [ 112.546956, -7.913993 ], [ 112.546801, -7.914051 ], [ 112.546694, -7.914098 ], [ 112.546463, -7.914193 ], [ 112.546268, -7.914275 ], [ 112.546106, -7.914348 ], [ 112.545975, -7.914402 ], [ 112.545811, -7.914477 ], [ 112.545572, -7.914582 ], [ 112.545458, -7.914624 ], [ 112.545218, -7.914723 ], [ 112.545132, -7.914755 ], [ 112.544756, -7.914895 ], [ 112.544408, -7.915042 ], [ 112.544217, -7.915122 ], [ 112.544032, -7.915194 ], [ 112.543811, -7.915294 ], [ 112.543676, -7.915343 ], [ 112.543574, -7.915366 ], [ 112.543348, -7.915435 ], [ 112.543138, -7.915478 ], [ 112.542948, -7.915521 ], [ 112.542778, -7.915554 ], [ 112.542669, -7.915576 ], [ 112.542283, -7.915669 ], [ 112.541775, -7.915794 ], [ 112.541497, -7.91586 ], [ 112.540958, -7.915985 ], [ 112.54077, -7.916035 ], [ 112.54058, -7.916086 ], [ 112.540486, -7.916108 ], [ 112.540377, -7.916133 ], [ 112.540265, -7.916156 ], [ 112.540142, -7.916186 ], [ 112.539801, -7.916261 ], [ 112.53957, -7.91632 ], [ 112.539437, -7.916366 ], [ 112.539359, -7.916379 ], [ 112.539234, -7.916382 ], [ 112.53907, -7.916342 ], [ 112.538948, -7.916281 ], [ 112.538873, -7.91616 ], [ 112.538794, -7.915991 ], [ 112.538698, -7.91575 ], [ 112.538632, -7.91552 ], [ 112.538563, -7.915354 ], [ 112.53842, -7.915205 ], [ 112.538201, -7.915143 ], [ 112.537939, -7.915144 ], [ 112.537665, -7.915172 ], [ 112.53757, -7.915186 ], [ 112.537522, -7.915187 ], [ 112.537476, -7.915187 ], [ 112.53743, -7.915163 ], [ 112.537387, -7.915093 ], [ 112.537348, -7.91496 ], [ 112.537322, -7.914788 ], [ 112.537315, -7.914651 ], [ 112.53733, -7.914539 ], [ 112.537422, -7.914422 ], [ 112.53753, -7.914329 ], [ 112.53767, -7.914224 ], [ 112.537897, -7.91407 ], [ 112.538071, -7.913961 ], [ 112.538223, -7.913873 ], [ 112.538277, -7.913764 ], [ 112.538276, -7.913737 ], [ 112.538282, -7.913714 ], [ 112.538285, -7.913691 ], [ 112.538291, -7.913662 ], [ 112.538294, -7.913644 ], [ 112.538292, -7.913616 ], [ 112.538291, -7.913593 ], [ 112.53829, -7.91357 ], [ 112.538289, -7.913541 ], [ 112.538287, -7.913512 ], [ 112.538282, -7.91349 ], [ 112.538276, -7.913467 ], [ 112.538271, -7.913449 ], [ 112.538262, -7.913417 ], [ 112.538249, -7.9134 ], [ 112.538235, -7.913382 ], [ 112.538222, -7.913364 ], [ 112.538212, -7.913339 ], [ 112.538195, -7.913328 ], [ 112.538181, -7.913303 ], [ 112.538168, -7.913285 ], [ 112.53815, -7.913268 ], [ 112.538132, -7.913251 ], [ 112.538118, -7.913231 ], [ 112.538104, -7.913219 ], [ 112.538082, -7.913201 ], [ 112.538033, -7.913141 ], [ 112.537965, -7.913084 ], [ 112.537906, -7.912977 ], [ 112.537852, -7.912859 ], [ 112.537835, -7.912715 ], [ 112.537835, -7.912679 ], [ 112.537835, -7.912658 ], [ 112.537834, -7.912652 ], [ 112.537833, -7.912613 ], [ 112.53784, -7.912562 ], [ 112.537875, -7.912476 ], [ 112.537908, -7.91243 ], [ 112.537912, -7.912422 ], [ 112.537924, -7.912404 ], [ 112.53793, -7.912395 ], [ 112.537941, -7.912381 ], [ 112.537949, -7.912367 ], [ 112.53796, -7.912355 ], [ 112.537966, -7.912343 ], [ 112.537974, -7.912331 ], [ 112.537985, -7.912316 ], [ 112.53799, -7.912312 ], [ 112.537999, -7.912302 ], [ 112.538033, -7.912284 ], [ 112.538122, -7.91225 ], [ 112.538258, -7.912212 ], [ 112.538362, -7.912182 ], [ 112.538535, -7.912135 ], [ 112.538775, -7.912082 ], [ 112.538979, -7.912043 ], [ 112.539118, -7.912017 ], [ 112.539224, -7.911984 ], [ 112.539302, -7.911904 ], [ 112.539339, -7.911812 ], [ 112.539352, -7.911741 ], [ 112.539345, -7.911652 ], [ 112.539318, -7.911611 ], [ 112.539254, -7.911553 ], [ 112.539154, -7.911476 ], [ 112.53907, -7.911414 ], [ 112.538974, -7.911367 ], [ 112.538868, -7.91129 ], [ 112.538781, -7.911189 ], [ 112.538676, -7.91108 ], [ 112.538605, -7.910993 ], [ 112.538519, -7.910874 ], [ 112.53842, -7.910755 ], [ 112.538323, -7.910652 ], [ 112.538238, -7.910562 ], [ 112.538153, -7.910475 ], [ 112.53805, -7.910359 ], [ 112.538031, -7.910327 ], [ 112.538005, -7.910274 ], [ 112.537996, -7.91021 ], [ 112.538004, -7.910136 ], [ 112.538058, -7.910011 ], [ 112.538155, -7.909859 ], [ 112.538286, -7.909669 ], [ 112.538421, -7.909411 ], [ 112.538475, -7.909169 ], [ 112.538491, -7.909003 ], [ 112.538503, -7.908835 ], [ 112.538508, -7.908726 ], [ 112.538504, -7.908633 ], [ 112.538467, -7.908544 ], [ 112.538386, -7.908427 ], [ 112.538277, -7.90831 ], [ 112.538168, -7.908225 ], [ 112.538108, -7.908118 ], [ 112.538058, -7.90804 ], [ 112.538003, -7.907877 ], [ 112.537975, -7.907778 ], [ 112.537911, -7.907647 ], [ 112.537849, -7.90756 ], [ 112.537754, -7.907489 ], [ 112.53761, -7.907423 ], [ 112.537526, -7.907378 ], [ 112.537452, -7.90733 ], [ 112.537416, -7.907261 ], [ 112.53735, -7.907111 ], [ 112.537219, -7.906829 ], [ 112.537098, -7.906601 ], [ 112.536941, -7.906318 ], [ 112.536841, -7.906189 ], [ 112.536777, -7.906052 ], [ 112.536705, -7.905868 ], [ 112.536709, -7.905654 ], [ 112.536702, -7.905347 ], [ 112.536677, -7.905219 ], [ 112.536592, -7.904991 ], [ 112.536474, -7.904735 ], [ 112.536408, -7.904568 ], [ 112.536315, -7.904265 ], [ 112.536272, -7.904006 ], [ 112.536269, -7.903658 ], [ 112.536349, -7.903356 ], [ 112.536426, -7.90301 ], [ 112.536485, -7.902493 ], [ 112.536517, -7.902207 ], [ 112.536496, -7.902108 ], [ 112.536421, -7.901917 ], [ 112.53633, -7.901765 ], [ 112.536222, -7.901638 ], [ 112.536072, -7.901497 ], [ 112.535898, -7.901319 ], [ 112.535738, -7.901206 ], [ 112.535548, -7.901084 ], [ 112.535369, -7.900958 ], [ 112.535217, -7.900911 ], [ 112.53505, -7.900849 ], [ 112.534904, -7.900815 ], [ 112.534753, -7.900791 ], [ 112.534644, -7.900768 ], [ 112.534533, -7.900767 ], [ 112.534449, -7.900779 ], [ 112.534369, -7.900774 ], [ 112.534307, -7.900769 ], [ 112.534245, -7.90076 ], [ 112.534222, -7.900742 ], [ 112.53421, -7.900728 ], [ 112.534199, -7.900713 ], [ 112.534189, -7.900703 ], [ 112.534179, -7.900671 ], [ 112.534168, -7.900636 ], [ 112.534167, -7.900595 ], [ 112.534179, -7.900532 ], [ 112.534212, -7.90048 ], [ 112.534273, -7.900434 ], [ 112.534349, -7.900383 ], [ 112.534448, -7.900319 ], [ 112.534584, -7.90024 ], [ 112.534747, -7.90014 ], [ 112.534883, -7.900048 ], [ 112.535008, -7.899976 ], [ 112.535022, -7.899967 ], [ 112.535037, -7.899955 ], [ 112.535096, -7.899912 ], [ 112.53515, -7.899861 ], [ 112.535164, -7.899818 ], [ 112.535182, -7.899772 ], [ 112.53518, -7.899738 ], [ 112.535172, -7.899694 ], [ 112.535148, -7.899653 ], [ 112.535126, -7.899622 ], [ 112.535092, -7.899569 ], [ 112.535059, -7.899519 ], [ 112.535037, -7.89948 ], [ 112.535017, -7.899447 ], [ 112.535, -7.899407 ], [ 112.534984, -7.899365 ], [ 112.53497, -7.899279 ], [ 112.534957, -7.899103 ], [ 112.534945, -7.898957 ], [ 112.534941, -7.898842 ], [ 112.534932, -7.898682 ], [ 112.534897, -7.898553 ], [ 112.534826, -7.898354 ], [ 112.534764, -7.898139 ], [ 112.534575, -7.897537 ], [ 112.534179, -7.89649 ], [ 112.533955, -7.895937 ], [ 112.533312, -7.894376 ], [ 112.533161, -7.894027 ], [ 112.53309, -7.893837 ], [ 112.533005, -7.893508 ], [ 112.532939, -7.893152 ], [ 112.532857, -7.892628 ], [ 112.532773, -7.892045 ], [ 112.532679, -7.891546 ], [ 112.532614, -7.891192 ], [ 112.53255, -7.891021 ], [ 112.53249, -7.89088 ], [ 112.532423, -7.890797 ], [ 112.5323, -7.890669 ], [ 112.53214, -7.890519 ], [ 112.531982, -7.890352 ], [ 112.53182, -7.890197 ], [ 112.531732, -7.890082 ], [ 112.531627, -7.889945 ], [ 112.531529, -7.889791 ], [ 112.531457, -7.889681 ], [ 112.53141, -7.889574 ], [ 112.53133, -7.889419 ], [ 112.531318, -7.889215 ], [ 112.531331, -7.889068 ], [ 112.531349, -7.888898 ], [ 112.531302, -7.888709 ], [ 112.531273, -7.888595 ], [ 112.531211, -7.888459 ], [ 112.531155, -7.888358 ], [ 112.530931, -7.888073 ], [ 112.530757, -7.887912 ], [ 112.530607, -7.887784 ], [ 112.530511, -7.887753 ], [ 112.530406, -7.887741 ], [ 112.530332, -7.887739 ], [ 112.53023, -7.887816 ], [ 112.53009, -7.88794 ], [ 112.529981, -7.88804 ], [ 112.529883, -7.888136 ], [ 112.529811, -7.888201 ], [ 112.529872, -7.888259 ], [ 112.52994, -7.888336 ], [ 112.530018, -7.888422 ], [ 112.53009, -7.888506 ], [ 112.530155, -7.888585 ], [ 112.530183, -7.888617 ], [ 112.530327, -7.888493 ], [ 112.530376, -7.888447 ], [ 112.530412, -7.888413 ], [ 112.530443, -7.888385 ], [ 112.530458, -7.888373 ], [ 112.5306, -7.888236 ], [ 112.53067, -7.888194 ], [ 112.530743, -7.888165 ], [ 112.530928, -7.888342 ], [ 112.531084, -7.888534 ], [ 112.531124, -7.888727 ], [ 112.531131, -7.888907 ], [ 112.531102, -7.889032 ], [ 112.531057, -7.889176 ], [ 112.530996, -7.889272 ], [ 112.530894, -7.889358 ], [ 112.530782, -7.889389 ], [ 112.530709, -7.889399 ], [ 112.530652, -7.889432 ], [ 112.530554, -7.889487 ], [ 112.530472, -7.889504 ], [ 112.530366, -7.889509 ], [ 112.530265, -7.889508 ], [ 112.530233, -7.889501 ], [ 112.530251, -7.889356 ], [ 112.530275, -7.889162 ], [ 112.530292, -7.889036 ], [ 112.530296, -7.888986 ], [ 112.530296, -7.888969 ], [ 112.530293, -7.888901 ], [ 112.530294, -7.888867 ], [ 112.530286, -7.888794 ], [ 112.530253, -7.888731 ], [ 112.530228, -7.888663 ], [ 112.53018, -7.888582 ], [ 112.530126, -7.888516 ], [ 112.530045, -7.888428 ], [ 112.529963, -7.888323 ], [ 112.529867, -7.888197 ], [ 112.529896, -7.888184 ], [ 112.53001, -7.888069 ], [ 112.530133, -7.887964 ], [ 112.530271, -7.88784 ], [ 112.530387, -7.887778 ], [ 112.530508, -7.887776 ], [ 112.530541, -7.88777 ], [ 112.530536, -7.887746 ], [ 112.530529, -7.887702 ], [ 112.530472, -7.887644 ], [ 112.530341, -7.887525 ], [ 112.530236, -7.887399 ], [ 112.53016, -7.887237 ], [ 112.530155, -7.887127 ], [ 112.530228, -7.886866 ], [ 112.530335, -7.88656 ], [ 112.530358, -7.886267 ], [ 112.530283, -7.886049 ], [ 112.530198, -7.885903 ], [ 112.530061, -7.885755 ], [ 112.529757, -7.885228 ], [ 112.529553, -7.884943 ], [ 112.529463, -7.884761 ], [ 112.529369, -7.884617 ], [ 112.529202, -7.884456 ], [ 112.529055, -7.884345 ], [ 112.528943, -7.88427 ], [ 112.528843, -7.884167 ], [ 112.528805, -7.884057 ], [ 112.528806, -7.884021 ], [ 112.528812, -7.883983 ], [ 112.528816, -7.883936 ], [ 112.528827, -7.883915 ], [ 112.528846, -7.8839 ], [ 112.528861, -7.883868 ], [ 112.528879, -7.883847 ], [ 112.528899, -7.883815 ], [ 112.528916, -7.883791 ], [ 112.528935, -7.883775 ], [ 112.528953, -7.88375 ], [ 112.528974, -7.883743 ], [ 112.528991, -7.883718 ], [ 112.52907, -7.883652 ], [ 112.529275, -7.883504 ], [ 112.529437, -7.88335 ], [ 112.52951, -7.883165 ], [ 112.52959, -7.882792 ], [ 112.529601, -7.882151 ], [ 112.529536, -7.88166 ], [ 112.529455, -7.881274 ], [ 112.529296, -7.880921 ], [ 112.529246, -7.880862 ], [ 112.529221, -7.880838 ], [ 112.529481, -7.880737 ], [ 112.53005, -7.880571 ], [ 112.530957, -7.880271 ], [ 112.532245, -7.879835 ], [ 112.532835, -7.879629 ], [ 112.532999, -7.879575 ], [ 112.534359, -7.879238 ], [ 112.53452, -7.879184 ], [ 112.534628, -7.879161 ], [ 112.53491, -7.879447 ], [ 112.535196, -7.879707 ], [ 112.5354, -7.879896 ], [ 112.535607, -7.880109 ], [ 112.535895, -7.880396 ], [ 112.536135, -7.880593 ], [ 112.536399, -7.88081 ], [ 112.536563, -7.880936 ], [ 112.536603, -7.880966 ], [ 112.536742, -7.881076 ], [ 112.537047, -7.881309 ], [ 112.537055, -7.881381 ], [ 112.536947, -7.881459 ], [ 112.536686, -7.881565 ], [ 112.536236, -7.88171 ], [ 112.535789, -7.881831 ], [ 112.535491, -7.881914 ], [ 112.535129, -7.881998 ], [ 112.534902, -7.882044 ], [ 112.534746, -7.882065 ], [ 112.534659, -7.882056 ], [ 112.534444, -7.881983 ], [ 112.534074, -7.881876 ], [ 112.533662, -7.881769 ], [ 112.533395, -7.881707 ], [ 112.533148, -7.88171 ], [ 112.533059, -7.881735 ], [ 112.53288, -7.881801 ], [ 112.532719, -7.881896 ], [ 112.532657, -7.881986 ], [ 112.532619, -7.882046 ], [ 112.532593, -7.882108 ], [ 112.532638, -7.882169 ], [ 112.532691, -7.882254 ], [ 112.532747, -7.882374 ], [ 112.53277, -7.882497 ] ] } }
]
}
