{
"type": "FeatureCollection",
"name": "JALUR_K1_BATU-HAMIDRUSDI_1",
"features": [
{ "type": "Feature", "properties": { "Name": "Batu-Hamid Rusdi", "description": null, "timestamp": null, "begin": null, "end": null, "altitudeMode": null, "tessellate": 1, "extrude": 0, "visibility": -1, "drawOrder": null, "icon": null }, "geometry": { "type": "LineString", "coordinates": [ [ 112.5327, -7.882275 ], [ 112.532747, -7.882374 ], [ 112.53277, -7.882497 ], [ 112.532587, -7.88254 ], [ 112.532426, -7.882581 ], [ 112.532346, -7.882609 ], [ 112.532209, -7.882662 ], [ 112.53162, -7.882823 ], [ 112.531135, -7.882944 ], [ 112.531036, -7.882972 ], [ 112.530871, -7.882991 ], [ 112.530273, -7.883035 ], [ 112.529665, -7.883056 ], [ 112.529625, -7.883059 ], [ 112.529603, -7.88306 ], [ 112.529576, -7.883148 ], [ 112.529528, -7.883244 ], [ 112.52947, -7.883358 ], [ 112.529381, -7.88347 ], [ 112.529326, -7.883525 ], [ 112.529133, -7.883672 ], [ 112.529014, -7.883773 ], [ 112.528912, -7.883875 ], [ 112.528869, -7.883965 ], [ 112.528857, -7.884041 ], [ 112.528866, -7.884087 ], [ 112.528886, -7.884132 ], [ 112.528936, -7.884201 ], [ 112.529003, -7.884262 ], [ 112.52909, -7.884323 ], [ 112.529211, -7.884407 ], [ 112.529406, -7.884604 ], [ 112.529512, -7.884746 ], [ 112.529595, -7.884878 ], [ 112.52968, -7.885022 ], [ 112.529892, -7.885343 ], [ 112.530001, -7.885534 ], [ 112.530084, -7.885687 ], [ 112.530117, -7.885737 ], [ 112.530152, -7.885778 ], [ 112.530199, -7.885847 ], [ 112.530242, -7.8859 ], [ 112.530287, -7.885965 ], [ 112.530308, -7.885993 ], [ 112.53036, -7.886054 ], [ 112.53041, -7.88612 ], [ 112.530439, -7.886175 ], [ 112.530497, -7.886287 ], [ 112.530519, -7.886438 ], [ 112.530515, -7.886519 ], [ 112.530484, -7.886619 ], [ 112.530435, -7.886729 ], [ 112.530319, -7.886992 ], [ 112.530293, -7.887111 ], [ 112.530288, -7.887192 ], [ 112.530306, -7.887268 ], [ 112.53036, -7.887343 ], [ 112.530467, -7.887475 ], [ 112.530673, -7.887667 ], [ 112.530738, -7.887724 ], [ 112.531054, -7.888054 ], [ 112.531203, -7.888211 ], [ 112.531335, -7.888388 ], [ 112.531373, -7.888517 ], [ 112.531384, -7.88872 ], [ 112.531377, -7.888842 ], [ 112.531362, -7.888941 ], [ 112.531355, -7.88906 ], [ 112.531337, -7.889159 ], [ 112.531333, -7.889213 ], [ 112.531347, -7.889403 ], [ 112.531453, -7.889613 ], [ 112.531479, -7.889665 ], [ 112.531509, -7.889712 ], [ 112.531825, -7.890155 ], [ 112.531976, -7.890309 ], [ 112.532132, -7.89046 ], [ 112.532314, -7.890636 ], [ 112.532428, -7.890752 ], [ 112.532512, -7.890881 ], [ 112.53258, -7.891005 ], [ 112.532617, -7.891092 ], [ 112.532668, -7.891268 ], [ 112.53273, -7.891563 ], [ 112.532778, -7.891807 ], [ 112.532825, -7.89206 ], [ 112.532853, -7.892264 ], [ 112.533048, -7.893454 ], [ 112.533088, -7.893645 ], [ 112.533121, -7.89376 ], [ 112.533179, -7.893924 ], [ 112.533454, -7.894645 ], [ 112.533483, -7.894717 ], [ 112.53381, -7.895512 ], [ 112.533985, -7.895927 ], [ 112.534107, -7.896229 ], [ 112.534538, -7.897367 ], [ 112.534629, -7.897621 ], [ 112.534866, -7.898375 ], [ 112.53495, -7.898596 ], [ 112.534974, -7.898713 ], [ 112.534988, -7.898861 ], [ 112.535002, -7.899116 ], [ 112.535002, -7.899261 ], [ 112.535017, -7.899356 ], [ 112.535032, -7.899401 ], [ 112.535076, -7.899475 ], [ 112.535135, -7.899563 ], [ 112.535196, -7.899688 ], [ 112.535203, -7.899757 ], [ 112.535184, -7.899835 ], [ 112.53515, -7.899898 ], [ 112.535076, -7.899957 ], [ 112.534908, -7.900068 ], [ 112.534696, -7.900213 ], [ 112.534371, -7.900411 ], [ 112.534289, -7.900467 ], [ 112.534208, -7.900579 ], [ 112.534222, -7.900682 ], [ 112.534276, -7.900718 ], [ 112.53443, -7.900731 ], [ 112.534598, -7.900734 ], [ 112.534778, -7.900745 ], [ 112.534966, -7.900788 ], [ 112.535161, -7.90083 ], [ 112.535396, -7.900914 ], [ 112.535507, -7.900998 ], [ 112.535612, -7.901066 ], [ 112.535979, -7.901334 ], [ 112.536217, -7.90157 ], [ 112.536348, -7.901734 ], [ 112.536419, -7.901833 ], [ 112.536515, -7.902044 ], [ 112.536562, -7.902221 ], [ 112.536542, -7.902427 ], [ 112.536498, -7.902702 ], [ 112.536422, -7.903174 ], [ 112.536307, -7.903654 ], [ 112.536309, -7.904033 ], [ 112.536356, -7.904284 ], [ 112.536434, -7.904546 ], [ 112.536547, -7.904818 ], [ 112.536666, -7.905079 ], [ 112.536736, -7.905309 ], [ 112.536739, -7.905629 ], [ 112.536749, -7.905844 ], [ 112.536778, -7.905983 ], [ 112.536823, -7.90608 ], [ 112.536882, -7.906177 ], [ 112.536978, -7.906306 ], [ 112.537054, -7.90646 ], [ 112.537163, -7.906642 ], [ 112.53732, -7.906983 ], [ 112.537382, -7.907114 ], [ 112.537462, -7.907279 ], [ 112.537504, -7.907328 ], [ 112.537591, -7.907368 ], [ 112.537744, -7.907459 ], [ 112.537821, -7.907506 ], [ 112.537899, -7.907575 ], [ 112.53799, -7.907717 ], [ 112.538014, -7.907785 ], [ 112.538082, -7.908003 ], [ 112.538154, -7.908119 ], [ 112.538232, -7.908223 ], [ 112.538279, -7.908276 ], [ 112.538402, -7.908399 ], [ 112.538481, -7.908506 ], [ 112.538526, -7.908633 ], [ 112.538545, -7.908762 ], [ 112.538518, -7.909028 ], [ 112.538461, -7.90939 ], [ 112.53845, -7.909429 ], [ 112.538298, -7.909704 ], [ 112.538052, -7.910102 ], [ 112.538031, -7.910165 ], [ 112.538032, -7.910236 ], [ 112.538062, -7.910309 ], [ 112.538104, -7.910383 ], [ 112.53813, -7.910406 ], [ 112.538171, -7.910456 ], [ 112.538299, -7.910575 ], [ 112.538361, -7.910643 ], [ 112.538452, -7.910745 ], [ 112.538558, -7.910881 ], [ 112.538636, -7.910987 ], [ 112.538728, -7.911102 ], [ 112.538808, -7.911188 ], [ 112.538869, -7.911249 ], [ 112.53893, -7.91131 ], [ 112.538991, -7.911339 ], [ 112.539091, -7.911399 ], [ 112.539206, -7.911484 ], [ 112.539308, -7.911564 ], [ 112.539346, -7.911609 ], [ 112.539364, -7.911648 ], [ 112.539376, -7.911714 ], [ 112.539361, -7.911783 ], [ 112.539343, -7.911867 ], [ 112.539292, -7.911967 ], [ 112.539288, -7.911972 ], [ 112.539277, -7.911985 ], [ 112.539262, -7.911995 ], [ 112.539251, -7.912001 ], [ 112.539238, -7.912004 ], [ 112.539227, -7.912009 ], [ 112.539214, -7.912016 ], [ 112.539203, -7.912021 ], [ 112.539192, -7.912027 ], [ 112.539178, -7.912033 ], [ 112.539163, -7.912037 ], [ 112.539148, -7.912041 ], [ 112.539132, -7.912045 ], [ 112.53912, -7.912048 ], [ 112.53911, -7.912049 ], [ 112.539095, -7.912054 ], [ 112.539083, -7.912056 ], [ 112.53907, -7.912059 ], [ 112.539059, -7.912064 ], [ 112.538805, -7.912107 ], [ 112.538529, -7.912172 ], [ 112.538296, -7.912234 ], [ 112.538166, -7.912265 ], [ 112.538097, -7.912288 ], [ 112.538035, -7.912322 ], [ 112.537987, -7.912374 ], [ 112.537951, -7.912427 ], [ 112.537909, -7.9125 ], [ 112.53788, -7.912591 ], [ 112.537869, -7.912688 ], [ 112.537874, -7.9128 ], [ 112.537896, -7.912876 ], [ 112.537921, -7.912956 ], [ 112.53793, -7.912972 ], [ 112.537939, -7.912988 ], [ 112.537948, -7.913004 ], [ 112.537956, -7.913017 ], [ 112.537961, -7.913025 ], [ 112.537973, -7.913039 ], [ 112.537984, -7.913047 ], [ 112.537991, -7.913058 ], [ 112.537999, -7.913067 ], [ 112.538012, -7.913077 ], [ 112.538022, -7.913089 ], [ 112.538034, -7.913097 ], [ 112.538043, -7.913106 ], [ 112.538052, -7.913115 ], [ 112.53806, -7.913124 ], [ 112.538072, -7.913132 ], [ 112.538084, -7.91314 ], [ 112.538092, -7.913149 ], [ 112.5381, -7.913155 ], [ 112.53811, -7.913166 ], [ 112.538119, -7.913175 ], [ 112.538128, -7.913184 ], [ 112.538141, -7.913194 ], [ 112.53815, -7.913203 ], [ 112.538161, -7.913211 ], [ 112.538174, -7.913221 ], [ 112.538187, -7.91323 ], [ 112.538199, -7.913238 ], [ 112.538212, -7.913248 ], [ 112.538221, -7.913256 ], [ 112.538239, -7.91329 ], [ 112.538248, -7.913307 ], [ 112.538256, -7.913321 ], [ 112.538268, -7.91333 ], [ 112.538274, -7.913341 ], [ 112.538282, -7.913355 ], [ 112.53829, -7.91337 ], [ 112.538296, -7.913381 ], [ 112.538304, -7.913395 ], [ 112.53831, -7.913406 ], [ 112.538316, -7.913418 ], [ 112.538318, -7.913435 ], [ 112.538326, -7.913449 ], [ 112.538326, -7.913463 ], [ 112.538327, -7.913477 ], [ 112.53833, -7.91349 ], [ 112.538333, -7.913502 ], [ 112.538333, -7.913516 ], [ 112.538332, -7.913527 ], [ 112.538337, -7.913543 ], [ 112.53834, -7.913555 ], [ 112.538339, -7.913574 ], [ 112.538341, -7.91359 ], [ 112.538338, -7.913606 ], [ 112.538342, -7.913618 ], [ 112.538339, -7.913634 ], [ 112.538339, -7.913647 ], [ 112.538341, -7.913657 ], [ 112.53834, -7.913675 ], [ 112.53834, -7.913689 ], [ 112.538338, -7.913704 ], [ 112.538335, -7.913713 ], [ 112.538336, -7.913733 ], [ 112.538333, -7.913748 ], [ 112.538328, -7.913765 ], [ 112.538322, -7.913775 ], [ 112.538318, -7.913787 ], [ 112.538314, -7.9138 ], [ 112.538307, -7.913813 ], [ 112.538299, -7.913824 ], [ 112.538291, -7.913835 ], [ 112.538282, -7.913846 ], [ 112.538274, -7.913857 ], [ 112.538264, -7.913873 ], [ 112.538255, -7.913881 ], [ 112.538246, -7.913892 ], [ 112.538238, -7.913903 ], [ 112.538228, -7.913911 ], [ 112.53822, -7.913922 ], [ 112.53821, -7.91393 ], [ 112.538194, -7.913939 ], [ 112.538184, -7.913947 ], [ 112.538173, -7.913952 ], [ 112.538156, -7.913961 ], [ 112.538144, -7.913966 ], [ 112.538135, -7.913975 ], [ 112.538125, -7.913983 ], [ 112.538111, -7.91399 ], [ 112.538101, -7.913998 ], [ 112.538085, -7.914006 ], [ 112.538071, -7.914013 ], [ 112.538054, -7.914021 ], [ 112.538046, -7.914025 ], [ 112.537769, -7.914188 ], [ 112.537527, -7.914364 ], [ 112.53745, -7.914443 ], [ 112.537396, -7.91451 ], [ 112.537353, -7.914584 ], [ 112.537348, -7.914638 ], [ 112.537357, -7.914739 ], [ 112.537368, -7.914852 ], [ 112.537382, -7.914962 ], [ 112.537408, -7.915076 ], [ 112.537447, -7.915135 ], [ 112.537493, -7.915161 ], [ 112.537541, -7.915169 ], [ 112.537616, -7.915163 ], [ 112.537742, -7.915144 ], [ 112.537908, -7.915129 ], [ 112.538108, -7.91512 ], [ 112.538297, -7.915132 ], [ 112.538421, -7.91518 ], [ 112.538526, -7.915274 ], [ 112.538595, -7.915365 ], [ 112.53864, -7.915463 ], [ 112.538772, -7.915831 ], [ 112.538856, -7.916054 ], [ 112.538908, -7.916157 ], [ 112.538976, -7.916242 ], [ 112.539068, -7.916305 ], [ 112.539194, -7.916348 ], [ 112.539317, -7.916351 ], [ 112.539456, -7.916331 ], [ 112.539774, -7.916247 ], [ 112.540085, -7.916178 ], [ 112.540273, -7.916129 ], [ 112.542765, -7.915537 ], [ 112.543098, -7.915458 ], [ 112.543394, -7.915383 ], [ 112.543649, -7.915309 ], [ 112.543844, -7.91524 ], [ 112.544105, -7.915133 ], [ 112.54536, -7.914618 ], [ 112.546099, -7.914309 ], [ 112.547094, -7.913902 ], [ 112.547196, -7.913873 ], [ 112.547368, -7.913835 ], [ 112.547575, -7.913822 ], [ 112.547753, -7.913802 ], [ 112.547951, -7.91376 ], [ 112.548041, -7.913738 ], [ 112.548152, -7.913688 ], [ 112.54844, -7.913531 ], [ 112.548949, -7.913217 ], [ 112.549004, -7.913181 ], [ 112.549023, -7.913172 ], [ 112.548996, -7.913103 ], [ 112.548963, -7.91303 ], [ 112.548937, -7.913001 ], [ 112.548903, -7.912997 ], [ 112.548795, -7.913018 ], [ 112.548728, -7.913047 ], [ 112.548656, -7.913067 ], [ 112.548424, -7.913113 ], [ 112.548144, -7.913156 ], [ 112.548123, -7.913148 ], [ 112.548101, -7.913019 ], [ 112.548213, -7.913 ], [ 112.548438, -7.912974 ], [ 112.548861, -7.912924 ], [ 112.548977, -7.912812 ], [ 112.549023, -7.912784 ], [ 112.549044, -7.91285 ], [ 112.549043, -7.912917 ], [ 112.549037, -7.912982 ], [ 112.54904, -7.913041 ], [ 112.549047, -7.913078 ], [ 112.549064, -7.913143 ], [ 112.549423, -7.912925 ], [ 112.549757, -7.912798 ], [ 112.550656, -7.912538 ], [ 112.550848, -7.912482 ], [ 112.551403, -7.912325 ], [ 112.55179, -7.912178 ], [ 112.552826, -7.911758 ], [ 112.554325, -7.911158 ], [ 112.554434, -7.911131 ], [ 112.554601, -7.911069 ], [ 112.554766, -7.911004 ], [ 112.554957, -7.910944 ], [ 112.555106, -7.910939 ], [ 112.555237, -7.910944 ], [ 112.555715, -7.910961 ], [ 112.555908, -7.910964 ], [ 112.555972, -7.910968 ], [ 112.556047, -7.910962 ], [ 112.556458, -7.910845 ], [ 112.557558, -7.910505 ], [ 112.557891, -7.910431 ], [ 112.55817, -7.910439 ], [ 112.558356, -7.91047 ], [ 112.558434, -7.910482 ], [ 112.559022, -7.910616 ], [ 112.559195, -7.910643 ], [ 112.55934, -7.910654 ], [ 112.559502, -7.910635 ], [ 112.559615, -7.91063 ], [ 112.559707, -7.910652 ], [ 112.559806, -7.910764 ], [ 112.559877, -7.91091 ], [ 112.55993, -7.911038 ], [ 112.560051, -7.911411 ], [ 112.560098, -7.911612 ], [ 112.560111, -7.91177 ], [ 112.560164, -7.912006 ], [ 112.560201, -7.912154 ], [ 112.560261, -7.912516 ], [ 112.560281, -7.912669 ], [ 112.560282, -7.912763 ], [ 112.560282, -7.912853 ], [ 112.560296, -7.912956 ], [ 112.560354, -7.913204 ], [ 112.56043, -7.913501 ], [ 112.560478, -7.913661 ], [ 112.560631, -7.913931 ], [ 112.560716, -7.913992 ], [ 112.560907, -7.914077 ], [ 112.561303, -7.914153 ], [ 112.562032, -7.914298 ], [ 112.562489, -7.914352 ], [ 112.562965, -7.914351 ], [ 112.563128, -7.914391 ], [ 112.563696, -7.914579 ], [ 112.563787, -7.91463 ], [ 112.564012, -7.914824 ], [ 112.564221, -7.914993 ], [ 112.564349, -7.915136 ], [ 112.564472, -7.91531 ], [ 112.56463, -7.915538 ], [ 112.564807, -7.91572 ], [ 112.565072, -7.915909 ], [ 112.565339, -7.916043 ], [ 112.565782, -7.916204 ], [ 112.565905, -7.916229 ], [ 112.566061, -7.916251 ], [ 112.566355, -7.916256 ], [ 112.566726, -7.916284 ], [ 112.566892, -7.916326 ], [ 112.56708, -7.916398 ], [ 112.567228, -7.916485 ], [ 112.567294, -7.916531 ], [ 112.567375, -7.916662 ], [ 112.567472, -7.916872 ], [ 112.567557, -7.917157 ], [ 112.567596, -7.917358 ], [ 112.567601, -7.917499 ], [ 112.567547, -7.917696 ], [ 112.567471, -7.917919 ], [ 112.567408, -7.918028 ], [ 112.567394, -7.918047 ], [ 112.567382, -7.918055 ], [ 112.567365, -7.918075 ], [ 112.567352, -7.918086 ], [ 112.567345, -7.918092 ], [ 112.567338, -7.918098 ], [ 112.567326, -7.918106 ], [ 112.567308, -7.918116 ], [ 112.567298, -7.91812 ], [ 112.567284, -7.918125 ], [ 112.567273, -7.918129 ], [ 112.567263, -7.918133 ], [ 112.567252, -7.918137 ], [ 112.567236, -7.918143 ], [ 112.567223, -7.918148 ], [ 112.567208, -7.918151 ], [ 112.567194, -7.918154 ], [ 112.567181, -7.918153 ], [ 112.567173, -7.918156 ], [ 112.567158, -7.918156 ], [ 112.567146, -7.918158 ], [ 112.567134, -7.918159 ], [ 112.567123, -7.918161 ], [ 112.567111, -7.918163 ], [ 112.5671, -7.918167 ], [ 112.567083, -7.918165 ], [ 112.567069, -7.918167 ], [ 112.567061, -7.918171 ], [ 112.567048, -7.918169 ], [ 112.567033, -7.918172 ], [ 112.567024, -7.918173 ], [ 112.567009, -7.918175 ], [ 112.567, -7.918176 ], [ 112.566784, -7.918177 ], [ 112.566614, -7.918175 ], [ 112.566494, -7.918173 ], [ 112.566427, -7.918186 ], [ 112.566413, -7.918192 ], [ 112.566397, -7.918199 ], [ 112.566384, -7.918204 ], [ 112.566378, -7.918211 ], [ 112.566366, -7.918219 ], [ 112.566359, -7.91823 ], [ 112.566351, -7.91824 ], [ 112.566344, -7.91825 ], [ 112.566336, -7.918264 ], [ 112.566334, -7.918272 ], [ 112.566325, -7.918286 ], [ 112.566319, -7.918298 ], [ 112.566313, -7.918311 ], [ 112.566308, -7.91832 ], [ 112.566303, -7.918335 ], [ 112.566298, -7.918349 ], [ 112.566291, -7.918359 ], [ 112.566288, -7.918371 ], [ 112.566284, -7.918386 ], [ 112.566284, -7.918396 ], [ 112.566282, -7.918414 ], [ 112.566284, -7.918427 ], [ 112.566283, -7.918441 ], [ 112.566284, -7.918454 ], [ 112.566285, -7.91847 ], [ 112.566283, -7.918482 ], [ 112.566281, -7.918495 ], [ 112.566279, -7.918506 ], [ 112.566278, -7.918516 ], [ 112.566278, -7.918526 ], [ 112.566278, -7.918542 ], [ 112.56628, -7.918556 ], [ 112.566283, -7.918567 ], [ 112.566286, -7.918582 ], [ 112.566289, -7.918593 ], [ 112.566292, -7.918604 ], [ 112.566291, -7.918617 ], [ 112.566295, -7.91863 ], [ 112.566297, -7.918639 ], [ 112.566397, -7.919267 ], [ 112.566344, -7.920193 ], [ 112.566308, -7.920499 ], [ 112.566291, -7.920666 ], [ 112.56628, -7.920756 ], [ 112.566284, -7.920828 ], [ 112.56633, -7.920865 ], [ 112.566495, -7.920914 ], [ 112.566909, -7.920991 ], [ 112.568229, -7.921226 ], [ 112.568768, -7.921383 ], [ 112.570153, -7.921734 ], [ 112.570543, -7.921823 ], [ 112.570666, -7.92185 ], [ 112.570867, -7.921872 ], [ 112.571199, -7.921901 ], [ 112.571597, -7.921932 ], [ 112.572839, -7.922021 ], [ 112.573787, -7.922139 ], [ 112.574087, -7.92218 ], [ 112.574827, -7.922332 ], [ 112.575396, -7.922452 ], [ 112.575549, -7.922511 ], [ 112.575683, -7.922589 ], [ 112.575948, -7.922751 ], [ 112.576393, -7.923063 ], [ 112.577545, -7.923721 ], [ 112.577677, -7.923763 ], [ 112.577758, -7.923781 ], [ 112.577839, -7.923776 ], [ 112.577927, -7.923759 ], [ 112.578161, -7.923677 ], [ 112.578445, -7.923559 ], [ 112.578734, -7.923473 ], [ 112.57902, -7.923438 ], [ 112.579636, -7.923358 ], [ 112.580727, -7.923207 ], [ 112.58095, -7.923136 ], [ 112.58109, -7.923089 ], [ 112.581131, -7.923063 ], [ 112.581147, -7.923052 ], [ 112.581163, -7.923038 ], [ 112.581169, -7.923019 ], [ 112.581178, -7.923007 ], [ 112.581188, -7.922987 ], [ 112.581193, -7.922961 ], [ 112.581198, -7.922947 ], [ 112.5812, -7.922926 ], [ 112.581205, -7.922912 ], [ 112.581205, -7.922896 ], [ 112.581207, -7.922875 ], [ 112.581209, -7.922854 ], [ 112.58121, -7.922837 ], [ 112.581254, -7.922587 ], [ 112.581309, -7.922221 ], [ 112.581396, -7.921868 ], [ 112.581505, -7.921461 ], [ 112.581592, -7.921196 ], [ 112.581672, -7.920903 ], [ 112.581693, -7.920751 ], [ 112.581698, -7.920715 ], [ 112.581754, -7.920373 ], [ 112.581767, -7.92025 ], [ 112.581781, -7.920106 ], [ 112.581793, -7.919989 ], [ 112.581825, -7.919926 ], [ 112.582003, -7.919473 ], [ 112.582135, -7.919078 ], [ 112.582387, -7.918173 ], [ 112.58251, -7.917764 ], [ 112.582753, -7.917155 ], [ 112.582898, -7.916822 ], [ 112.583241, -7.915959 ], [ 112.583554, -7.915369 ], [ 112.584093, -7.914329 ], [ 112.584608, -7.913412 ], [ 112.584705, -7.913265 ], [ 112.585235, -7.913841 ], [ 112.585398, -7.914023 ], [ 112.586615, -7.915298 ], [ 112.586857, -7.915539 ], [ 112.587804, -7.916479 ], [ 112.58893, -7.917512 ], [ 112.589131, -7.9177 ], [ 112.589311, -7.917857 ], [ 112.589503, -7.917992 ], [ 112.589665, -7.918095 ], [ 112.590078, -7.918334 ], [ 112.59066, -7.918671 ], [ 112.590759, -7.918721 ], [ 112.590872, -7.918772 ], [ 112.592025, -7.919194 ], [ 112.592259, -7.919291 ], [ 112.592594, -7.919435 ], [ 112.592812, -7.919539 ], [ 112.593064, -7.919674 ], [ 112.593374, -7.919838 ], [ 112.593749, -7.920083 ], [ 112.593997, -7.920245 ], [ 112.594322, -7.920472 ], [ 112.594663, -7.920761 ], [ 112.594873, -7.920938 ], [ 112.595889, -7.921886 ], [ 112.596279, -7.922334 ], [ 112.596753, -7.922797 ], [ 112.596879, -7.922925 ], [ 112.596934, -7.922972 ], [ 112.597157, -7.923085 ], [ 112.597997, -7.923544 ], [ 112.598999, -7.924134 ], [ 112.598867, -7.924313 ], [ 112.598735, -7.924511 ], [ 112.598593, -7.924694 ], [ 112.598435, -7.924928 ], [ 112.598374, -7.925032 ], [ 112.598363, -7.925044 ], [ 112.598333, -7.925027 ], [ 112.598267, -7.924981 ], [ 112.59812, -7.924858 ], [ 112.597825, -7.924623 ], [ 112.597979, -7.924398 ], [ 112.598004, -7.924374 ], [ 112.598275, -7.924553 ], [ 112.59846, -7.92466 ], [ 112.598479, -7.924653 ], [ 112.598506, -7.924632 ], [ 112.598734, -7.924317 ], [ 112.598842, -7.924117 ], [ 112.59887, -7.92406 ], [ 112.599026, -7.92415 ], [ 112.599275, -7.924301 ], [ 112.599915, -7.924755 ], [ 112.600765, -7.925495 ], [ 112.600943, -7.925635 ], [ 112.601104, -7.925796 ], [ 112.601333, -7.925999 ], [ 112.601645, -7.926294 ], [ 112.602161, -7.926785 ], [ 112.602287, -7.926908 ], [ 112.602689, -7.927335 ], [ 112.602759, -7.92744 ], [ 112.602824, -7.927572 ], [ 112.602911, -7.927825 ], [ 112.602935, -7.927947 ], [ 112.602956, -7.928021 ], [ 112.602982, -7.928167 ], [ 112.602999, -7.928307 ], [ 112.603005, -7.928435 ], [ 112.603012, -7.928595 ], [ 112.603005, -7.92878 ], [ 112.603005, -7.928977 ], [ 112.602981, -7.929259 ], [ 112.602956, -7.929471 ], [ 112.602931, -7.929667 ], [ 112.602887, -7.929953 ], [ 112.602714, -7.931274 ], [ 112.602682, -7.931618 ], [ 112.602675, -7.931683 ], [ 112.60267, -7.931756 ], [ 112.602678, -7.931848 ], [ 112.602704, -7.93195 ], [ 112.602784, -7.93215 ], [ 112.602968, -7.932448 ], [ 112.603208, -7.9328 ], [ 112.603858, -7.933773 ], [ 112.604677, -7.934983 ], [ 112.605491, -7.936142 ], [ 112.605716, -7.936467 ], [ 112.606788, -7.938069 ], [ 112.606938, -7.93828 ], [ 112.607456, -7.939047 ], [ 112.607634, -7.939307 ], [ 112.607844, -7.939572 ], [ 112.608466, -7.940431 ], [ 112.608653, -7.940671 ], [ 112.609409, -7.9418 ], [ 112.609477, -7.941892 ], [ 112.610281, -7.943067 ], [ 112.610332, -7.943139 ], [ 112.610211, -7.943398 ], [ 112.609793, -7.9445 ], [ 112.6096, -7.94515 ], [ 112.609245, -7.94613 ], [ 112.609074, -7.946537 ], [ 112.60895, -7.946849 ], [ 112.608907, -7.947001 ], [ 112.608905, -7.947042 ], [ 112.608829, -7.947506 ], [ 112.608803, -7.947839 ], [ 112.608816, -7.948161 ], [ 112.608836, -7.948321 ], [ 112.608899, -7.94991 ], [ 112.608906, -7.950197 ], [ 112.608937, -7.950693 ], [ 112.608948, -7.950844 ], [ 112.608966, -7.951048 ], [ 112.60901, -7.951317 ], [ 112.609039, -7.951463 ], [ 112.609086, -7.951621 ], [ 112.609157, -7.951905 ], [ 112.609251, -7.952138 ], [ 112.609474, -7.952488 ], [ 112.609704, -7.952761 ], [ 112.610075, -7.953233 ], [ 112.610313, -7.953513 ], [ 112.610366, -7.953588 ], [ 112.610425, -7.953728 ], [ 112.61049, -7.953859 ], [ 112.610577, -7.954089 ], [ 112.610618, -7.954188 ], [ 112.610656, -7.95427 ], [ 112.610737, -7.954376 ], [ 112.610887, -7.954568 ], [ 112.611283, -7.955068 ], [ 112.61166, -7.955471 ], [ 112.612622, -7.95649 ], [ 112.612769, -7.956644 ], [ 112.612914, -7.956562 ], [ 112.613142, -7.956386 ], [ 112.613281, -7.956274 ], [ 112.613412, -7.956204 ], [ 112.613555, -7.956188 ], [ 112.615256, -7.955882 ], [ 112.615438, -7.955866 ], [ 112.615634, -7.95593 ], [ 112.615887, -7.956061 ], [ 112.616128, -7.956197 ], [ 112.617731, -7.957141 ], [ 112.618674, -7.957669 ], [ 112.619183, -7.957964 ], [ 112.619521, -7.958185 ], [ 112.619849, -7.958402 ], [ 112.620254, -7.958748 ], [ 112.620474, -7.958928 ], [ 112.621778, -7.96002 ], [ 112.621963, -7.960214 ], [ 112.622421, -7.96059 ], [ 112.623218, -7.961196 ], [ 112.623421, -7.961386 ], [ 112.623703, -7.9616 ], [ 112.624004, -7.961758 ], [ 112.62429, -7.96187 ], [ 112.62451, -7.961966 ], [ 112.62482, -7.96202 ], [ 112.625423, -7.96213 ], [ 112.625637, -7.962162 ], [ 112.625753, -7.962185 ], [ 112.625848, -7.962195 ], [ 112.625915, -7.962182 ], [ 112.625977, -7.962212 ], [ 112.625979, -7.962294 ], [ 112.625912, -7.962361 ], [ 112.625869, -7.962461 ], [ 112.625666, -7.962893 ], [ 112.625444, -7.963347 ], [ 112.625308, -7.963771 ], [ 112.625143, -7.964245 ], [ 112.625036, -7.964738 ], [ 112.624801, -7.965668 ], [ 112.624637, -7.966063 ], [ 112.624433, -7.966607 ], [ 112.624034, -7.967636 ], [ 112.623862, -7.968062 ], [ 112.623799, -7.968287 ], [ 112.623759, -7.968485 ], [ 112.623723, -7.96864 ], [ 112.62362, -7.968859 ], [ 112.622796, -7.970251 ], [ 112.62229, -7.971141 ], [ 112.621866, -7.971878 ], [ 112.621815, -7.972023 ], [ 112.621776, -7.972144 ], [ 112.621764, -7.972281 ], [ 112.621703, -7.972445 ], [ 112.621614, -7.972563 ], [ 112.621569, -7.972634 ], [ 112.621507, -7.972815 ], [ 112.621458, -7.973011 ], [ 112.620795, -7.975428 ], [ 112.620679, -7.975768 ], [ 112.620646, -7.975833 ], [ 112.621291, -7.976278 ], [ 112.621759, -7.976581 ], [ 112.62214, -7.976835 ], [ 112.6229, -7.97742 ], [ 112.623276, -7.977722 ], [ 112.623646, -7.978002 ], [ 112.625252, -7.979301 ], [ 112.625815, -7.979703 ], [ 112.625943, -7.97979 ], [ 112.626283, -7.979968 ], [ 112.626573, -7.980184 ], [ 112.626837, -7.98037 ], [ 112.627148, -7.98058 ], [ 112.627394, -7.980732 ], [ 112.62761, -7.980868 ], [ 112.627914, -7.980975 ], [ 112.628401, -7.981126 ], [ 112.629674, -7.981426 ], [ 112.630151, -7.98157 ], [ 112.630244, -7.981575 ], [ 112.630314, -7.981544 ], [ 112.630339, -7.981474 ], [ 112.630392, -7.981381 ], [ 112.63044, -7.981249 ], [ 112.630458, -7.98112 ], [ 112.630475, -7.981002 ], [ 112.630491, -7.980834 ], [ 112.630482, -7.980697 ], [ 112.63048, -7.980604 ], [ 112.630467, -7.980481 ], [ 112.630443, -7.980378 ], [ 112.630393, -7.98027 ], [ 112.630321, -7.980176 ], [ 112.630175, -7.980037 ], [ 112.630011, -7.979865 ], [ 112.629859, -7.979728 ], [ 112.629802, -7.979657 ], [ 112.629731, -7.979553 ], [ 112.629653, -7.979428 ], [ 112.629595, -7.979314 ], [ 112.629555, -7.979211 ], [ 112.629523, -7.979073 ], [ 112.62949, -7.978939 ], [ 112.629458, -7.978743 ], [ 112.629443, -7.978515 ], [ 112.629407, -7.97825 ], [ 112.629387, -7.977993 ], [ 112.629373, -7.977739 ], [ 112.629365, -7.977375 ], [ 112.629364, -7.977028 ], [ 112.629382, -7.976678 ], [ 112.629379, -7.976589 ], [ 112.629394, -7.976517 ], [ 112.629473, -7.976463 ], [ 112.629632, -7.976433 ], [ 112.629874, -7.976475 ], [ 112.630188, -7.976541 ], [ 112.630991, -7.976556 ], [ 112.631281, -7.976594 ], [ 112.632179, -7.976724 ], [ 112.632547, -7.976804 ], [ 112.633221, -7.976927 ], [ 112.633512, -7.976975 ], [ 112.633536, -7.976916 ], [ 112.63363, -7.976794 ], [ 112.633759, -7.976676 ], [ 112.633933, -7.976588 ], [ 112.63409, -7.976572 ], [ 112.634211, -7.976587 ], [ 112.634322, -7.976623 ], [ 112.63442, -7.976689 ], [ 112.634514, -7.976778 ], [ 112.63457, -7.976864 ], [ 112.634608, -7.976964 ], [ 112.634618, -7.97708 ], [ 112.634618, -7.977152 ], [ 112.634619, -7.977173 ], [ 112.634932, -7.977213 ], [ 112.635892, -7.977379 ], [ 112.636273, -7.977434 ], [ 112.636441, -7.977473 ], [ 112.63658, -7.977511 ], [ 112.636704, -7.977548 ], [ 112.636723, -7.977555 ], [ 112.636746, -7.977558 ], [ 112.636772, -7.977564 ], [ 112.636795, -7.977567 ], [ 112.63681, -7.977567 ], [ 112.636813, -7.977567 ], [ 112.636866, -7.977575 ], [ 112.636877, -7.977825 ], [ 112.636909, -7.978117 ], [ 112.636922, -7.978363 ], [ 112.637002, -7.979361 ], [ 112.637012, -7.979624 ], [ 112.637025, -7.979741 ], [ 112.637053, -7.979829 ], [ 112.637091, -7.97993 ], [ 112.637137, -7.980026 ], [ 112.637183, -7.980138 ], [ 112.637305, -7.980323 ], [ 112.637439, -7.980487 ], [ 112.637626, -7.980657 ], [ 112.637761, -7.980748 ], [ 112.637904, -7.98087 ], [ 112.637977, -7.980653 ], [ 112.638004, -7.980496 ], [ 112.638031, -7.980356 ], [ 112.638048, -7.980277 ], [ 112.638004, -7.98008 ], [ 112.638048, -7.979857 ], [ 112.6381, -7.979624 ], [ 112.638136, -7.979449 ], [ 112.638137, -7.979238 ], [ 112.638122, -7.978984 ], [ 112.638102, -7.978775 ], [ 112.638078, -7.978308 ], [ 112.638051, -7.978056 ], [ 112.638092, -7.978015 ], [ 112.638243, -7.977907 ], [ 112.638427, -7.977801 ], [ 112.63854, -7.977707 ], [ 112.638567, -7.977612 ], [ 112.638555, -7.977283 ], [ 112.638542, -7.976446 ], [ 112.638524, -7.975757 ], [ 112.638494, -7.974496 ], [ 112.638481, -7.973761 ], [ 112.638459, -7.972576 ], [ 112.638464, -7.972111 ], [ 112.638391, -7.970657 ], [ 112.638248, -7.968402 ], [ 112.63825, -7.967154 ], [ 112.638295, -7.967042 ], [ 112.638398, -7.966951 ], [ 112.638517, -7.966933 ], [ 112.638544, -7.966936 ], [ 112.638587, -7.966952 ], [ 112.638726, -7.967069 ], [ 112.638866, -7.967166 ], [ 112.639041, -7.967288 ], [ 112.639706, -7.967596 ], [ 112.640039, -7.9677 ], [ 112.640454, -7.967791 ], [ 112.640966, -7.967905 ], [ 112.641487, -7.968074 ], [ 112.641772, -7.968196 ], [ 112.641983, -7.968359 ], [ 112.642131, -7.968562 ], [ 112.642357, -7.968907 ], [ 112.642545, -7.969242 ], [ 112.642741, -7.969648 ], [ 112.642945, -7.970128 ], [ 112.643064, -7.970385 ], [ 112.643132, -7.970541 ], [ 112.643516, -7.970909 ], [ 112.643689, -7.971072 ], [ 112.644225, -7.971546 ], [ 112.644671, -7.971939 ], [ 112.644986, -7.972193 ], [ 112.645855, -7.972798 ], [ 112.646151, -7.973002 ], [ 112.646513, -7.973216 ], [ 112.646392, -7.973378 ], [ 112.64599, -7.97385 ], [ 112.645004, -7.974915 ], [ 112.644514, -7.975462 ], [ 112.644114, -7.976266 ], [ 112.643699, -7.977143 ], [ 112.643529, -7.97742 ], [ 112.643943, -7.977647 ], [ 112.644371, -7.977869 ], [ 112.644692, -7.97802 ], [ 112.64582, -7.978526 ], [ 112.646158, -7.978623 ], [ 112.646764, -7.978691 ], [ 112.647126, -7.978749 ], [ 112.649271, -7.978986 ], [ 112.650082, -7.979243 ], [ 112.65101, -7.979575 ], [ 112.651654, -7.979795 ], [ 112.651962, -7.97992 ], [ 112.652037, -7.979949 ], [ 112.652443, -7.980194 ], [ 112.652736, -7.980338 ], [ 112.653613, -7.980855 ], [ 112.65454, -7.981373 ], [ 112.654758, -7.981385 ], [ 112.655012, -7.981342 ], [ 112.65544, -7.981153 ], [ 112.655625, -7.981042 ], [ 112.657746, -7.980008 ], [ 112.659635, -7.979119 ], [ 112.65989, -7.979216 ], [ 112.661116, -7.979875 ], [ 112.661915, -7.980307 ], [ 112.662633, -7.980689 ], [ 112.662764, -7.980642 ], [ 112.663468, -7.980537 ], [ 112.663989, -7.980462 ], [ 112.665491, -7.980336 ], [ 112.666273, -7.980248 ], [ 112.668932, -7.980017 ], [ 112.669163, -7.979924 ], [ 112.669303, -7.979773 ], [ 112.669812, -7.978922 ], [ 112.67012, -7.978375 ], [ 112.670235, -7.978184 ], [ 112.671158, -7.976688 ], [ 112.671303, -7.976381 ], [ 112.67145, -7.976094 ], [ 112.671577, -7.975821 ], [ 112.670268, -7.974799 ], [ 112.668723, -7.973697 ], [ 112.668683, -7.973668 ], [ 112.668733, -7.973598 ], [ 112.668761, -7.973577 ], [ 112.668999, -7.973772 ], [ 112.669968, -7.974463 ], [ 112.670309, -7.974718 ], [ 112.670333, -7.974737 ], [ 112.670386, -7.974689 ], [ 112.670791, -7.974995 ], [ 112.67077, -7.975059 ], [ 112.671708, -7.975781 ], [ 112.671732, -7.97582 ], [ 112.671717, -7.975924 ], [ 112.671512, -7.976401 ], [ 112.67119, -7.97702 ], [ 112.67082, -7.9776 ], [ 112.669743, -7.979363 ], [ 112.669303, -7.980051 ], [ 112.669137, -7.980155 ], [ 112.668901, -7.98022 ], [ 112.667126, -7.980377 ], [ 112.664215, -7.980633 ], [ 112.662757, -7.980833 ], [ 112.662631, -7.980927 ], [ 112.662345, -7.98124 ], [ 112.662095, -7.981575 ], [ 112.6612, -7.982783 ], [ 112.661032, -7.982974 ], [ 112.660708, -7.983421 ], [ 112.660387, -7.98368 ], [ 112.659849, -7.983968 ], [ 112.657785, -7.984985 ], [ 112.657455, -7.985145 ], [ 112.65572, -7.986013 ], [ 112.655428, -7.986171 ], [ 112.654504, -7.986694 ], [ 112.654244, -7.986867 ], [ 112.653782, -7.987279 ], [ 112.652839, -7.988139 ], [ 112.651132, -7.989784 ], [ 112.650764, -7.990173 ], [ 112.649126, -7.991749 ], [ 112.648835, -7.992077 ], [ 112.648591, -7.992512 ], [ 112.648216, -7.993234 ], [ 112.648071, -7.993534 ], [ 112.647989, -7.993699 ], [ 112.64783, -7.993919 ], [ 112.647799, -7.994018 ], [ 112.647736, -7.994181 ], [ 112.647434, -7.99462 ], [ 112.647045, -7.995039 ], [ 112.646865, -7.995292 ], [ 112.646653, -7.995582 ], [ 112.646591, -7.995776 ], [ 112.646476, -7.996471 ], [ 112.646388, -7.996974 ], [ 112.646176, -7.997531 ], [ 112.646051, -7.997861 ], [ 112.646023, -7.99797 ], [ 112.646003, -7.998053 ], [ 112.64565, -7.998981 ], [ 112.645204, -8.000252 ], [ 112.644975, -8.000988 ], [ 112.644881, -8.001238 ], [ 112.644518, -8.002541 ], [ 112.644385, -8.002962 ], [ 112.644265, -8.003336 ], [ 112.644055, -8.004074 ], [ 112.644023, -8.004318 ], [ 112.643997, -8.004659 ], [ 112.643979, -8.004985 ], [ 112.643882, -8.00632 ], [ 112.643833, -8.006955 ], [ 112.64377, -8.008067 ], [ 112.643736, -8.008842 ], [ 112.643727, -8.009097 ], [ 112.643627, -8.011085 ], [ 112.643621, -8.011325 ], [ 112.643547, -8.012523 ], [ 112.643498, -8.013446 ], [ 112.643507, -8.013678 ], [ 112.643458, -8.014796 ], [ 112.643418, -8.015595 ], [ 112.643397, -8.016021 ], [ 112.643282, -8.018111 ], [ 112.64318, -8.020125 ], [ 112.643162, -8.020518 ], [ 112.643054, -8.022962 ], [ 112.643043, -8.023476 ], [ 112.643011, -8.024154 ], [ 112.642998, -8.024602 ], [ 112.64298, -8.024995 ], [ 112.642963, -8.025661 ], [ 112.642952, -8.026037 ], [ 112.642932, -8.02617 ], [ 112.642925, -8.026412 ], [ 112.643795, -8.026449 ], [ 112.643782, -8.026366 ] ] } }
]
}
